{
 "type": "FeatureCollection",
 "features": [
  {
   "type": "Feature",
   "geometry": {
    "type": "Point",
    "coordinates": [
     121.446365,
     24.976809
    ]
   },
   "properties": {
    "violation_id": "MOCK0002",
    "store_name": "新北市土城區廣福國小",
    "sample_name": "蕎麥",
    "category": "其他食品",
    "project": "雙北食品抽驗（模擬）",
    "district": "土城區",
    "address": "新北市土城區廣福國小",
    "test_date": "2026-03-16",
    "violation_type": "農藥殘留",
    "violation_severity": 90,
    "reason_summary": "殺蟲劑Cyromazine 賽滅淨0.14ppm(標準：不得檢出)",
    "is_mock": false
   }
  },
  {
   "type": "Feature",
   "geometry": {
    "type": "Point",
    "coordinates": [
     121.562193,
     25.056058
    ]
   },
   "properties": {
    "violation_id": "MOCK0006",
    "store_name": "臺北市松山區介壽國中",
    "sample_name": "板豆腐",
    "category": "豆菜類",
    "project": "雙北食品抽驗（模擬）",
    "district": "松山區",
    "address": "臺北市松山區介壽國中",
    "test_date": "2026-03-22",
    "violation_type": "農藥殘留",
    "violation_severity": 90,
    "reason_summary": "殺菌劑Pydiflumetofen\t派滅芬0.01ppm(標準：不得檢出)",
    "is_mock": false
   }
  },
  {
   "type": "Feature",
   "geometry": {
    "type": "Point",
    "coordinates": [
     121.542125,
     24.964437
    ]
   },
   "properties": {
    "violation_id": "MOCK0009",
    "store_name": "新北市新店區中正國小",
    "sample_name": "三色豆",
    "category": "豆菜類",
    "project": "雙北食品抽驗（模擬）",
    "district": "新店區",
    "address": "新北市新店區中正國小",
    "test_date": "2026-03-12",
    "violation_type": "農藥殘留",
    "violation_severity": 90,
    "reason_summary": "殺菌劑Mandipropamid\t曼普胺0.06ppm(標準：不得檢出) 殺菌劑Oxathiapiprolin\t歐西比0.01ppm(標準：不得檢出)",
    "is_mock": false
   }
  },
  {
   "type": "Feature",
   "geometry": {
    "type": "Point",
    "coordinates": [
     121.478986,
     25.085663
    ]
   },
   "properties": {
    "violation_id": "MOCK0012",
    "store_name": "新北市蘆洲區忠義國小",
    "sample_name": "九層塔",
    "category": "香辛植物及其他草木本植物",
    "project": "雙北食品抽驗（模擬）",
    "district": "蘆洲區",
    "address": "新北市蘆洲區忠義國小",
    "test_date": "2026-03-30",
    "violation_type": "農藥殘留",
    "violation_severity": 90,
    "reason_summary": "殺菌劑Difenoconazole\t待克利1.4ppm(標準：0.5ppm以下)",
    "is_mock": false
   }
  },
  {
   "type": "Feature",
   "geometry": {
    "type": "Point",
    "coordinates": [
     121.542213,
     24.967596
    ]
   },
   "properties": {
    "violation_id": "MOCK0014",
    "store_name": "新北市新店區雙城國小",
    "sample_name": "蘿蔔乾",
    "category": "根莖菜類",
    "project": "雙北食品抽驗（模擬）",
    "district": "新店區",
    "address": "新北市新店區雙城國小",
    "test_date": "2026-03-08",
    "violation_type": "其他",
    "violation_severity": 60,
    "reason_summary": "總黃麴毒素30.8ug/kg(標準：4ug/kg以下)、黃麴毒素B1 25.2ug/kg (標準：2ug/kg以下)",
    "is_mock": false
   }
  },
  {
   "type": "Feature",
   "geometry": {
    "type": "Point",
    "coordinates": [
     121.604036,
     25.057823
    ]
   },
   "properties": {
    "violation_id": "MOCK0015",
    "store_name": "臺北市南港區南港國小",
    "sample_name": "鳳梨",
    "category": "大漿果類",
    "project": "雙北食品抽驗（模擬）",
    "district": "南港區",
    "address": "臺北市南港區南港國小",
    "test_date": "2026-03-24",
    "violation_type": "農藥殘留",
    "violation_severity": 90,
    "reason_summary": "1.蘇丹三號-4ppb (標準：不得檢出) 2.克美素-0.06ppm (標準：不得檢出)",
    "is_mock": false
   }
  },
  {
   "type": "Feature",
   "geometry": {
    "type": "Point",
    "coordinates": [
     121.49162,
     25.066466
    ]
   },
   "properties": {
    "violation_id": "MOCK0016",
    "store_name": "新北市三重區碧華國小",
    "sample_name": "豬後腿肉",
    "category": "肉品",
    "project": "雙北食品抽驗（模擬）",
    "district": "三重區",
    "address": "新北市三重區碧華國小",
    "test_date": "2026-03-12",
    "violation_type": "農藥殘留",
    "violation_severity": 90,
    "reason_summary": "殺蟲劑Clothianidin 可尼丁0.07ppm(標準：0.02ppm以下)",
    "is_mock": false
   }
  },
  {
   "type": "Feature",
   "geometry": {
    "type": "Point",
    "coordinates": [
     121.56907,
     24.984589
    ]
   },
   "properties": {
    "violation_id": "MOCK0019",
    "store_name": "臺北市文山區力行國小",
    "sample_name": "松茸",
    "category": "其他食品",
    "project": "雙北食品抽驗（模擬）",
    "district": "文山區",
    "address": "臺北市文山區力行國小",
    "test_date": "2026-03-23",
    "violation_type": "農藥殘留",
    "violation_severity": 90,
    "reason_summary": "殺菌劑Dimethomorph 達滅芬4.1ppm(標準：2.5ppm以下)",
    "is_mock": false
   }
  },
  {
   "type": "Feature",
   "geometry": {
    "type": "Point",
    "coordinates": [
     121.567545,
     24.990324
    ]
   },
   "properties": {
    "violation_id": "MOCK0021",
    "store_name": "臺北市文山區興華國小",
    "sample_name": "鬼頭刀",
    "category": "其他食品",
    "project": "雙北食品抽驗（模擬）",
    "district": "文山區",
    "address": "臺北市文山區興華國小",
    "test_date": "2026-03-13",
    "violation_type": "農藥殘留",
    "violation_severity": 90,
    "reason_summary": "殺蟲劑Clothianidin 可尼丁0.08ppm(標準：0.02ppm以下)  殺蟲劑Dichlorvos二氯松0.04ppm(標準：不得檢出) 殺蟲劑Trichlorfon 三氯松0.19ppm(標準：0.01ppm以下)",
    "is_mock": false
   }
  },
  {
   "type": "Feature",
   "geometry": {
    "type": "Point",
    "coordinates": [
     121.418029,
     24.987133
    ]
   },
   "properties": {
    "violation_id": "MOCK0023",
    "store_name": "新北市樹林區三多國中",
    "sample_name": "鹹酸菜",
    "category": "其他食品",
    "project": "雙北食品抽驗（模擬）",
    "district": "樹林區",
    "address": "新北市樹林區三多國中",
    "test_date": "2026-03-05",
    "violation_type": "農藥殘留",
    "violation_severity": 90,
    "reason_summary": "殺蟲劑Chlorpyrifos陶斯松0.45ppm(標準：不得檢出) 殺菌劑Cyazofamid\t賽座滅0.03ppm(標準：0.01ppm以下)\t 殺蟲劑Imidacloprid\t益達胺1.2ppm(標準：1.0ppm以下)",
    "is_mock": false
   }
  },
  {
   "type": "Feature",
   "geometry": {
    "type": "Point",
    "coordinates": [
     121.571669,
     24.990347
    ]
   },
   "properties": {
    "violation_id": "MOCK0026",
    "store_name": "臺北市文山區興華國小",
    "sample_name": "茄子",
    "category": "果菜類",
    "project": "雙北食品抽驗（模擬）",
    "district": "文山區",
    "address": "臺北市文山區興華國小",
    "test_date": "2026-03-29",
    "violation_type": "農藥殘留",
    "violation_severity": 90,
    "reason_summary": "殺蟲劑Cyantraniliprole 賽安勃0.34ppm(標準：不得檢出)",
    "is_mock": false
   }
  },
  {
   "type": "Feature",
   "geometry": {
    "type": "Point",
    "coordinates": [
     121.635012,
     25.222263
    ]
   },
   "properties": {
    "violation_id": "MOCK0027",
    "store_name": "新北市金山區金美國小",
    "sample_name": "韭菜",
    "category": "香辛植物及其他草木本植物",
    "project": "雙北食品抽驗（模擬）",
    "district": "金山區",
    "address": "新北市金山區金美國小",
    "test_date": "2026-03-10",
    "violation_type": "農藥殘留",
    "violation_severity": 90,
    "reason_summary": "殺蟎劑Formetanate\t覆滅蟎0.40ppm(標準：不得檢出)\t 殺蟲劑Thiamethoxam\t賽速安0.04ppm(標準：0.02ppm以下)",
    "is_mock": false
   }
  },
  {
   "type": "Feature",
   "geometry": {
    "type": "Point",
    "coordinates": [
     121.57185,
     25.029694
    ]
   },
   "properties": {
    "violation_id": "MOCK0029",
    "store_name": "臺北市信義區吳興國小",
    "sample_name": "白米",
    "category": "其他食品",
    "project": "雙北食品抽驗（模擬）",
    "district": "信義區",
    "address": "臺北市信義區吳興國小",
    "test_date": "2026-03-29",
    "violation_type": "農藥殘留",
    "violation_severity": 90,
    "reason_summary": "還原型結晶紫（leucocrystal violet, LCV） 0.6 ppb（標準 ：不得檢出）",
    "is_mock": false
   }
  },
  {
   "type": "Feature",
   "geometry": {
    "type": "Point",
    "coordinates": [
     121.575591,
     24.986133
    ]
   },
   "properties": {
    "violation_id": "MOCK0030",
    "store_name": "臺北市文山區木柵國小",
    "sample_name": "獅子頭",
    "category": "其他食品",
    "project": "雙北食品抽驗（模擬）",
    "district": "文山區",
    "address": "臺北市文山區木柵國小",
    "test_date": "2026-03-08",
    "violation_type": "農藥殘留",
    "violation_severity": 90,
    "reason_summary": "殺蟲劑Cyhalothrin 賽洛寧1.0ppm(標準：0.5ppm以下)",
    "is_mock": false
   }
  },
  {
   "type": "Feature",
   "geometry": {
    "type": "Point",
    "coordinates": [
     121.586172,
     25.063307
    ]
   },
   "properties": {
    "violation_id": "MOCK0033",
    "store_name": "臺北市內湖區西湖國小",
    "sample_name": "傳統豆腐",
    "category": "豆菜類",
    "project": "雙北食品抽驗（模擬）",
    "district": "內湖區",
    "address": "臺北市內湖區西湖國小",
    "test_date": "2026-03-01",
    "violation_type": "其他",
    "violation_severity": 60,
    "reason_summary": "1.黃麴毒素B1：19.0 μg/kg（標準：2 μg/kg以下） 2.總黃麴毒素B1+B2+G1+G2：21.7μg/kg（標準：4 μg/kg以下）",
    "is_mock": false
   }
  },
  {
   "type": "Feature",
   "geometry": {
    "type": "Point",
    "coordinates": [
     121.600538,
     25.050246
    ]
   },
   "properties": {
    "violation_id": "MOCK0035",
    "store_name": "臺北市南港區東新國小",
    "sample_name": "櫛瓜",
    "category": "果菜類",
    "project": "雙北食品抽驗（模擬）",
    "district": "南港區",
    "address": "臺北市南港區東新國小",
    "test_date": "2026-03-17",
    "violation_type": "農藥殘留",
    "violation_severity": 90,
    "reason_summary": "殺蟲劑Deltamethrin 第滅寧1.4ppm(標準：0.5ppm以下)  殺菌劑Pyraclostrobin 百克敏0.6ppm(標準：0.5ppm以下)",
    "is_mock": false
   }
  },
  {
   "type": "Feature",
   "geometry": {
    "type": "Point",
    "coordinates": [
     121.45157,
     25.034402
    ]
   },
   "properties": {
    "violation_id": "MOCK0037",
    "store_name": "新北市新莊區思賢國小",
    "sample_name": "栗子",
    "category": "其他食品",
    "project": "雙北食品抽驗（模擬）",
    "district": "新莊區",
    "address": "新北市新莊區思賢國小",
    "test_date": "2026-03-12",
    "violation_type": "標示不符",
    "violation_severity": 50,
    "reason_summary": "未標示原產地（國）、有效日期標示單獨黏貼未依規定印刷於外包裝上。",
    "is_mock": false
   }
  },
  {
   "type": "Feature",
   "geometry": {
    "type": "Point",
    "coordinates": [
     121.439285,
     25.16564
    ]
   },
   "properties": {
    "violation_id": "MOCK0039",
    "store_name": "新北市淡水區竹圍國小",
    "sample_name": "芹菜",
    "category": "其他食品",
    "project": "雙北食品抽驗（模擬）",
    "district": "淡水區",
    "address": "新北市淡水區竹圍國小",
    "test_date": "2026-03-30",
    "violation_type": "農藥殘留",
    "violation_severity": 90,
    "reason_summary": "殺蟎劑Bifenazate\t必芬蟎0.07ppm(標準：不得檢出)",
    "is_mock": false
   }
  },
  {
   "type": "Feature",
   "geometry": {
    "type": "Point",
    "coordinates": [
     121.691721,
     25.179792
    ]
   },
   "properties": {
    "violation_id": "MOCK0043",
    "store_name": "新北市萬里區大鵬國小",
    "sample_name": "洋蔥",
    "category": "香辛植物及其他草木本植物",
    "project": "雙北食品抽驗（模擬）",
    "district": "萬里區",
    "address": "新北市萬里區大鵬國小",
    "test_date": "2026-03-30",
    "violation_type": "農藥殘留",
    "violation_severity": 90,
    "reason_summary": "殺菌劑Boscalid\t白克列21.87ppm(標準：0.01ppm以下)\t 殺菌劑Procymidone\t撲滅寧10.3ppm(標準：5.0ppm以下)",
    "is_mock": false
   }
  },
  {
   "type": "Feature",
   "geometry": {
    "type": "Point",
    "coordinates": [
     121.590868,
     25.068405
    ]
   },
   "properties": {
    "violation_id": "MOCK0044",
    "store_name": "臺北市內湖區文湖國小",
    "sample_name": "豬大里肌",
    "category": "肉品",
    "project": "雙北食品抽驗（模擬）",
    "district": "內湖區",
    "address": "臺北市內湖區文湖國小",
    "test_date": "2026-03-31",
    "violation_type": "農藥殘留",
    "violation_severity": 90,
    "reason_summary": "殺蟲劑Chlorfenapyr 克凡派2.0ppm(標準：1.0ppm以下)  殺蟲劑Indoxacarb 因得克2.4ppm(標準：2.0ppm以下)",
    "is_mock": false
   }
  },
  {
   "type": "Feature",
   "geometry": {
    "type": "Point",
    "coordinates": [
     121.528651,
     25.060585
    ]
   },
   "properties": {
    "violation_id": "MOCK0046",
    "store_name": "臺北市中山區中山國小",
    "sample_name": "毛豆仁",
    "category": "豆菜類",
    "project": "雙北食品抽驗（模擬）",
    "district": "中山區",
    "address": "臺北市中山區中山國小",
    "test_date": "2026-03-21",
    "violation_type": "農藥殘留",
    "violation_severity": 90,
    "reason_summary": "殺菌劑Flutolanil\t福多寧0.05ppm(標準：0.01ppm以下)",
    "is_mock": false
   }
  },
  {
   "type": "Feature",
   "geometry": {
    "type": "Point",
    "coordinates": [
     121.624694,
     25.070205
    ]
   },
   "properties": {
    "violation_id": "MOCK0050",
    "store_name": "新北市汐止區白雲國小",
    "sample_name": "香菇",
    "category": "其他食品",
    "project": "雙北食品抽驗（模擬）",
    "district": "汐止區",
    "address": "新北市汐止區白雲國小",
    "test_date": "2026-03-12",
    "violation_type": "農藥殘留",
    "violation_severity": 90,
    "reason_summary": "殺蟲劑Methomyl\t納乃得3.1ppm(標準：2.0ppm以下)\t 殺菌劑Pyraclostrobin\t百克敏1.4ppm(標準0.5ppm以下)",
    "is_mock": false
   }
  },
  {
   "type": "Feature",
   "geometry": {
    "type": "Point",
    "coordinates": [
     121.802628,
     25.10358
    ]
   },
   "properties": {
    "violation_id": "MOCK0051",
    "store_name": "新北市瑞芳區九份國小",
    "sample_name": "白蘿蔔(長形)",
    "category": "根莖菜類",
    "project": "雙北食品抽驗（模擬）",
    "district": "瑞芳區",
    "address": "新北市瑞芳區九份國小",
    "test_date": "2026-03-10",
    "violation_type": "農藥殘留",
    "violation_severity": 90,
    "reason_summary": "殺蟲劑Chlorfenapyr 克凡派2.2ppm(標準：1.0ppm以下)  殺蟲劑Fipronil 芬普尼0.435ppm及芬普尼代謝物Fipronil-sulfone0.083ppm，合計共0.518ppm(標準：0.001ppm以下)  殺蟲劑Indoxacarb 因得克3.7ppm(標準：2.0ppm以下)  殺蟲劑Pyriproxyfen 百利普芬1.53ppm(標準：0.01ppm以下)",
    "is_mock": false
   }
  },
  {
   "type": "Feature",
   "geometry": {
    "type": "Point",
    "coordinates": [
     121.6081,
     25.0517
    ]
   },
   "properties": {
    "violation_id": "MOCK0052",
    "store_name": "臺北市南港區成德國中",
    "sample_name": "蒟蒻小卷",
    "category": "其他食品",
    "project": "雙北食品抽驗（模擬）",
    "district": "南港區",
    "address": "臺北市南港區成德國中",
    "test_date": "2026-03-13",
    "violation_type": "農藥殘留",
    "violation_severity": 90,
    "reason_summary": "殺蟲劑Buprofezin布芬淨0.02ppm（標準：不得檢出） 殺菌劑Pyraclostrobin百克敏0.8ppm（標準：0.5ppm以下）",
    "is_mock": false
   }
  },
  {
   "type": "Feature",
   "geometry": {
    "type": "Point",
    "coordinates": [
     121.519286,
     25.063091
    ]
   },
   "properties": {
    "violation_id": "MOCK0053",
    "store_name": "臺北市大同區建成國中",
    "sample_name": "葡萄",
    "category": "小漿果類",
    "project": "雙北食品抽驗（模擬）",
    "district": "大同區",
    "address": "臺北市大同區建成國中",
    "test_date": "2026-03-08",
    "violation_type": "農藥殘留",
    "violation_severity": 90,
    "reason_summary": "殺菌劑Chlorothalonil四氯異苯腈4.1ppm(標準：2.0ppm以下)",
    "is_mock": false
   }
  },
  {
   "type": "Feature",
   "geometry": {
    "type": "Point",
    "coordinates": [
     121.455862,
     25.037348
    ]
   },
   "properties": {
    "violation_id": "MOCK0056",
    "store_name": "新北市新莊區民安國小",
    "sample_name": "洋蔥",
    "category": "香辛植物及其他草木本植物",
    "project": "雙北食品抽驗（模擬）",
    "district": "新莊區",
    "address": "新北市新莊區民安國小",
    "test_date": "2026-03-01",
    "violation_type": "農藥殘留",
    "violation_severity": 90,
    "reason_summary": "殺蟲劑Chlorfenapyr 克凡派2.2ppm(標準：1.0ppm以下)  殺蟲劑Fipronil 芬普尼0.435ppm及芬普尼代謝物Fipronil-sulfone0.083ppm，合計共0.518ppm(標準：0.001ppm以下)  殺蟲劑Indoxacarb 因得克3.7ppm(標準：2.0ppm以下)  殺蟲劑Pyriproxyfen 百利普芬1.53ppm(標準：0.01ppm以下)",
    "is_mock": false
   }
  },
  {
   "type": "Feature",
   "geometry": {
    "type": "Point",
    "coordinates": [
     121.534327,
     25.06006
    ]
   },
   "properties": {
    "violation_id": "MOCK0059",
    "store_name": "臺北市中山區大佳國小",
    "sample_name": "無鹽奶油",
    "category": "乳品",
    "project": "雙北食品抽驗（模擬）",
    "district": "中山區",
    "address": "臺北市中山區大佳國小",
    "test_date": "2026-03-21",
    "violation_type": "農藥殘留",
    "violation_severity": 90,
    "reason_summary": "脫氧羥四環黴素(Doxycycline): 0.8ppm （標準：0.3 ppm）",
    "is_mock": false
   }
  },
  {
   "type": "Feature",
   "geometry": {
    "type": "Point",
    "coordinates": [
     121.548082,
     25.022962
    ]
   },
   "properties": {
    "violation_id": "MOCK0062",
    "store_name": "臺北市大安區幸安國小",
    "sample_name": "南瓜",
    "category": "果菜類",
    "project": "雙北食品抽驗（模擬）",
    "district": "大安區",
    "address": "臺北市大安區幸安國小",
    "test_date": "2026-03-29",
    "violation_type": "農藥殘留",
    "violation_severity": 90,
    "reason_summary": "生長調節劑Gibberellic acid 勃激素A3 0.05ppm(標準：不得檢出)",
    "is_mock": false
   }
  },
  {
   "type": "Feature",
   "geometry": {
    "type": "Point",
    "coordinates": [
     121.51784,
     25.090693
    ]
   },
   "properties": {
    "violation_id": "MOCK0063",
    "store_name": "臺北市士林區陽明山國小",
    "sample_name": "帶皮雞胸肉(肉雞)",
    "category": "肉品",
    "project": "雙北食品抽驗（模擬）",
    "district": "士林區",
    "address": "臺北市士林區陽明山國小",
    "test_date": "2026-03-25",
    "violation_type": "農藥殘留",
    "violation_severity": 90,
    "reason_summary": "殺蟲劑Fipronil-sulfone芬普尼代謝物0.007ppm(標準：0.001ppm以下)  殺菌劑Fluxapyroxad 氟克殺0.7ppm(標準：0.6ppm以下)",
    "is_mock": false
   }
  },
  {
   "type": "Feature",
   "geometry": {
    "type": "Point",
    "coordinates": [
     121.495763,
     25.002653
    ]
   },
   "properties": {
    "violation_id": "MOCK0064",
    "store_name": "新北市中和區漳和國中",
    "sample_name": "黃豆芽",
    "category": "豆菜類",
    "project": "雙北食品抽驗（模擬）",
    "district": "中和區",
    "address": "新北市中和區漳和國中",
    "test_date": "2026-03-27",
    "violation_type": "微生物",
    "violation_severity": 85,
    "reason_summary": "腸桿菌科：2.6x10^3 CFU/g (標準：10 CFU/g)",
    "is_mock": false
   }
  },
  {
   "type": "Feature",
   "geometry": {
    "type": "Point",
    "coordinates": [
     121.54534,
     25.021583
    ]
   },
   "properties": {
    "violation_id": "MOCK0066",
    "store_name": "臺北市大安區大安國小",
    "sample_name": "切片火腿(豬肉)",
    "category": "肉品",
    "project": "雙北食品抽驗（模擬）",
    "district": "大安區",
    "address": "臺北市大安區大安國小",
    "test_date": "2026-03-06",
    "violation_type": "農藥殘留",
    "violation_severity": 90,
    "reason_summary": "殺蟲劑Omethoate\t歐滅松 0.07ppm(標準：不得檢出)",
    "is_mock": false
   }
  },
  {
   "type": "Feature",
   "geometry": {
    "type": "Point",
    "coordinates": [
     121.523255,
     25.099051
    ]
   },
   "properties": {
    "violation_id": "MOCK0067",
    "store_name": "臺北市士林區芝山國小",
    "sample_name": "地瓜",
    "category": "根莖菜類",
    "project": "雙北食品抽驗（模擬）",
    "district": "士林區",
    "address": "臺北市士林區芝山國小",
    "test_date": "2026-03-27",
    "violation_type": "農藥殘留",
    "violation_severity": 90,
    "reason_summary": "殺菌劑Pydiflumetofen\t派滅芬0.01ppm(標準：不得檢出)",
    "is_mock": false
   }
  },
  {
   "type": "Feature",
   "geometry": {
    "type": "Point",
    "coordinates": [
     121.511884,
     25.069038
    ]
   },
   "properties": {
    "violation_id": "MOCK0069",
    "store_name": "臺北市大同區蘭州國中",
    "sample_name": "粉圓",
    "category": "其他食品",
    "project": "雙北食品抽驗（模擬）",
    "district": "大同區",
    "address": "臺北市大同區蘭州國中",
    "test_date": "2026-03-15",
    "violation_type": "農藥殘留",
    "violation_severity": 90,
    "reason_summary": "殺蟎劑Bifenazate\t必芬蟎0.07ppm(標準：不得檢出)",
    "is_mock": false
   }
  },
  {
   "type": "Feature",
   "geometry": {
    "type": "Point",
    "coordinates": [
     121.555053,
     25.06163
    ]
   },
   "properties": {
    "violation_id": "MOCK0070",
    "store_name": "臺北市松山區民生國中",
    "sample_name": "海苔絲",
    "category": "其他食品",
    "project": "雙北食品抽驗（模擬）",
    "district": "松山區",
    "address": "臺北市松山區民生國中",
    "test_date": "2026-03-30",
    "violation_type": "標示不符",
    "violation_severity": 50,
    "reason_summary": "(一)內容物為二種以上混合物未依其含量多寡由高至低分別標示。 (二)未標示「淨重、容量或數量」及「原產地（國）」。 (三)內容物含有麩質之穀類、蛋、奶、大豆及其製品，未標示食品過敏原資訊等。",
    "is_mock": false
   }
  },
  {
   "type": "Feature",
   "geometry": {
    "type": "Point",
    "coordinates": [
     121.571545,
     24.991767
    ]
   },
   "properties": {
    "violation_id": "MOCK0071",
    "store_name": "臺北市文山區實踐國中",
    "sample_name": "雞里肌肉",
    "category": "肉品",
    "project": "雙北食品抽驗（模擬）",
    "district": "文山區",
    "address": "臺北市文山區實踐國中",
    "test_date": "2026-03-03",
    "violation_type": "農藥殘留",
    "violation_severity": 90,
    "reason_summary": "殺蟲劑Cyromazine 賽滅淨0.12ppm(標準：不得檢出)",
    "is_mock": false
   }
  },
  {
   "type": "Feature",
   "geometry": {
    "type": "Point",
    "coordinates": [
     121.522384,
     25.088272
    ]
   },
   "properties": {
    "violation_id": "MOCK0072",
    "store_name": "臺北市士林區陽明山國小",
    "sample_name": "洋菇罐頭",
    "category": "其他食品",
    "project": "雙北食品抽驗（模擬）",
    "district": "士林區",
    "address": "臺北市士林區陽明山國小",
    "test_date": "2026-03-19",
    "violation_type": "重金屬",
    "violation_severity": 100,
    "reason_summary": "鎘:0.17 mg/kg (標準:0.05 mg/kg以下) 扶吉胺:0.30 ppm (標準:不得檢出)",
    "is_mock": false
   }
  },
  {
   "type": "Feature",
   "geometry": {
    "type": "Point",
    "coordinates": [
     121.486117,
     25.060926
    ]
   },
   "properties": {
    "violation_id": "MOCK0078",
    "store_name": "新北市三重區三和國中",
    "sample_name": "鵪鶉蛋",
    "category": "蛋品",
    "project": "雙北食品抽驗（模擬）",
    "district": "三重區",
    "address": "新北市三重區三和國中",
    "test_date": "2026-03-06",
    "violation_type": "農藥殘留",
    "violation_severity": 90,
    "reason_summary": "賽果培(Thiacloprid):0.04 ppm (標準:0.02 ppm)",
    "is_mock": false
   }
  },
  {
   "type": "Feature",
   "geometry": {
    "type": "Point",
    "coordinates": [
     121.51131,
     25.012994
    ]
   },
   "properties": {
    "violation_id": "MOCK0079",
    "store_name": "新北市永和區福和國中",
    "sample_name": "洋蔥",
    "category": "香辛植物及其他草木本植物",
    "project": "雙北食品抽驗（模擬）",
    "district": "永和區",
    "address": "新北市永和區福和國中",
    "test_date": "2026-03-05",
    "violation_type": "農藥殘留",
    "violation_severity": 90,
    "reason_summary": "1.殺蟲劑Acetamiprid亞滅培3.9ppm（標準：2.0ppm以下） 2.產品外包裝標示「天然生機」字樣及產品內附有未檢出農藥殘留之檢驗報告，標示不實且易生誤解",
    "is_mock": false
   }
  },
  {
   "type": "Feature",
   "geometry": {
    "type": "Point",
    "coordinates": [
     121.454518,
     25.006477
    ]
   },
   "properties": {
    "violation_id": "MOCK0082",
    "store_name": "新北市板橋區中山國小",
    "sample_name": "魷魚羹",
    "category": "水產",
    "project": "雙北食品抽驗（模擬）",
    "district": "板橋區",
    "address": "新北市板橋區中山國小",
    "test_date": "2026-03-26",
    "violation_type": "標示不符",
    "violation_severity": 50,
    "reason_summary": "本體未以印刷、打印或壓印方式標示耐熱溫度。",
    "is_mock": false
   }
  },
  {
   "type": "Feature",
   "geometry": {
    "type": "Point",
    "coordinates": [
     121.529146,
     25.067054
    ]
   },
   "properties": {
    "violation_id": "MOCK0083",
    "store_name": "臺北市中山區長春國小",
    "sample_name": "小番茄",
    "category": "果菜類",
    "project": "雙北食品抽驗（模擬）",
    "district": "中山區",
    "address": "臺北市中山區長春國小",
    "test_date": "2026-03-18",
    "violation_type": "農藥殘留",
    "violation_severity": 90,
    "reason_summary": "殺菌劑Iprobenfos\t丙基喜樂松0.05ppm(標準：0.01ppm以下)\t 殺菌劑Tricyclazole\t三賽唑0.03ppm(標準：不得檢出)",
    "is_mock": false
   }
  },
  {
   "type": "Feature",
   "geometry": {
    "type": "Point",
    "coordinates": [
     121.482248,
     25.061516
    ]
   },
   "properties": {
    "violation_id": "MOCK0084",
    "store_name": "新北市三重區明志國中",
    "sample_name": "骨腿",
    "category": "其他食品",
    "project": "雙北食品抽驗（模擬）",
    "district": "三重區",
    "address": "新北市三重區明志國中",
    "test_date": "2026-03-09",
    "violation_type": "標示不符",
    "violation_severity": 50,
    "reason_summary": "未標示原產地（國）、有效日期標示單獨黏貼未依規定印刷於外包裝上。",
    "is_mock": false
   }
  },
  {
   "type": "Feature",
   "geometry": {
    "type": "Point",
    "coordinates": [
     121.512465,
     25.008533
    ]
   },
   "properties": {
    "violation_id": "MOCK0087",
    "store_name": "新北市永和區私立竹林國小",
    "sample_name": "海帶絲",
    "category": "其他食品",
    "project": "雙北食品抽驗（模擬）",
    "district": "永和區",
    "address": "新北市永和區私立竹林國小",
    "test_date": "2026-03-16",
    "violation_type": "農藥殘留",
    "violation_severity": 90,
    "reason_summary": "殺菌劑Triadimenol\t三泰隆 0.27ppm(標準：0.05ppm以下)",
    "is_mock": false
   }
  },
  {
   "type": "Feature",
   "geometry": {
    "type": "Point",
    "coordinates": [
     121.519294,
     25.089166
    ]
   },
   "properties": {
    "violation_id": "MOCK0089",
    "store_name": "臺北市士林區士林國中",
    "sample_name": "黑糖蜜",
    "category": "其他食品",
    "project": "雙北食品抽驗（模擬）",
    "district": "士林區",
    "address": "臺北市士林區士林國中",
    "test_date": "2026-03-27",
    "violation_type": "農藥殘留",
    "violation_severity": 90,
    "reason_summary": "克美素-0.1ppm (標準：不得檢出)",
    "is_mock": false
   }
  },
  {
   "type": "Feature",
   "geometry": {
    "type": "Point",
    "coordinates": [
     121.535632,
     24.962561
    ]
   },
   "properties": {
    "violation_id": "MOCK0090",
    "store_name": "新北市新店區直潭國小",
    "sample_name": "醬油",
    "category": "其他食品",
    "project": "雙北食品抽驗（模擬）",
    "district": "新店區",
    "address": "新北市新店區直潭國小",
    "test_date": "2026-03-22",
    "violation_type": "農藥殘留",
    "violation_severity": 90,
    "reason_summary": "殺蟲劑Thiamethoxam\t賽速安0.48ppm(標準：0.25ppm以下)\t 殺蟲劑Trichlorfon\t三氯松0.04ppm(標準：0.01ppm以下)",
    "is_mock": false
   }
  },
  {
   "type": "Feature",
   "geometry": {
    "type": "Point",
    "coordinates": [
     121.447973,
     25.037243
    ]
   },
   "properties": {
    "violation_id": "MOCK0091",
    "store_name": "新北市新莊區新莊國中",
    "sample_name": "冬瓜",
    "category": "果菜類",
    "project": "雙北食品抽驗（模擬）",
    "district": "新莊區",
    "address": "新北市新莊區新莊國中",
    "test_date": "2026-03-17",
    "violation_type": "農藥殘留",
    "violation_severity": 90,
    "reason_summary": "殺菌劑Bupirimate\t布瑞莫0.02ppm(標準：0.01ppm以下)\t 殺菌劑Prochloraz\t撲克拉0.69ppm(標準：0.01ppm以下)\t 殺蟲劑Pyriproxyfen\t百利普芬0.6ppm(標準：0.2ppm以下)\t 殺蟲劑Spinetoram\t賜諾特0.08ppm(標準：0.05ppm以下)\t 殺蟲劑Tolfenpyrad\t脫芬瑞0.07ppm(標準：0.01ppm以下)",
    "is_mock": false
   }
  },
  {
   "type": "Feature",
   "geometry": {
    "type": "Point",
    "coordinates": [
     121.449463,
     25.038821
    ]
   },
   "properties": {
    "violation_id": "MOCK0092",
    "store_name": "新北市新莊區豐年國小",
    "sample_name": "地瓜",
    "category": "根莖菜類",
    "project": "雙北食品抽驗（模擬）",
    "district": "新莊區",
    "address": "新北市新莊區豐年國小",
    "test_date": "2026-03-26",
    "violation_type": "農藥殘留",
    "violation_severity": 90,
    "reason_summary": "殺蟲劑Bifenthrin\t畢芬寧 0.07ppm(標準：0.03ppm以下) 殺蟲劑Cypermethrin\t賽滅寧 0.06ppm(標準：0.03ppm以下) 殺蟲劑Fipronil\t芬普尼 0.003ppm(標準：0.002ppm以下)\t 殺蟲劑Triazophos\t三落松 0.08ppm(標準：0.05ppm以下)",
    "is_mock": false
   }
  },
  {
   "type": "Feature",
   "geometry": {
    "type": "Point",
    "coordinates": [
     121.521741,
     25.093248
    ]
   },
   "properties": {
    "violation_id": "MOCK0094",
    "store_name": "臺北市士林區平等國小",
    "sample_name": "楊桃",
    "category": "核果類",
    "project": "雙北食品抽驗（模擬）",
    "district": "士林區",
    "address": "臺北市士林區平等國小",
    "test_date": "2026-03-24",
    "violation_type": "農藥殘留",
    "violation_severity": 90,
    "reason_summary": "殺蟲劑Cypermethrin\t賽滅寧 0.04ppm(標準：0.03ppm以下)\t 殺蟲劑Deltamethrin\t第滅寧 0.04ppm(標準：0.03ppm以下) 殺菌劑Tebuconazole\t得克利 0.72ppm(標準：0.05ppm以下)",
    "is_mock": false
   }
  },
  {
   "type": "Feature",
   "geometry": {
    "type": "Point",
    "coordinates": [
     121.604891,
     25.051352
    ]
   },
   "properties": {
    "violation_id": "MOCK0095",
    "store_name": "臺北市南港區修德國小",
    "sample_name": "海帶結",
    "category": "其他食品",
    "project": "雙北食品抽驗（模擬）",
    "district": "南港區",
    "address": "臺北市南港區修德國小",
    "test_date": "2026-03-27",
    "violation_type": "農藥殘留",
    "violation_severity": 90,
    "reason_summary": "殺蟲劑Pyriproxyfen\t百利普芬0.19ppm(標準：0.01ppm以下)",
    "is_mock": false
   }
  },
  {
   "type": "Feature",
   "geometry": {
    "type": "Point",
    "coordinates": [
     121.502922,
     25.039532
    ]
   },
   "properties": {
    "violation_id": "MOCK0097",
    "store_name": "臺北市萬華區私立光仁國小",
    "sample_name": "蒜泥",
    "category": "香辛植物及其他草木本植物",
    "project": "雙北食品抽驗（模擬）",
    "district": "萬華區",
    "address": "臺北市萬華區私立光仁國小",
    "test_date": "2026-03-27",
    "violation_type": "農藥殘留",
    "violation_severity": 90,
    "reason_summary": "殺菌劑Chlorothalonil四氯異苯腈4.1ppm(標準：2.0ppm以下)",
    "is_mock": false
   }
  },
  {
   "type": "Feature",
   "geometry": {
    "type": "Point",
    "coordinates": [
     121.490312,
     25.060896
    ]
   },
   "properties": {
    "violation_id": "MOCK0098",
    "store_name": "新北市三重區永福國小",
    "sample_name": "鴻喜菇",
    "category": "其他食品",
    "project": "雙北食品抽驗（模擬）",
    "district": "三重區",
    "address": "新北市三重區永福國小",
    "test_date": "2026-03-09",
    "violation_type": "農藥殘留",
    "violation_severity": 90,
    "reason_summary": "殺蟲劑Fenvalerate\t芬化利0.03ppm(標準：0.01ppm以下)",
    "is_mock": false
   }
  },
  {
   "type": "Feature",
   "geometry": {
    "type": "Point",
    "coordinates": [
     121.475368,
     25.080637
    ]
   },
   "properties": {
    "violation_id": "MOCK0099",
    "store_name": "新北市蘆洲區鷺江國小",
    "sample_name": "冷凍栗子",
    "category": "其他食品",
    "project": "雙北食品抽驗（模擬）",
    "district": "蘆洲區",
    "address": "新北市蘆洲區鷺江國小",
    "test_date": "2026-03-18",
    "violation_type": "農藥殘留",
    "violation_severity": 90,
    "reason_summary": "殺菌劑Iprobenfos\t丙基喜樂松0.05ppm(標準：0.01ppm以下)\t 殺菌劑Tricyclazole\t三賽唑0.03ppm(標準：不得檢出)",
    "is_mock": false
   }
  }
 ]
}