{"type":"FeatureCollection","features":[{"type":"Feature","geometry":{"type":"Point","coordinates":[121.462459,24.9981363]},"properties":{"node_id":"school::新北市板橋區重慶國中","node_type":"school","name":"新北市板橋區重慶國中","tax_id":"","address":"220新北市板橋區國慶路221號","geocode_status":"ok","risk_level":"orange","reason":"same_ingredient_school","reason_zh":"同食材其他學校（潛在風險）","district":"板橋區","city":"newtaipei"}},{"type":"Feature","geometry":{"type":"Point","coordinates":[121.4093237,25.0156272]},"properties":{"node_id":"kitchen::25036878","node_type":"kitchen","name":"雙翼食品有限公司","tax_id":"25036878","address":"238新北市樹林區忠愛街3號","geocode_status":"ok","risk_level":"red","reason":"direct_upstream_kitchen","reason_zh":"直接上游廚房（共同食材來源）","district":"樹林區","city":"newtaipei"}},{"type":"Feature","geometry":{"type":"Point","coordinates":[121.467425,25.0185131]},"properties":{"node_id":"school::新北市板橋區中山國中","node_type":"school","name":"新北市板橋區中山國中","tax_id":"","address":"220新北市板橋區文化路一段188巷56號","geocode_status":"ok","risk_level":"orange","reason":"same_ingredient_school","reason_zh":"同食材其他學校（潛在風險）","district":"板橋區","city":"newtaipei"}},{"type":"Feature","geometry":{"type":"Point","coordinates":[121.452037,25.0354319]},"properties":{"node_id":"school::新北市新莊區新莊國中","node_type":"school","name":"新北市新莊區新莊國中","tax_id":"","address":"242新北市新莊區中正路211號","geocode_status":"ok","risk_level":"red","reason":"reported_school","reason_zh":"通報食安事件學校（疑似中毒源頭）","district":"新莊區","city":"newtaipei"}},{"type":"Feature","geometry":{"type":"Point","coordinates":[121.4226278,25.0253278]},"properties":{"node_id":"school::新北市新莊區福營國中","node_type":"school","name":"新北市新莊區福營國中","tax_id":"","address":"242新北市新莊區富國路105號","geocode_status":"ok","risk_level":"orange","reason":"same_ingredient_school","reason_zh":"同食材其他學校（潛在風險）","district":"新莊區","city":"newtaipei"}},{"type":"Feature","geometry":{"type":"Point","coordinates":[121.52301,25.0058967]},"properties":{"node_id":"school::新北市永和區永和國中","node_type":"school","name":"新北市永和區永和國中","tax_id":"","address":"234新北市永和區國中路111號","geocode_status":"ok","risk_level":"orange","reason":"same_ingredient_school","reason_zh":"同食材其他學校（潛在風險）","district":"永和區","city":"newtaipei"}},{"type":"Feature","geometry":{"type":"Point","coordinates":[121.5209434,25.0040606]},"properties":{"node_id":"school::新北市永和區福和國中","node_type":"school","name":"新北市永和區福和國中","tax_id":"","address":"234新北市永和區永利路71號","geocode_status":"ok","risk_level":"orange","reason":"same_ingredient_school","reason_zh":"同食材其他學校（潛在風險）","district":"永和區","city":"newtaipei"}},{"type":"Feature","geometry":{"type":"Point","coordinates":[121.3448534,24.9504584]},"properties":{"node_id":"school::新北市鶯歌區鶯歌國中","node_type":"school","name":"新北市鶯歌區鶯歌國中","tax_id":"","address":"239新北市鶯歌區尖山埔路108號","geocode_status":"ok","risk_level":"orange","reason":"same_ingredient_school","reason_zh":"同食材其他學校（潛在風險）","district":"鶯歌區","city":"newtaipei"}},{"type":"Feature","geometry":{"type":"Point","coordinates":[121.4317847,24.997841]},"properties":{"node_id":"school::新北市板橋區溪崑國中","node_type":"school","name":"新北市板橋區溪崑國中","tax_id":"","address":"220新北市板橋區大觀路三段50巷30號","geocode_status":"ok","risk_level":"orange","reason":"same_ingredient_school","reason_zh":"同食材其他學校（潛在風險）","district":"板橋區","city":"newtaipei"}},{"type":"Feature","geometry":{"type":"Point","coordinates":[121.4434788,25.0535454]},"properties":{"node_id":"school::新北市新莊區中平國中","node_type":"school","name":"新北市新莊區中平國中","tax_id":"","address":"242新北市新莊區中平路385號","geocode_status":"ok","risk_level":"orange","reason":"same_ingredient_school","reason_zh":"同食材其他學校（潛在風險）","district":"新莊區","city":"newtaipei"}},{"type":"Feature","geometry":{"type":"Point","coordinates":[121.382898,24.948918]},"properties":{"node_id":"school::新北市樹林區桃子腳國中(小)","node_type":"school","name":"新北市樹林區桃子腳國中(小)","tax_id":"","address":"238新北市樹林區學勤路555號","geocode_status":"ok","risk_level":"orange","reason":"same_ingredient_school","reason_zh":"同食材其他學校（潛在風險）","district":"樹林區","city":"newtaipei"}},{"type":"Feature","geometry":{"type":"Point","coordinates":[121.4741019,25.0181471]},"properties":{"node_id":"school::新北市板橋區埔墘國小","node_type":"school","name":"新北市板橋區埔墘國小","tax_id":"","address":"220新北市板橋區永豐街42-8號","geocode_status":"ok","risk_level":"orange","reason":"same_ingredient_school","reason_zh":"同食材其他學校（潛在風險）","district":"板橋區","city":"newtaipei"}},{"type":"Feature","geometry":{"type":"Point","coordinates":[121.4301153,24.9898701]},"properties":{"node_id":"school::新北市板橋區沙崙國小","node_type":"school","name":"新北市板橋區沙崙國小","tax_id":"","address":"220新北市板橋區篤行路二段132號","geocode_status":"ok","risk_level":"orange","reason":"same_ingredient_school","reason_zh":"同食材其他學校（潛在風險）","district":"板橋區","city":"newtaipei"}},{"type":"Feature","geometry":{"type":"Point","coordinates":[121.3460408,24.951314]},"properties":{"node_id":"school::新北市鶯歌區鶯歌國小","node_type":"school","name":"新北市鶯歌區鶯歌國小","tax_id":"","address":"239新北市鶯歌區尖山埔路106號","geocode_status":"ok","risk_level":"orange","reason":"same_ingredient_school","reason_zh":"同食材其他學校（潛在風險）","district":"鶯歌區","city":"newtaipei"}},{"type":"Feature","geometry":{"type":"Point","coordinates":[121.3678873,24.9356959]},"properties":{"node_id":"school::新北市三峽區三峽國小","node_type":"school","name":"新北市三峽區三峽國小","tax_id":"","address":"237新北市三峽區中山路16號","geocode_status":"ok","risk_level":"orange","reason":"same_ingredient_school","reason_zh":"同食材其他學校（潛在風險）","district":"三峽區","city":"newtaipei"}},{"type":"Feature","geometry":{"type":"Point","coordinates":[121.501898,24.989664]},"properties":{"node_id":"school::新北市中和區復興國小","node_type":"school","name":"新北市中和區復興國小","tax_id":"","address":"235新北市中和區復興路301巷6號","geocode_status":"ok","risk_level":"orange","reason":"same_ingredient_school","reason_zh":"同食材其他學校（潛在風險）","district":"中和區","city":"newtaipei"}},{"type":"Feature","geometry":{"type":"Point","coordinates":[121.5095508,24.9869863]},"properties":{"node_id":"school::新北市中和區興南國小","node_type":"school","name":"新北市中和區興南國小","tax_id":"","address":"235新北市中和區興南路一段135巷24號","geocode_status":"ok","risk_level":"orange","reason":"same_ingredient_school","reason_zh":"同食材其他學校（潛在風險）","district":"中和區","city":"newtaipei"}},{"type":"Feature","geometry":{"type":"Point","coordinates":[121.5211448,24.9951577]},"properties":{"node_id":"school::新北市中和區秀山國小","node_type":"school","name":"新北市中和區秀山國小","tax_id":"","address":"235新北市中和區立人街2號","geocode_status":"ok","risk_level":"orange","reason":"same_ingredient_school","reason_zh":"同食材其他學校（潛在風險）","district":"中和區","city":"newtaipei"}},{"type":"Feature","geometry":{"type":"Point","coordinates":[121.5157675,24.9895503]},"properties":{"node_id":"school::新北市中和區景新國小","node_type":"school","name":"新北市中和區景新國小","tax_id":"","address":"235新北市中和區景新街467巷37號","geocode_status":"ok","risk_level":"orange","reason":"same_ingredient_school","reason_zh":"同食材其他學校（潛在風險）","district":"中和區","city":"newtaipei"}},{"type":"Feature","geometry":{"type":"Point","coordinates":[121.516948,25.0033711]},"properties":{"node_id":"school::新北市永和區永和國小","node_type":"school","name":"新北市永和區永和國小","tax_id":"","address":"234新北市永和區秀朗路一段120號","geocode_status":"ok","risk_level":"orange","reason":"same_ingredient_school","reason_zh":"同食材其他學校（潛在風險）","district":"永和區","city":"newtaipei"}},{"type":"Feature","geometry":{"type":"Point","coordinates":[121.5213727,24.9989399]},"properties":{"node_id":"school::新北市永和區秀朗國小","node_type":"school","name":"新北市永和區秀朗國小","tax_id":"","address":"234新北市永和區得和路202號","geocode_status":"ok","risk_level":"orange","reason":"same_ingredient_school","reason_zh":"同食材其他學校（潛在風險）","district":"永和區","city":"newtaipei"}},{"type":"Feature","geometry":{"type":"Point","coordinates":[121.5114852,25.0152952]},"properties":{"node_id":"school::新北市永和區頂溪國小","node_type":"school","name":"新北市永和區頂溪國小","tax_id":"","address":"234新北市永和區文化路133號","geocode_status":"ok","risk_level":"orange","reason":"same_ingredient_school","reason_zh":"同食材其他學校（潛在風險）","district":"永和區","city":"newtaipei"}},{"type":"Feature","geometry":{"type":"Point","coordinates":[121.5200381,25.0131925]},"properties":{"node_id":"school::新北市永和區網溪國小","node_type":"school","name":"新北市永和區網溪國小","tax_id":"","address":"234新北市永和區竹林路79號","geocode_status":"ok","risk_level":"orange","reason":"same_ingredient_school","reason_zh":"同食材其他學校（潛在風險）","district":"永和區","city":"newtaipei"}},{"type":"Feature","geometry":{"type":"Point","coordinates":[121.4661311,25.0528262]},"properties":{"node_id":"school::新北市新莊區頭前國小","node_type":"school","name":"新北市新莊區頭前國小","tax_id":"","address":"24252新北市新莊區化成路231號","geocode_status":"ok","risk_level":"orange","reason":"same_ingredient_school","reason_zh":"同食材其他學校（潛在風險）","district":"新莊區","city":"newtaipei"}},{"type":"Feature","geometry":{"type":"Point","coordinates":[121.4139574,25.02449]},"properties":{"node_id":"school::新北市新莊區丹鳳國小","node_type":"school","name":"新北市新莊區丹鳳國小","tax_id":"","address":"242新北市新莊區新北大道七段437號","geocode_status":"ok","risk_level":"orange","reason":"same_ingredient_school","reason_zh":"同食材其他學校（潛在風險）","district":"新莊區","city":"newtaipei"}},{"type":"Feature","geometry":{"type":"Point","coordinates":[121.4277092,25.0223304]},"properties":{"node_id":"school::新北市新莊區民安國小","node_type":"school","name":"新北市新莊區民安國小","tax_id":"","address":"242新北市新莊區民安路261號","geocode_status":"ok","risk_level":"orange","reason":"same_ingredient_school","reason_zh":"同食材其他學校（潛在風險）","district":"新莊區","city":"newtaipei"}},{"type":"Feature","geometry":{"type":"Point","coordinates":[121.3904407,25.0802712]},"properties":{"node_id":"school::新北市林口區林口國小","node_type":"school","name":"新北市林口區林口國小","tax_id":"","address":"24444新北市林口區林口路76號","geocode_status":"ok","risk_level":"orange","reason":"same_ingredient_school","reason_zh":"同食材其他學校（潛在風險）","district":"林口區","city":"newtaipei"}},{"type":"Feature","geometry":{"type":"Point","coordinates":[121.3581887,25.0749553]},"properties":{"node_id":"school::新北市林口區南勢國小","node_type":"school","name":"新北市林口區南勢國小","tax_id":"","address":"244新北市林口區南勢五街2號","geocode_status":"ok","risk_level":"orange","reason":"same_ingredient_school","reason_zh":"同食材其他學校（潛在風險）","district":"林口區","city":"newtaipei"}},{"type":"Feature","geometry":{"type":"Point","coordinates":[121.4631216,24.9945398]},"properties":{"node_id":"school::新北市板橋區重慶國小","node_type":"school","name":"新北市板橋區重慶國小","tax_id":"","address":"220新北市板橋區廣和街31號","geocode_status":"ok","risk_level":"orange","reason":"same_ingredient_school","reason_zh":"同食材其他學校（潛在風險）","district":"板橋區","city":"newtaipei"}},{"type":"Feature","geometry":{"type":"Point","coordinates":[121.447515,25.0517741]},"properties":{"node_id":"school::新北市新莊區榮富國小","node_type":"school","name":"新北市新莊區榮富國小","tax_id":"","address":"242新北市新莊區中和街193號","geocode_status":"ok","risk_level":"orange","reason":"same_ingredient_school","reason_zh":"同食材其他學校（潛在風險）","district":"新莊區","city":"newtaipei"}},{"type":"Feature","geometry":{"type":"Point","coordinates":[121.3761869,25.0684302]},"properties":{"node_id":"school::新北市林口區麗園國小","node_type":"school","name":"新北市林口區麗園國小","tax_id":"","address":"24447新北市林口區忠孝路591號","geocode_status":"ok","risk_level":"orange","reason":"same_ingredient_school","reason_zh":"同食材其他學校（潛在風險）","district":"林口區","city":"newtaipei"}},{"type":"Feature","geometry":{"type":"Point","coordinates":[121.4831365,25.0151637]},"properties":{"node_id":"school::新北市中和區光復國小","node_type":"school","name":"新北市中和區光復國小","tax_id":"","address":"235新北市中和區光環路二段1號","geocode_status":"ok","risk_level":"orange","reason":"same_ingredient_school","reason_zh":"同食材其他學校（潛在風險）","district":"中和區","city":"newtaipei"}},{"type":"Feature","geometry":{"type":"Point","coordinates":[121.3682287,25.0686085]},"properties":{"node_id":"school::新北市林口區麗林國小","node_type":"school","name":"新北市林口區麗林國小","tax_id":"","address":"24453新北市林口區公園路46號","geocode_status":"ok","risk_level":"orange","reason":"same_ingredient_school","reason_zh":"同食材其他學校（潛在風險）","district":"林口區","city":"newtaipei"}},{"type":"Feature","geometry":{"type":"Point","coordinates":[121.3590601,25.0697467]},"properties":{"node_id":"school::新北市林口區新林國小","node_type":"school","name":"新北市林口區新林國小","tax_id":"","address":"244新北市林口區三民路101號","geocode_status":"ok","risk_level":"orange","reason":"same_ingredient_school","reason_zh":"同食材其他學校（潛在風險）","district":"林口區","city":"newtaipei"}}]}