{"type":"FeatureCollection","features":[{"type":"Feature","geometry":{"type":"Point","coordinates":[121.4205419,25.0032762]},"properties":{"node_id":"kitchen::54728577","node_type":"kitchen","name":"久翔食品股份有限公司","tax_id":"54728577","city":"newtaipei","address":"238新北市樹林區武林街16-1號","geocode_status":"ok","risk_level":"orange","district":"樹林區","reason":"received_same_ingredient","reason_zh":"同食材其他廚房（潛在風險）"}},{"type":"Feature","geometry":{"type":"Point","coordinates":[120.5851211,24.1718952]},"properties":{"node_id":"supplier::13055999","node_type":"supplier","name":"津悅食品股份有限公司","tax_id":"13055999","city":"newtaipei","address":"407臺中市西屯區工業區四十一路33號","geocode_status":"ok","risk_level":"red","district":"西屯區","reason":"supplier_of_red_kitchen","reason_zh":"上游供應商（提供問題食材）"}},{"type":"Feature","geometry":{"type":"Point","coordinates":[121.4643833,25.0495061]},"properties":{"node_id":"kitchen::53685810","node_type":"kitchen","name":"上將食品有限公司","tax_id":"53685810","city":"newtaipei","address":"242新北市新莊區幸福東路86號","geocode_status":"ok","risk_level":"orange","district":"新莊區","reason":"received_same_ingredient","reason_zh":"同食材其他廚房（潛在風險）"}},{"type":"Feature","geometry":{"type":"Point","coordinates":[121.4093237,25.0156272]},"properties":{"node_id":"kitchen::25036878","node_type":"kitchen","name":"雙翼食品有限公司","tax_id":"25036878","city":"newtaipei","address":"238新北市樹林區忠愛街3號","geocode_status":"ok","risk_level":"red","district":"樹林區","reason":"contaminated_kitchen","reason_zh":"受污染廚房（檢驗未通過）"}},{"type":"Feature","geometry":{"type":"Point","coordinates":[120.303014,23.6287955]},"properties":{"node_id":"supplier::58031494","node_type":"supplier","name":"春豐豆類食品股份有限公司","tax_id":"58031494","city":"newtaipei","address":"655雲林縣元長鄉109-87號","geocode_status":"ok","risk_level":"red","district":"元長鄉","reason":"supplier_of_red_kitchen","reason_zh":"上游供應商（提供問題食材）"}},{"type":"Feature","geometry":{"type":"Point","coordinates":[121.4680347,25.0552272]},"properties":{"node_id":"kitchen::53691897","node_type":"kitchen","name":"統鮮美食股份有限公司","tax_id":"53691897","city":"newtaipei","address":"241新北市三重區中興北街136巷18弄18號","geocode_status":"ok","risk_level":"orange","district":"三重區","reason":"received_same_ingredient","reason_zh":"同食材其他廚房（潛在風險）"}},{"type":"Feature","geometry":{"type":"Point","coordinates":[121.4116081,25.0101807]},"properties":{"node_id":"kitchen::53710249","node_type":"kitchen","name":"全盛美食有限公司","tax_id":"53710249","city":"newtaipei","address":"238新北市樹林區保安街三段1巷1號","geocode_status":"ok","risk_level":"orange","district":"樹林區","reason":"received_same_ingredient","reason_zh":"同食材其他廚房（潛在風險）"}},{"type":"Feature","geometry":{"type":"Point","coordinates":[121.4600233,25.156134]},"properties":{"node_id":"kitchen::89797986","node_type":"kitchen","name":"愛欣食品有限公司","tax_id":"89797986","city":"newtaipei","address":"251台灣淡水區八勢一街1號","geocode_status":"ok","risk_level":"orange","district":"淡水區","reason":"received_same_ingredient","reason_zh":"同食材其他廚房（潛在風險）"}},{"type":"Feature","geometry":{"type":"Point","coordinates":[121.4542115,25.0689908]},"properties":{"node_id":"kitchen::25094980","node_type":"kitchen","name":"宏遠國際餐飲股份有限公司","tax_id":"25094980","city":"newtaipei","district":"五股區","address":"248新北市五股區五權路54號","geocode_status":"ok","risk_level":"orange","reason":"received_same_ingredient","reason_zh":"同食材其他廚房（潛在風險）"}},{"type":"Feature","geometry":{"type":"Point","coordinates":[121.6301854,25.0629056]},"properties":{"node_id":"kitchen::27339259","node_type":"kitchen","name":"食家安飲食文化股份有限公司","tax_id":"27339259","city":"newtaipei","address":"221新北市汐止區福德一路328巷1號","geocode_status":"ok","risk_level":"orange","district":"汐止區","reason":"received_same_ingredient","reason_zh":"同食材其他廚房（潛在風險）"}},{"type":"Feature","geometry":{"type":"Point","coordinates":[121.4811186,25.0727814]},"properties":{"node_id":"kitchen::53683051","node_type":"kitchen","name":"新北食品股份有限公司","tax_id":"53683051","city":"newtaipei","address":"241新北市三重區國道路一段59號","geocode_status":"ok","risk_level":"orange","district":"三重區","reason":"received_same_ingredient","reason_zh":"同食材其他廚房（潛在風險）"}},{"type":"Feature","geometry":{"type":"Point","coordinates":[121.4017467,24.9754914]},"properties":{"node_id":"kitchen::F014617","node_type":"kitchen","name":"新北市樹林區山佳國小","tax_id":"F014617","city":"newtaipei","district":"樹林區","address":"238新北市樹林區中山路三段5號","geocode_status":"ok","risk_level":"orange","reason":"received_same_ingredient","reason_zh":"同食材其他廚房（潛在風險）"}},{"type":"Feature","geometry":{"type":"Point","coordinates":[121.375543,24.9118949]},"properties":{"node_id":"kitchen::F014626","node_type":"kitchen","name":"新北市三峽區民義國小","tax_id":"F014626","city":"newtaipei","district":"三峽區","address":"237新北市三峽區白雞路40號","geocode_status":"ok","risk_level":"orange","reason":"received_same_ingredient","reason_zh":"同食材其他廚房（潛在風險）"}},{"type":"Feature","geometry":{"type":"Point","coordinates":[121.5135319,24.9610066]},"properties":{"node_id":"kitchen::F014672","node_type":"kitchen","name":"新北市新店區安坑國小","tax_id":"F014672","city":"newtaipei","district":"新店區","address":"231新北市新店區安忠路36號","geocode_status":"ok","risk_level":"orange","reason":"received_same_ingredient","reason_zh":"同食材其他廚房（潛在風險）"}},{"type":"Feature","geometry":{"type":"Point","coordinates":[121.9195251,25.1213779]},"properties":{"node_id":"kitchen::F014696","node_type":"kitchen","name":"新北市瑞芳區鼻頭國小","tax_id":"F014696","city":"newtaipei","district":"瑞芳區","address":"224新北市瑞芳區鼻頭路99號","geocode_status":"ok","risk_level":"orange","reason":"received_same_ingredient","reason_zh":"同食材其他廚房（潛在風險）"}},{"type":"Feature","geometry":{"type":"Point","coordinates":[121.9487798,25.0174198]},"properties":{"node_id":"kitchen::F014703","node_type":"kitchen","name":"新北市貢寮區福隆國小","tax_id":"F014703","city":"newtaipei","district":"貢寮區","address":"228新北市貢寮區東興街35號","geocode_status":"ok","risk_level":"orange","reason":"received_same_ingredient","reason_zh":"同食材其他廚房（潛在風險）"}},{"type":"Feature","geometry":{"type":"Point","coordinates":[121.924534,25.054924]},"properties":{"node_id":"kitchen::F014704","node_type":"kitchen","name":"新北市貢寮區澳底國小","tax_id":"F014704","city":"newtaipei","district":"貢寮區","address":"228新北市貢寮區延平街10號","geocode_status":"ok","risk_level":"orange","reason":"received_same_ingredient","reason_zh":"同食材其他廚房（潛在風險）"}},{"type":"Feature","geometry":{"type":"Point","coordinates":[121.5015346,25.2575921]},"properties":{"node_id":"kitchen::F014726","node_type":"kitchen","name":"新北市三芝區三芝國小","tax_id":"F014726","city":"newtaipei","address":"252新北市三芝區育英街22號","geocode_status":"ok","risk_level":"orange","district":"三芝區","reason":"received_same_ingredient","reason_zh":"同食材其他廚房（潛在風險）"}},{"type":"Feature","geometry":{"type":"Point","coordinates":[121.4471707,25.0451024]},"properties":{"node_id":"kitchen::F014730","node_type":"kitchen","name":"新北市新莊區中港國小","tax_id":"F014730","city":"newtaipei","district":"新莊區","address":"242新北市新莊區中港一街142號","geocode_status":"ok","risk_level":"orange","reason":"received_same_ingredient","reason_zh":"同食材其他廚房（潛在風險）"}},{"type":"Feature","geometry":{"type":"Point","coordinates":[121.467242,25.070614]},"properties":{"node_id":"kitchen::F014742","node_type":"kitchen","name":"新北市五股區更寮國小","tax_id":"F014742","city":"newtaipei","district":"五股區","address":"248新北市五股區四維路2號","geocode_status":"ok","risk_level":"orange","reason":"received_same_ingredient","reason_zh":"同食材其他廚房（潛在風險）"}},{"type":"Feature","geometry":{"type":"Point","coordinates":[121.461594,25.065854]},"properties":{"node_id":"kitchen::F014765","node_type":"kitchen","name":"新北市新莊區興化國小","tax_id":"F014765","city":"newtaipei","district":"新莊區","address":"242新北市新莊區五工二路50巷2號","geocode_status":"ok","risk_level":"orange","reason":"received_same_ingredient","reason_zh":"同食材其他廚房（潛在風險）"}},{"type":"Feature","geometry":{"type":"Point","coordinates":[121.6354001,25.2211334]},"properties":{"node_id":"kitchen::F014780","node_type":"kitchen","name":"新北市金山區金美國小","tax_id":"F014780","city":"newtaipei","district":"金山區","address":"20842新北市金山區忠孝一路111號","geocode_status":"ok","risk_level":"orange","reason":"received_same_ingredient","reason_zh":"同食材其他廚房（潛在風險）"}},{"type":"Feature","geometry":{"type":"Point","coordinates":[121.6617018,25.0628885]},"properties":{"node_id":"kitchen::F014797","node_type":"kitchen","name":"新北市汐止區秀峰國小","tax_id":"F014797","city":"newtaipei","district":"汐止區","address":"22164新北市汐止區仁愛路90號","geocode_status":"ok","risk_level":"orange","reason":"received_same_ingredient","reason_zh":"同食材其他廚房（潛在風險）"}},{"type":"Feature","geometry":{"type":"Point","coordinates":[121.550177,24.974575]},"properties":{"node_id":"kitchen::16530835","node_type":"kitchen","name":"上林餐飲","tax_id":"16530835","city":"newtaipei","address":"231台灣新店區寶興路45巷8弄6號","geocode_status":"ok","risk_level":"orange","district":"新店區","reason":"received_same_ingredient","reason_zh":"同食材其他廚房（潛在風險）"}},{"type":"Feature","geometry":{"type":"Point","coordinates":[121.6028761,25.058478]},"properties":{"node_id":"kitchen::28673689","node_type":"kitchen","name":"第一餐盒股份有限公司","tax_id":"28673689","city":"taipei","address":"115台灣南港區重陽路263巷8號","geocode_status":"ok","risk_level":"orange","district":"南港區","reason":"received_same_ingredient","reason_zh":"同食材其他廚房（潛在風險）"}},{"type":"Feature","geometry":{"type":"Point","coordinates":[121.5518671,25.0587801]},"properties":{"node_id":"kitchen::83160925","node_type":"kitchen","name":"味安美食股份有限公司","tax_id":"83160925","city":"taipei","district":"松山區","address":"105台灣松山區民生東路四段97巷5號","geocode_status":"ok","risk_level":"orange","reason":"received_same_ingredient","reason_zh":"同食材其他廚房（潛在風險）"}},{"type":"Feature","geometry":{"type":"Point","coordinates":[121.585258,25.052109]},"properties":{"node_id":"kitchen::97307955","node_type":"kitchen","name":"宮保王食品有限公司","tax_id":"97307955","city":"taipei","address":"115臺北市南港區南港路三段149巷49弄14號","geocode_status":"ok","risk_level":"orange","district":"南港區","reason":"received_same_ingredient","reason_zh":"同食材其他廚房（潛在風險）"}},{"type":"Feature","geometry":{"type":"Point","coordinates":[121.589215,25.058513]},"properties":{"node_id":"kitchen::83475761","node_type":"kitchen","name":"士福美食股份有限公司","tax_id":"83475761","city":"taipei","address":"114臺北市內湖區新明路195號","geocode_status":"ok","risk_level":"orange","district":"內湖區","reason":"received_same_ingredient","reason_zh":"同食材其他廚房（潛在風險）"}},{"type":"Feature","geometry":{"type":"Point","coordinates":[121.5483089,25.0417523]},"properties":{"node_id":"kitchen::89459057","node_type":"kitchen","name":"天仁餐盒有限公司","tax_id":"89459057","city":"taipei","district":"大安區","address":"106臺北市大安區忠孝東路四段107號6樓","geocode_status":"ok","risk_level":"orange","reason":"received_same_ingredient","reason_zh":"同食材其他廚房（潛在風險）"}},{"type":"Feature","geometry":{"type":"Point","coordinates":[121.4972347,25.0344899]},"properties":{"node_id":"kitchen::22640634","node_type":"kitchen","name":"中原食品工業開發股份有限公司","tax_id":"22640634","city":"taipei","address":"108臺北市萬華區大理街133巷2號","geocode_status":"ok","risk_level":"orange","district":"萬華區","reason":"received_same_ingredient","reason_zh":"同食材其他廚房（潛在風險）"}},{"type":"Feature","geometry":{"type":"Point","coordinates":[121.587615,25.058513]},"properties":{"node_id":"kitchen::86710923","node_type":"kitchen","name":"士福實業股份有限公司","tax_id":"86710923","city":"taipei","address":"114臺北市內湖區新明路195號","geocode_status":"ok","risk_level":"orange","district":"內湖區","reason":"received_same_ingredient","reason_zh":"同食材其他廚房（潛在風險）"}},{"type":"Feature","geometry":{"type":"Point","coordinates":[121.504628,25.043828]},"properties":{"node_id":"middleman_03735408","node_type":"middleman","name":"臺北農產運銷股份有限公司","tax_id":"03735408","city":"taipei","district":"萬華區","address":"臺北市萬華區萬大路533號","geocode_status":"","risk_level":"red","reason":"middleman","reason_zh":"中盤運銷商（推定 90% 經手）"}},{"type":"Feature","geometry":{"type":"Point","coordinates":[121.467617,25.012528]},"properties":{"node_id":"middleman_23890619","node_type":"middleman","name":"新北市果菜運銷股份有限公司","tax_id":"23890619","city":"newtaipei","district":"板橋區","address":"新北市板橋區裕民街72號","geocode_status":"","risk_level":"red","reason":"middleman","reason_zh":"中盤運銷商（推定 90% 經手）"}}]}