{"type": "FeatureCollection", "name": "RadarWarning", "crs": {"type": "name", "properties": {"name": "urn:ogc:def:crs:OGC:1.3:CRS84"}}, "features": [{"type": "Feature", "geometry": {"type": "Polygon", "coordinates": [[[121.523139, 25.091417], [121.524175, 25.091355], [121.525193, 25.091172], [121.526176, 25.090869], [121.527107, 25.090454], [121.52797, 25.089931], [121.52875, 25.089312], [121.529434, 25.088605], [121.530011, 25.087823], [121.53047, 25.08698], [121.530804, 25.08609], [121.531006, 25.085168], [121.531074, 25.08423], [121.531006, 25.083292], [121.530803, 25.08237], [121.53047, 25.08148], [121.530011, 25.080637], [121.529434, 25.079855], [121.52875, 25.079148], [121.527969, 25.078528], [121.527106, 25.078006], [121.526175, 25.07759], [121.525193, 25.077288], [121.524175, 25.077105], [121.523139, 25.077043], [121.522103, 25.077105], [121.521085, 25.077288], [121.520103, 25.07759], [121.519172, 25.078006], [121.518309, 25.078528], [121.517528, 25.079148], [121.516844, 25.079855], [121.516267, 25.080637], [121.515808, 25.08148], [121.515475, 25.08237], [121.515272, 25.083292], [121.515204, 25.08423], [121.515272, 25.085168], [121.515474, 25.08609], [121.515808, 25.08698], [121.516267, 25.087823], [121.516844, 25.088605], [121.517528, 25.089312], [121.518308, 25.089931], [121.519171, 25.090454], [121.520102, 25.090869], [121.521085, 25.091172], [121.522103, 25.091355], [121.523139, 25.091417]]]}, "properties": {"store_name": "津悅食品有限公司", "city": "其他", "district": "", "fail_count": 5, "main_violation_type": "農藥殘留", "tier": 1, "tier_label": "雷達邊界", "radius_m": 800}}, {"type": "Feature", "geometry": {"type": "Polygon", "coordinates": [[[121.523139, 25.087823], [121.523657, 25.087793], [121.524166, 25.087701], [121.524657, 25.08755], [121.525123, 25.087342], [121.525554, 25.087081], [121.525944, 25.086771], [121.526287, 25.086417], [121.526575, 25.086027], [121.526804, 25.085605], [121.526971, 25.08516], [121.527073, 25.084699], [121.527106, 25.08423], [121.527072, 25.083761], [121.526971, 25.0833], [121.526804, 25.082855], [121.526575, 25.082433], [121.526287, 25.082043], [121.525944, 25.081689], [121.525554, 25.081379], [121.525123, 25.081118], [121.524657, 25.08091], [121.524166, 25.080759], [121.523657, 25.080667], [121.523139, 25.080637], [121.522621, 25.080667], [121.522112, 25.080759], [121.521621, 25.08091], [121.521155, 25.081118], [121.520724, 25.081379], [121.520334, 25.081689], [121.519991, 25.082043], [121.519703, 25.082433], [121.519474, 25.082855], [121.519307, 25.0833], [121.519206, 25.083761], [121.519172, 25.08423], [121.519205, 25.084699], [121.519307, 25.08516], [121.519474, 25.085605], [121.519703, 25.086027], [121.519991, 25.086417], [121.520334, 25.086771], [121.520724, 25.087081], [121.521155, 25.087342], [121.521621, 25.08755], [121.522112, 25.087701], [121.522621, 25.087793], [121.523139, 25.087823]]]}, "properties": {"store_name": "津悅食品有限公司", "city": "其他", "district": "", "fail_count": 5, "main_violation_type": "農藥殘留", "tier": 2, "tier_label": "警示緩衝", "radius_m": 400}}, {"type": "Feature", "geometry": {"type": "Polygon", "coordinates": [[[121.523139, 25.086027], [121.523398, 25.086011], [121.523652, 25.085965], [121.523898, 25.08589], [121.524131, 25.085786], [121.524347, 25.085655], [121.524542, 25.0855], [121.524713, 25.085324], [121.524857, 25.085128], [121.524972, 25.084918], [121.525055, 25.084695], [121.525106, 25.084464], [121.525123, 25.08423], [121.525106, 25.083995], [121.525055, 25.083765], [121.524972, 25.083542], [121.524857, 25.083332], [121.524713, 25.083136], [121.524542, 25.08296], [121.524347, 25.082805], [121.524131, 25.082674], [121.523898, 25.08257], [121.523652, 25.082495], [121.523398, 25.082449], [121.523139, 25.082433], [121.52288, 25.082449], [121.522626, 25.082495], [121.52238, 25.08257], [121.522147, 25.082674], [121.521931, 25.082805], [121.521736, 25.08296], [121.521565, 25.083136], [121.521421, 25.083332], [121.521306, 25.083542], [121.521223, 25.083765], [121.521172, 25.083995], [121.521155, 25.08423], [121.521172, 25.084464], [121.521223, 25.084695], [121.521306, 25.084918], [121.521421, 25.085128], [121.521565, 25.085324], [121.521736, 25.0855], [121.521931, 25.085655], [121.522147, 25.085786], [121.52238, 25.08589], [121.522626, 25.085965], [121.52288, 25.086011], [121.523139, 25.086027]]]}, "properties": {"store_name": "津悅食品有限公司", "city": "其他", "district": "", "fail_count": 5, "main_violation_type": "農藥殘留", "tier": 3, "tier_label": "風險核心", "radius_m": 200}}, {"type": "Feature", "geometry": {"type": "Polygon", "coordinates": [[[121.565427, 25.040151], [121.566462, 25.040089], [121.56748, 25.039906], [121.568462, 25.039603], [121.569393, 25.039188], [121.570256, 25.038665], [121.571036, 25.038046], [121.57172, 25.037339], [121.572296, 25.036557], [121.572755, 25.035714], [121.573088, 25.034824], [121.573291, 25.033902], [121.573359, 25.032964], [121.573291, 25.032026], [121.573088, 25.031104], [121.572755, 25.030214], [121.572296, 25.029371], [121.571719, 25.028589], [121.571035, 25.027882], [121.570255, 25.027262], [121.569393, 25.02674], [121.568462, 25.026324], [121.56748, 25.026022], [121.566462, 25.025839], [121.565427, 25.025777], [121.564392, 25.025839], [121.563374, 25.026022], [121.562392, 25.026324], [121.561461, 25.02674], [121.560599, 25.027262], [121.559819, 25.027882], [121.559135, 25.028589], [121.558558, 25.029371], [121.558099, 25.030214], [121.557766, 25.031104], [121.557563, 25.032026], [121.557495, 25.032964], [121.557563, 25.033902], [121.557766, 25.034824], [121.558099, 25.035714], [121.558558, 25.036557], [121.559134, 25.037339], [121.559818, 25.038046], [121.560598, 25.038665], [121.561461, 25.039188], [121.562392, 25.039603], [121.563374, 25.039906], [121.564392, 25.040089], [121.565427, 25.040151]]]}, "properties": {"store_name": "食代嚴選（https:", "city": "臺北市", "district": "信義區", "fail_count": 3, "main_violation_type": "農藥殘留", "tier": 1, "tier_label": "雷達邊界", "radius_m": 800}}, {"type": "Feature", "geometry": {"type": "Polygon", "coordinates": [[[121.565427, 25.036557], [121.565945, 25.036527], [121.566453, 25.036435], [121.566945, 25.036284], [121.56741, 25.036076], [121.567841, 25.035815], [121.568231, 25.035505], [121.568573, 25.035151], [121.568862, 25.034761], [121.569091, 25.034339], [121.569258, 25.033894], [121.569359, 25.033433], [121.569393, 25.032964], [121.569359, 25.032495], [121.569258, 25.032034], [121.569091, 25.031589], [121.568861, 25.031167], [121.568573, 25.030777], [121.568231, 25.030423], [121.567841, 25.030113], [121.56741, 25.029852], [121.566945, 25.029644], [121.566453, 25.029493], [121.565945, 25.029401], [121.565427, 25.029371], [121.564909, 25.029401], [121.564401, 25.029493], [121.563909, 25.029644], [121.563444, 25.029852], [121.563013, 25.030113], [121.562623, 25.030423], [121.562281, 25.030777], [121.561993, 25.031167], [121.561763, 25.031589], [121.561596, 25.032034], [121.561495, 25.032495], [121.561461, 25.032964], [121.561495, 25.033433], [121.561596, 25.033894], [121.561763, 25.034339], [121.561992, 25.034761], [121.562281, 25.035151], [121.562623, 25.035505], [121.563013, 25.035815], [121.563444, 25.036076], [121.563909, 25.036284], [121.564401, 25.036435], [121.564909, 25.036527], [121.565427, 25.036557]]]}, "properties": {"store_name": "食代嚴選（https:", "city": "臺北市", "district": "信義區", "fail_count": 3, "main_violation_type": "農藥殘留", "tier": 2, "tier_label": "警示緩衝", "radius_m": 400}}, {"type": "Feature", "geometry": {"type": "Polygon", "coordinates": [[[121.565427, 25.034761], [121.565686, 25.034745], [121.56594, 25.034699], [121.566186, 25.034624], [121.566418, 25.03452], [121.566634, 25.034389], [121.566829, 25.034234], [121.567, 25.034058], [121.567144, 25.033862], [121.567259, 25.033652], [121.567342, 25.033429], [121.567393, 25.033198], [121.56741, 25.032964], [121.567393, 25.032729], [121.567342, 25.032499], [121.567259, 25.032276], [121.567144, 25.032066], [121.567, 25.03187], [121.566829, 25.031694], [121.566634, 25.031539], [121.566418, 25.031408], [121.566186, 25.031304], [121.56594, 25.031229], [121.565686, 25.031183], [121.565427, 25.031167], [121.565168, 25.031183], [121.564914, 25.031229], [121.564668, 25.031304], [121.564436, 25.031408], [121.56422, 25.031539], [121.564025, 25.031694], [121.563854, 25.03187], [121.56371, 25.032066], [121.563595, 25.032276], [121.563512, 25.032499], [121.563461, 25.032729], [121.563444, 25.032964], [121.563461, 25.033198], [121.563512, 25.033429], [121.563595, 25.033652], [121.56371, 25.033862], [121.563854, 25.034058], [121.564025, 25.034234], [121.56422, 25.034389], [121.564436, 25.03452], [121.564668, 25.034624], [121.564914, 25.034699], [121.565168, 25.034745], [121.565427, 25.034761]]]}, "properties": {"store_name": "食代嚴選（https:", "city": "臺北市", "district": "信義區", "fail_count": 3, "main_violation_type": "農藥殘留", "tier": 3, "tier_label": "風險核心", "radius_m": 200}}, {"type": "Feature", "geometry": {"type": "Polygon", "coordinates": [[[121.584936, 25.052692], [121.585971, 25.05263], [121.586989, 25.052447], [121.587972, 25.052144], [121.588902, 25.051729], [121.589765, 25.051206], [121.590545, 25.050587], [121.591229, 25.04988], [121.591806, 25.049098], [121.592265, 25.048255], [121.592598, 25.047365], [121.592801, 25.046443], [121.592868, 25.045505], [121.5928, 25.044567], [121.592598, 25.043645], [121.592264, 25.042755], [121.591805, 25.041912], [121.591229, 25.04113], [121.590545, 25.040423], [121.589765, 25.039803], [121.588902, 25.039281], [121.587971, 25.038865], [121.586989, 25.038563], [121.585971, 25.03838], [121.584936, 25.038318], [121.583901, 25.03838], [121.582883, 25.038563], [121.581901, 25.038865], [121.58097, 25.039281], [121.580107, 25.039803], [121.579327, 25.040423], [121.578643, 25.04113], [121.578067, 25.041912], [121.577608, 25.042755], [121.577274, 25.043645], [121.577072, 25.044567], [121.577004, 25.045505], [121.577071, 25.046443], [121.577274, 25.047365], [121.577607, 25.048255], [121.578066, 25.049098], [121.578643, 25.04988], [121.579327, 25.050587], [121.580107, 25.051206], [121.58097, 25.051729], [121.5819, 25.052144], [121.582883, 25.052447], [121.583901, 25.05263], [121.584936, 25.052692]]]}, "properties": {"store_name": "菓之鄉水果專賣店", "city": "臺北市", "district": "南港區", "fail_count": 3, "main_violation_type": "農藥殘留", "tier": 1, "tier_label": "雷達邊界", "radius_m": 800}}, {"type": "Feature", "geometry": {"type": "Polygon", "coordinates": [[[121.584936, 25.049098], [121.585454, 25.049068], [121.585963, 25.048976], [121.586454, 25.048825], [121.586919, 25.048617], [121.587351, 25.048356], [121.587741, 25.048046], [121.588083, 25.047692], [121.588371, 25.047302], [121.5886, 25.04688], [121.588767, 25.046435], [121.588868, 25.045974], [121.588902, 25.045505], [121.588868, 25.045036], [121.588767, 25.044575], [121.5886, 25.04413], [121.588371, 25.043708], [121.588083, 25.043318], [121.58774, 25.042964], [121.58735, 25.042654], [121.586919, 25.042393], [121.586454, 25.042185], [121.585962, 25.042034], [121.585454, 25.041942], [121.584936, 25.041912], [121.584418, 25.041942], [121.58391, 25.042034], [121.583418, 25.042185], [121.582953, 25.042393], [121.582522, 25.042654], [121.582132, 25.042964], [121.581789, 25.043318], [121.581501, 25.043708], [121.581272, 25.04413], [121.581105, 25.044575], [121.581004, 25.045036], [121.58097, 25.045505], [121.581004, 25.045974], [121.581105, 25.046435], [121.581272, 25.04688], [121.581501, 25.047302], [121.581789, 25.047692], [121.582131, 25.048046], [121.582521, 25.048356], [121.582953, 25.048617], [121.583418, 25.048825], [121.583909, 25.048976], [121.584418, 25.049068], [121.584936, 25.049098]]]}, "properties": {"store_name": "菓之鄉水果專賣店", "city": "臺北市", "district": "南港區", "fail_count": 3, "main_violation_type": "農藥殘留", "tier": 2, "tier_label": "警示緩衝", "radius_m": 400}}, {"type": "Feature", "geometry": {"type": "Polygon", "coordinates": [[[121.584936, 25.047302], [121.585195, 25.047286], [121.585449, 25.04724], [121.585695, 25.047165], [121.585928, 25.047061], [121.586143, 25.04693], [121.586338, 25.046775], [121.586509, 25.046599], [121.586653, 25.046403], [121.586768, 25.046193], [121.586852, 25.04597], [121.586902, 25.045739], [121.586919, 25.045505], [121.586902, 25.04527], [121.586852, 25.04504], [121.586768, 25.044817], [121.586653, 25.044607], [121.586509, 25.044411], [121.586338, 25.044235], [121.586143, 25.04408], [121.585928, 25.043949], [121.585695, 25.043845], [121.585449, 25.04377], [121.585195, 25.043724], [121.584936, 25.043708], [121.584677, 25.043724], [121.584423, 25.04377], [121.584177, 25.043845], [121.583944, 25.043949], [121.583729, 25.04408], [121.583534, 25.044235], [121.583363, 25.044411], [121.583219, 25.044607], [121.583104, 25.044817], [121.58302, 25.04504], [121.58297, 25.04527], [121.582953, 25.045505], [121.58297, 25.045739], [121.58302, 25.04597], [121.583104, 25.046193], [121.583219, 25.046403], [121.583363, 25.046599], [121.583534, 25.046775], [121.583729, 25.04693], [121.583944, 25.047061], [121.584177, 25.047165], [121.584423, 25.04724], [121.584677, 25.047286], [121.584936, 25.047302]]]}, "properties": {"store_name": "菓之鄉水果專賣店", "city": "臺北市", "district": "南港區", "fail_count": 3, "main_violation_type": "農藥殘留", "tier": 3, "tier_label": "風險核心", "radius_m": 200}}, {"type": "Feature", "geometry": {"type": "Polygon", "coordinates": [[[121.574871, 25.068472], [121.575907, 25.06841], [121.576924, 25.068227], [121.577907, 25.067924], [121.578838, 25.067509], [121.579701, 25.066986], [121.580481, 25.066367], [121.581165, 25.06566], [121.581742, 25.064878], [121.582201, 25.064035], [121.582534, 25.063145], [121.582737, 25.062223], [121.582804, 25.061285], [121.582736, 25.060347], [121.582534, 25.059425], [121.5822, 25.058535], [121.581741, 25.057692], [121.581165, 25.05691], [121.580481, 25.056203], [121.5797, 25.055583], [121.578838, 25.055061], [121.577907, 25.054645], [121.576924, 25.054343], [121.575906, 25.05416], [121.574871, 25.054098], [121.573836, 25.05416], [121.572818, 25.054343], [121.571835, 25.054645], [121.570904, 25.055061], [121.570042, 25.055583], [121.569261, 25.056203], [121.568577, 25.05691], [121.568001, 25.057692], [121.567542, 25.058535], [121.567208, 25.059425], [121.567006, 25.060347], [121.566938, 25.061285], [121.567005, 25.062223], [121.567208, 25.063145], [121.567541, 25.064035], [121.568, 25.064878], [121.568577, 25.06566], [121.569261, 25.066367], [121.570041, 25.066986], [121.570904, 25.067509], [121.571835, 25.067924], [121.572818, 25.068227], [121.573835, 25.06841], [121.574871, 25.068472]]]}, "properties": {"store_name": "幸福品味實業股份有限公司(美福食集)", "city": "臺北市", "district": "內湖區", "fail_count": 3, "main_violation_type": "農藥殘留", "tier": 1, "tier_label": "雷達邊界", "radius_m": 800}}, {"type": "Feature", "geometry": {"type": "Polygon", "coordinates": [[[121.574871, 25.064878], [121.575389, 25.064848], [121.575898, 25.064756], [121.576389, 25.064605], [121.576854, 25.064397], [121.577286, 25.064136], [121.577676, 25.063826], [121.578018, 25.063472], [121.578306, 25.063082], [121.578536, 25.06266], [121.578703, 25.062215], [121.578804, 25.061754], [121.578838, 25.061285], [121.578804, 25.060816], [121.578703, 25.060355], [121.578536, 25.05991], [121.578306, 25.059488], [121.578018, 25.059098], [121.577676, 25.058744], [121.577286, 25.058434], [121.576854, 25.058173], [121.576389, 25.057965], [121.575898, 25.057814], [121.575389, 25.057722], [121.574871, 25.057692], [121.574353, 25.057722], [121.573844, 25.057814], [121.573353, 25.057965], [121.572888, 25.058173], [121.572456, 25.058434], [121.572066, 25.058744], [121.571724, 25.059098], [121.571436, 25.059488], [121.571206, 25.05991], [121.571039, 25.060355], [121.570938, 25.060816], [121.570904, 25.061285], [121.570938, 25.061754], [121.571039, 25.062215], [121.571206, 25.06266], [121.571436, 25.063082], [121.571724, 25.063472], [121.572066, 25.063826], [121.572456, 25.064136], [121.572888, 25.064397], [121.573353, 25.064605], [121.573844, 25.064756], [121.574353, 25.064848], [121.574871, 25.064878]]]}, "properties": {"store_name": "幸福品味實業股份有限公司(美福食集)", "city": "臺北市", "district": "內湖區", "fail_count": 3, "main_violation_type": "農藥殘留", "tier": 2, "tier_label": "警示緩衝", "radius_m": 400}}, {"type": "Feature", "geometry": {"type": "Polygon", "coordinates": [[[121.574871, 25.063082], [121.57513, 25.063066], [121.575384, 25.06302], [121.57563, 25.062945], [121.575863, 25.062841], [121.576078, 25.06271], [121.576273, 25.062555], [121.576445, 25.062379], [121.576589, 25.062183], [121.576703, 25.061973], [121.576787, 25.06175], [121.576837, 25.061519], [121.576854, 25.061285], [121.576837, 25.06105], [121.576787, 25.06082], [121.576703, 25.060597], [121.576589, 25.060387], [121.576444, 25.060191], [121.576273, 25.060015], [121.576078, 25.05986], [121.575863, 25.059729], [121.57563, 25.059625], [121.575384, 25.05955], [121.57513, 25.059504], [121.574871, 25.059488], [121.574612, 25.059504], [121.574358, 25.05955], [121.574112, 25.059625], [121.573879, 25.059729], [121.573664, 25.05986], [121.573469, 25.060015], [121.573298, 25.060191], [121.573153, 25.060387], [121.573039, 25.060597], [121.572955, 25.06082], [121.572905, 25.06105], [121.572888, 25.061285], [121.572905, 25.061519], [121.572955, 25.06175], [121.573039, 25.061973], [121.573153, 25.062183], [121.573297, 25.062379], [121.573469, 25.062555], [121.573664, 25.06271], [121.573879, 25.062841], [121.574112, 25.062945], [121.574358, 25.06302], [121.574612, 25.063066], [121.574871, 25.063082]]]}, "properties": {"store_name": "幸福品味實業股份有限公司(美福食集)", "city": "臺北市", "district": "內湖區", "fail_count": 3, "main_violation_type": "農藥殘留", "tier": 3, "tier_label": "風險核心", "radius_m": 200}}, {"type": "Feature", "geometry": {"type": "Polygon", "coordinates": [[[121.524922, 25.034283], [121.525957, 25.034221], [121.526975, 25.034038], [121.527957, 25.033735], [121.528888, 25.03332], [121.52975, 25.032797], [121.53053, 25.032178], [121.531214, 25.031471], [121.531791, 25.030689], [121.53225, 25.029846], [121.532583, 25.028956], [121.532785, 25.028034], [121.532853, 25.027096], [121.532785, 25.026158], [121.532583, 25.025236], [121.532249, 25.024346], [121.53179, 25.023503], [121.531214, 25.022721], [121.53053, 25.022014], [121.52975, 25.021394], [121.528887, 25.020872], [121.527957, 25.020456], [121.526975, 25.020154], [121.525957, 25.019971], [121.524922, 25.019909], [121.523887, 25.019971], [121.522869, 25.020154], [121.521887, 25.020456], [121.520957, 25.020872], [121.520094, 25.021394], [121.519314, 25.022014], [121.51863, 25.022721], [121.518054, 25.023503], [121.517595, 25.024346], [121.517261, 25.025236], [121.517059, 25.026158], [121.516991, 25.027096], [121.517059, 25.028034], [121.517261, 25.028956], [121.517594, 25.029846], [121.518053, 25.030689], [121.51863, 25.031471], [121.519314, 25.032178], [121.520094, 25.032797], [121.520956, 25.03332], [121.521887, 25.033735], [121.522869, 25.034038], [121.523887, 25.034221], [121.524922, 25.034283]]]}, "properties": {"store_name": "双喜臨門水果行(双囍臨門水果行)", "city": "臺北市", "district": "大安區", "fail_count": 3, "main_violation_type": "農藥殘留", "tier": 1, "tier_label": "雷達邊界", "radius_m": 800}}, {"type": "Feature", "geometry": {"type": "Polygon", "coordinates": [[[121.524922, 25.030689], [121.52544, 25.030659], [121.525948, 25.030567], [121.52644, 25.030416], [121.526905, 25.030208], [121.527336, 25.029947], [121.527726, 25.029637], [121.528068, 25.029283], [121.528356, 25.028893], [121.528586, 25.028471], [121.528753, 25.028026], [121.528854, 25.027565], [121.528888, 25.027096], [121.528854, 25.026627], [121.528752, 25.026166], [121.528586, 25.025721], [121.528356, 25.025299], [121.528068, 25.024909], [121.527726, 25.024555], [121.527336, 25.024245], [121.526905, 25.023984], [121.52644, 25.023776], [121.525948, 25.023625], [121.52544, 25.023533], [121.524922, 25.023503], [121.524404, 25.023533], [121.523896, 25.023625], [121.523404, 25.023776], [121.522939, 25.023984], [121.522508, 25.024245], [121.522118, 25.024555], [121.521776, 25.024909], [121.521488, 25.025299], [121.521258, 25.025721], [121.521092, 25.026166], [121.52099, 25.026627], [121.520956, 25.027096], [121.52099, 25.027565], [121.521091, 25.028026], [121.521258, 25.028471], [121.521488, 25.028893], [121.521776, 25.029283], [121.522118, 25.029637], [121.522508, 25.029947], [121.522939, 25.030208], [121.523404, 25.030416], [121.523896, 25.030567], [121.524404, 25.030659], [121.524922, 25.030689]]]}, "properties": {"store_name": "双喜臨門水果行(双囍臨門水果行)", "city": "臺北市", "district": "大安區", "fail_count": 3, "main_violation_type": "農藥殘留", "tier": 2, "tier_label": "警示緩衝", "radius_m": 400}}, {"type": "Feature", "geometry": {"type": "Polygon", "coordinates": [[[121.524922, 25.028893], [121.525181, 25.028877], [121.525435, 25.028831], [121.525681, 25.028756], [121.525913, 25.028652], [121.526129, 25.028521], [121.526324, 25.028366], [121.526495, 25.02819], [121.526639, 25.027994], [121.526754, 25.027784], [121.526837, 25.027561], [121.526888, 25.02733], [121.526905, 25.027096], [121.526888, 25.026861], [121.526837, 25.026631], [121.526754, 25.026408], [121.526639, 25.026198], [121.526495, 25.026002], [121.526324, 25.025826], [121.526129, 25.025671], [121.525913, 25.02554], [121.525681, 25.025436], [121.525435, 25.025361], [121.525181, 25.025315], [121.524922, 25.025299], [121.524663, 25.025315], [121.524409, 25.025361], [121.524163, 25.025436], [121.523931, 25.02554], [121.523715, 25.025671], [121.52352, 25.025826], [121.523349, 25.026002], [121.523205, 25.026198], [121.52309, 25.026408], [121.523007, 25.026631], [121.522956, 25.026861], [121.522939, 25.027096], [121.522956, 25.02733], [121.523007, 25.027561], [121.52309, 25.027784], [121.523205, 25.027994], [121.523349, 25.02819], [121.52352, 25.028366], [121.523715, 25.028521], [121.523931, 25.028652], [121.524163, 25.028756], [121.524409, 25.028831], [121.524663, 25.028877], [121.524922, 25.028893]]]}, "properties": {"store_name": "双喜臨門水果行(双囍臨門水果行)", "city": "臺北市", "district": "大安區", "fail_count": 3, "main_violation_type": "農藥殘留", "tier": 3, "tier_label": "風險核心", "radius_m": 200}}, {"type": "Feature", "geometry": {"type": "Polygon", "coordinates": [[[121.534003, 25.068304], [121.535039, 25.068242], [121.536056, 25.068059], [121.537039, 25.067756], [121.53797, 25.067341], [121.538833, 25.066818], [121.539613, 25.066199], [121.540297, 25.065492], [121.540874, 25.06471], [121.541333, 25.063867], [121.541666, 25.062977], [121.541869, 25.062055], [121.541936, 25.061117], [121.541868, 25.060179], [121.541666, 25.059257], [121.541332, 25.058367], [121.540873, 25.057524], [121.540297, 25.056742], [121.539613, 25.056035], [121.538832, 25.055415], [121.537969, 25.054893], [121.537039, 25.054477], [121.536056, 25.054175], [121.535038, 25.053992], [121.534003, 25.05393], [121.532968, 25.053992], [121.53195, 25.054175], [121.530967, 25.054477], [121.530037, 25.054893], [121.529174, 25.055415], [121.528393, 25.056035], [121.527709, 25.056742], [121.527133, 25.057524], [121.526674, 25.058367], [121.52634, 25.059257], [121.526138, 25.060179], [121.52607, 25.061117], [121.526137, 25.062055], [121.52634, 25.062977], [121.526673, 25.063867], [121.527132, 25.06471], [121.527709, 25.065492], [121.528393, 25.066199], [121.529173, 25.066818], [121.530036, 25.067341], [121.530967, 25.067756], [121.53195, 25.068059], [121.532967, 25.068242], [121.534003, 25.068304]]]}, "properties": {"store_name": "金橞食品股份有限公司", "city": "臺北市", "district": "中山區", "fail_count": 3, "main_violation_type": "標示不符", "tier": 1, "tier_label": "雷達邊界", "radius_m": 800}}, {"type": "Feature", "geometry": {"type": "Polygon", "coordinates": [[[121.534003, 25.06471], [121.534521, 25.06468], [121.53503, 25.064588], [121.535521, 25.064437], [121.535986, 25.064229], [121.536418, 25.063968], [121.536808, 25.063658], [121.53715, 25.063304], [121.537438, 25.062914], [121.537668, 25.062492], [121.537835, 25.062047], [121.537936, 25.061586], [121.53797, 25.061117], [121.537936, 25.060648], [121.537835, 25.060187], [121.537668, 25.059742], [121.537438, 25.05932], [121.53715, 25.05893], [121.536808, 25.058576], [121.536418, 25.058266], [121.535986, 25.058005], [121.535521, 25.057797], [121.53503, 25.057646], [121.534521, 25.057554], [121.534003, 25.057524], [121.533485, 25.057554], [121.532976, 25.057646], [121.532485, 25.057797], [121.53202, 25.058005], [121.531588, 25.058266], [121.531198, 25.058576], [121.530856, 25.05893], [121.530568, 25.05932], [121.530338, 25.059742], [121.530171, 25.060187], [121.53007, 25.060648], [121.530036, 25.061117], [121.53007, 25.061586], [121.530171, 25.062047], [121.530338, 25.062492], [121.530568, 25.062914], [121.530856, 25.063304], [121.531198, 25.063658], [121.531588, 25.063968], [121.53202, 25.064229], [121.532485, 25.064437], [121.532976, 25.064588], [121.533485, 25.06468], [121.534003, 25.06471]]]}, "properties": {"store_name": "金橞食品股份有限公司", "city": "臺北市", "district": "中山區", "fail_count": 3, "main_violation_type": "標示不符", "tier": 2, "tier_label": "警示緩衝", "radius_m": 400}}, {"type": "Feature", "geometry": {"type": "Polygon", "coordinates": [[[121.534003, 25.062914], [121.534262, 25.062898], [121.534516, 25.062852], [121.534762, 25.062777], [121.534995, 25.062673], [121.53521, 25.062542], [121.535405, 25.062387], [121.535577, 25.062211], [121.535721, 25.062015], [121.535835, 25.061805], [121.535919, 25.061582], [121.535969, 25.061351], [121.535986, 25.061117], [121.535969, 25.060882], [121.535919, 25.060652], [121.535835, 25.060429], [121.535721, 25.060219], [121.535576, 25.060023], [121.535405, 25.059847], [121.53521, 25.059692], [121.534995, 25.059561], [121.534762, 25.059457], [121.534516, 25.059382], [121.534262, 25.059336], [121.534003, 25.05932], [121.533744, 25.059336], [121.53349, 25.059382], [121.533244, 25.059457], [121.533011, 25.059561], [121.532796, 25.059692], [121.532601, 25.059847], [121.53243, 25.060023], [121.532285, 25.060219], [121.532171, 25.060429], [121.532087, 25.060652], [121.532037, 25.060882], [121.53202, 25.061117], [121.532037, 25.061351], [121.532087, 25.061582], [121.532171, 25.061805], [121.532285, 25.062015], [121.532429, 25.062211], [121.532601, 25.062387], [121.532796, 25.062542], [121.533011, 25.062673], [121.533244, 25.062777], [121.53349, 25.062852], [121.533744, 25.062898], [121.534003, 25.062914]]]}, "properties": {"store_name": "金橞食品股份有限公司", "city": "臺北市", "district": "中山區", "fail_count": 3, "main_violation_type": "標示不符", "tier": 3, "tier_label": "風險核心", "radius_m": 200}}, {"type": "Feature", "geometry": {"type": "Polygon", "coordinates": [[[121.222092, 25.025214], [121.223127, 25.025152], [121.224145, 25.024969], [121.225127, 25.024666], [121.226058, 25.024251], [121.22692, 25.023728], [121.2277, 25.023109], [121.228384, 25.022402], [121.22896, 25.02162], [121.229419, 25.020777], [121.229753, 25.019887], [121.229955, 25.018965], [121.230023, 25.018027], [121.229955, 25.017089], [121.229752, 25.016167], [121.229419, 25.015277], [121.22896, 25.014434], [121.228384, 25.013652], [121.2277, 25.012945], [121.22692, 25.012325], [121.226057, 25.011803], [121.225127, 25.011387], [121.224144, 25.011085], [121.223127, 25.010902], [121.222092, 25.01084], [121.221057, 25.010902], [121.22004, 25.011085], [121.219057, 25.011387], [121.218127, 25.011803], [121.217264, 25.012325], [121.216484, 25.012945], [121.2158, 25.013652], [121.215224, 25.014434], [121.214765, 25.015277], [121.214432, 25.016167], [121.214229, 25.017089], [121.214161, 25.018027], [121.214229, 25.018965], [121.214431, 25.019887], [121.214765, 25.020777], [121.215224, 25.02162], [121.2158, 25.022402], [121.216484, 25.023109], [121.217264, 25.023728], [121.218126, 25.024251], [121.219057, 25.024666], [121.220039, 25.024969], [121.221057, 25.025152], [121.222092, 25.025214]]]}, "properties": {"store_name": "陳Ο君", "city": "臺北市", "district": "信義區", "fail_count": 3, "main_violation_type": "標示不符", "tier": 1, "tier_label": "雷達邊界", "radius_m": 800}}, {"type": "Feature", "geometry": {"type": "Polygon", "coordinates": [[[121.222092, 25.02162], [121.22261, 25.02159], [121.223118, 25.021498], [121.223609, 25.021347], [121.224075, 25.021139], [121.224506, 25.020878], [121.224896, 25.020568], [121.225238, 25.020214], [121.225526, 25.019824], [121.225756, 25.019402], [121.225922, 25.018957], [121.226023, 25.018496], [121.226057, 25.018027], [121.226023, 25.017558], [121.225922, 25.017097], [121.225755, 25.016652], [121.225526, 25.01623], [121.225238, 25.01584], [121.224896, 25.015486], [121.224506, 25.015176], [121.224075, 25.014915], [121.223609, 25.014707], [121.223118, 25.014556], [121.22261, 25.014464], [121.222092, 25.014434], [121.221574, 25.014464], [121.221066, 25.014556], [121.220575, 25.014707], [121.220109, 25.014915], [121.219678, 25.015176], [121.219288, 25.015486], [121.218946, 25.01584], [121.218658, 25.01623], [121.218429, 25.016652], [121.218262, 25.017097], [121.218161, 25.017558], [121.218127, 25.018027], [121.218161, 25.018496], [121.218262, 25.018957], [121.218428, 25.019402], [121.218658, 25.019824], [121.218946, 25.020214], [121.219288, 25.020568], [121.219678, 25.020878], [121.220109, 25.021139], [121.220575, 25.021347], [121.221066, 25.021498], [121.221574, 25.02159], [121.222092, 25.02162]]]}, "properties": {"store_name": "陳Ο君", "city": "臺北市", "district": "信義區", "fail_count": 3, "main_violation_type": "標示不符", "tier": 2, "tier_label": "警示緩衝", "radius_m": 400}}, {"type": "Feature", "geometry": {"type": "Polygon", "coordinates": [[[121.222092, 25.019824], [121.222351, 25.019808], [121.222605, 25.019762], [121.222851, 25.019687], [121.223083, 25.019583], [121.223299, 25.019452], [121.223494, 25.019297], [121.223665, 25.019121], [121.223809, 25.018925], [121.223924, 25.018715], [121.224007, 25.018492], [121.224058, 25.018261], [121.224075, 25.018027], [121.224058, 25.017792], [121.224007, 25.017562], [121.223924, 25.017339], [121.223809, 25.017129], [121.223665, 25.016933], [121.223494, 25.016757], [121.223299, 25.016602], [121.223083, 25.016471], [121.222851, 25.016367], [121.222605, 25.016292], [121.222351, 25.016246], [121.222092, 25.01623], [121.221833, 25.016246], [121.221579, 25.016292], [121.221333, 25.016367], [121.221101, 25.016471], [121.220885, 25.016602], [121.22069, 25.016757], [121.220519, 25.016933], [121.220375, 25.017129], [121.22026, 25.017339], [121.220177, 25.017562], [121.220126, 25.017792], [121.220109, 25.018027], [121.220126, 25.018261], [121.220177, 25.018492], [121.22026, 25.018715], [121.220375, 25.018925], [121.220519, 25.019121], [121.22069, 25.019297], [121.220885, 25.019452], [121.221101, 25.019583], [121.221333, 25.019687], [121.221579, 25.019762], [121.221833, 25.019808], [121.222092, 25.019824]]]}, "properties": {"store_name": "陳Ο君", "city": "臺北市", "district": "信義區", "fail_count": 3, "main_violation_type": "標示不符", "tier": 3, "tier_label": "風險核心", "radius_m": 200}}, {"type": "Feature", "geometry": {"type": "Polygon", "coordinates": [[[121.527537, 25.122143], [121.528573, 25.122081], [121.529591, 25.121898], [121.530574, 25.121595], [121.531506, 25.12118], [121.532369, 25.120657], [121.533149, 25.120038], [121.533834, 25.119331], [121.534411, 25.118549], [121.53487, 25.117706], [121.535204, 25.116816], [121.535406, 25.115894], [121.535474, 25.114956], [121.535406, 25.114018], [121.535203, 25.113096], [121.53487, 25.112206], [121.53441, 25.111363], [121.533834, 25.110581], [121.533149, 25.109874], [121.532368, 25.109254], [121.531505, 25.108732], [121.530574, 25.108316], [121.529591, 25.108014], [121.528573, 25.107831], [121.527537, 25.107769], [121.526501, 25.107831], [121.525483, 25.108014], [121.5245, 25.108316], [121.523569, 25.108732], [121.522706, 25.109254], [121.521925, 25.109874], [121.52124, 25.110581], [121.520664, 25.111363], [121.520204, 25.112206], [121.519871, 25.113096], [121.519668, 25.114018], [121.5196, 25.114956], [121.519668, 25.115894], [121.51987, 25.116816], [121.520204, 25.117706], [121.520663, 25.118549], [121.52124, 25.119331], [121.521925, 25.120038], [121.522705, 25.120657], [121.523568, 25.12118], [121.5245, 25.121595], [121.525483, 25.121898], [121.526501, 25.122081], [121.527537, 25.122143]]]}, "properties": {"store_name": "御鼎屋食品股份有限公司", "city": "臺北市", "district": "士林區", "fail_count": 3, "main_violation_type": "農藥殘留", "tier": 1, "tier_label": "雷達邊界", "radius_m": 800}}, {"type": "Feature", "geometry": {"type": "Polygon", "coordinates": [[[121.527537, 25.118549], [121.528055, 25.118519], [121.528564, 25.118427], [121.529056, 25.118276], [121.529521, 25.118068], [121.529953, 25.117807], [121.530343, 25.117497], [121.530685, 25.117143], [121.530974, 25.116753], [121.531203, 25.116331], [121.53137, 25.115886], [121.531472, 25.115425], [121.531505, 25.114956], [121.531471, 25.114487], [121.53137, 25.114026], [121.531203, 25.113581], [121.530974, 25.113159], [121.530685, 25.112769], [121.530343, 25.112415], [121.529953, 25.112105], [121.529521, 25.111844], [121.529056, 25.111636], [121.528564, 25.111485], [121.528055, 25.111393], [121.527537, 25.111363], [121.527019, 25.111393], [121.52651, 25.111485], [121.526018, 25.111636], [121.525553, 25.111844], [121.525121, 25.112105], [121.524731, 25.112415], [121.524389, 25.112769], [121.5241, 25.113159], [121.523871, 25.113581], [121.523704, 25.114026], [121.523603, 25.114487], [121.523569, 25.114956], [121.523602, 25.115425], [121.523704, 25.115886], [121.523871, 25.116331], [121.5241, 25.116753], [121.524389, 25.117143], [121.524731, 25.117497], [121.525121, 25.117807], [121.525553, 25.118068], [121.526018, 25.118276], [121.52651, 25.118427], [121.527019, 25.118519], [121.527537, 25.118549]]]}, "properties": {"store_name": "御鼎屋食品股份有限公司", "city": "臺北市", "district": "士林區", "fail_count": 3, "main_violation_type": "農藥殘留", "tier": 2, "tier_label": "警示緩衝", "radius_m": 400}}, {"type": "Feature", "geometry": {"type": "Polygon", "coordinates": [[[121.527537, 25.116753], [121.527796, 25.116737], [121.528051, 25.116691], [121.528296, 25.116616], [121.528529, 25.116512], [121.528745, 25.116381], [121.52894, 25.116226], [121.529111, 25.11605], [121.529255, 25.115854], [121.52937, 25.115644], [121.529454, 25.115421], [121.529504, 25.11519], [121.529521, 25.114956], [121.529504, 25.114721], [121.529454, 25.114491], [121.52937, 25.114268], [121.529255, 25.114058], [121.529111, 25.113862], [121.52894, 25.113686], [121.528745, 25.113531], [121.528529, 25.1134], [121.528296, 25.113296], [121.528051, 25.113221], [121.527796, 25.113175], [121.527537, 25.113159], [121.527278, 25.113175], [121.527023, 25.113221], [121.526778, 25.113296], [121.526545, 25.1134], [121.526329, 25.113531], [121.526134, 25.113686], [121.525963, 25.113862], [121.525819, 25.114058], [121.525704, 25.114268], [121.52562, 25.114491], [121.52557, 25.114721], [121.525553, 25.114956], [121.52557, 25.11519], [121.52562, 25.115421], [121.525704, 25.115644], [121.525819, 25.115854], [121.525963, 25.11605], [121.526134, 25.116226], [121.526329, 25.116381], [121.526545, 25.116512], [121.526778, 25.116616], [121.527023, 25.116691], [121.527278, 25.116737], [121.527537, 25.116753]]]}, "properties": {"store_name": "御鼎屋食品股份有限公司", "city": "臺北市", "district": "士林區", "fail_count": 3, "main_violation_type": "農藥殘留", "tier": 3, "tier_label": "風險核心", "radius_m": 200}}, {"type": "Feature", "geometry": {"type": "Polygon", "coordinates": [[[121.293096, 25.067738], [121.294132, 25.067676], [121.295149, 25.067493], [121.296132, 25.06719], [121.297063, 25.066775], [121.297926, 25.066252], [121.298706, 25.065633], [121.29939, 25.064926], [121.299967, 25.064144], [121.300426, 25.063301], [121.300759, 25.062411], [121.300962, 25.061489], [121.301029, 25.060551], [121.300961, 25.059613], [121.300759, 25.058691], [121.300425, 25.057801], [121.299966, 25.056958], [121.29939, 25.056176], [121.298706, 25.055469], [121.297925, 25.054849], [121.297062, 25.054327], [121.296132, 25.053911], [121.295149, 25.053609], [121.294131, 25.053426], [121.293096, 25.053364], [121.292061, 25.053426], [121.291043, 25.053609], [121.29006, 25.053911], [121.28913, 25.054327], [121.288267, 25.054849], [121.287486, 25.055469], [121.286802, 25.056176], [121.286226, 25.056958], [121.285767, 25.057801], [121.285433, 25.058691], [121.285231, 25.059613], [121.285163, 25.060551], [121.28523, 25.061489], [121.285433, 25.062411], [121.285766, 25.063301], [121.286225, 25.064144], [121.286802, 25.064926], [121.287486, 25.065633], [121.288266, 25.066252], [121.289129, 25.066775], [121.29006, 25.06719], [121.291043, 25.067493], [121.29206, 25.067676], [121.293096, 25.067738]]]}, "properties": {"store_name": "良朋農產有限公司", "city": "其他", "district": "", "fail_count": 3, "main_violation_type": "農藥殘留", "tier": 1, "tier_label": "雷達邊界", "radius_m": 800}}, {"type": "Feature", "geometry": {"type": "Polygon", "coordinates": [[[121.293096, 25.064144], [121.293614, 25.064114], [121.294123, 25.064022], [121.294614, 25.063871], [121.295079, 25.063663], [121.295511, 25.063402], [121.295901, 25.063092], [121.296243, 25.062738], [121.296531, 25.062348], [121.296761, 25.061926], [121.296928, 25.061481], [121.297029, 25.06102], [121.297063, 25.060551], [121.297029, 25.060082], [121.296927, 25.059621], [121.296761, 25.059176], [121.296531, 25.058754], [121.296243, 25.058364], [121.295901, 25.05801], [121.295511, 25.0577], [121.295079, 25.057439], [121.294614, 25.057231], [121.294123, 25.05708], [121.293614, 25.056988], [121.293096, 25.056958], [121.292578, 25.056988], [121.292069, 25.05708], [121.291578, 25.057231], [121.291113, 25.057439], [121.290681, 25.0577], [121.290291, 25.05801], [121.289949, 25.058364], [121.289661, 25.058754], [121.289431, 25.059176], [121.289265, 25.059621], [121.289163, 25.060082], [121.289129, 25.060551], [121.289163, 25.06102], [121.289264, 25.061481], [121.289431, 25.061926], [121.289661, 25.062348], [121.289949, 25.062738], [121.290291, 25.063092], [121.290681, 25.063402], [121.291113, 25.063663], [121.291578, 25.063871], [121.292069, 25.064022], [121.292578, 25.064114], [121.293096, 25.064144]]]}, "properties": {"store_name": "良朋農產有限公司", "city": "其他", "district": "", "fail_count": 3, "main_violation_type": "農藥殘留", "tier": 2, "tier_label": "警示緩衝", "radius_m": 400}}, {"type": "Feature", "geometry": {"type": "Polygon", "coordinates": [[[121.293096, 25.062348], [121.293355, 25.062332], [121.293609, 25.062286], [121.293855, 25.062211], [121.294088, 25.062107], [121.294303, 25.061976], [121.294498, 25.061821], [121.29467, 25.061645], [121.294814, 25.061449], [121.294928, 25.061239], [121.295012, 25.061016], [121.295062, 25.060785], [121.295079, 25.060551], [121.295062, 25.060316], [121.295012, 25.060086], [121.294928, 25.059863], [121.294814, 25.059653], [121.294669, 25.059457], [121.294498, 25.059281], [121.294303, 25.059126], [121.294088, 25.058995], [121.293855, 25.058891], [121.293609, 25.058816], [121.293355, 25.05877], [121.293096, 25.058754], [121.292837, 25.05877], [121.292583, 25.058816], [121.292337, 25.058891], [121.292104, 25.058995], [121.291889, 25.059126], [121.291694, 25.059281], [121.291523, 25.059457], [121.291378, 25.059653], [121.291264, 25.059863], [121.29118, 25.060086], [121.29113, 25.060316], [121.291113, 25.060551], [121.29113, 25.060785], [121.29118, 25.061016], [121.291264, 25.061239], [121.291378, 25.061449], [121.291522, 25.061645], [121.291694, 25.061821], [121.291889, 25.061976], [121.292104, 25.062107], [121.292337, 25.062211], [121.292583, 25.062286], [121.292837, 25.062332], [121.293096, 25.062348]]]}, "properties": {"store_name": "良朋農產有限公司", "city": "其他", "district": "", "fail_count": 3, "main_violation_type": "農藥殘留", "tier": 3, "tier_label": "風險核心", "radius_m": 200}}]}