{
  "type": "FeatureCollection",
  "name": "VulnerableFacility_School",
  "crs": {
    "type": "name",
    "properties": {
      "name": "urn:ogc:def:crs:OGC:1.3:CRS84"
    }
  },
  "features": [
    {
      "type": "Feature",
      "geometry": {
        "type": "Point",
        "coordinates": [
          121.458097,
          25.011025
        ]
      },
      "properties": {
        "facility_id": "SCH_N001",
        "facility_name": "板橋國小",
        "facility_type": "school",
        "city": "新北市",
        "district": "板橋區",
        "address": "新北市板橋區",
        "population_or_capacity": 1182,
        "is_affected": true,
        "relation_type": "事件熱區",
        "related_ingredient": "高麗菜",
        "related_supplier": "力銘農產",
        "exposure_score": 49.56,
        "risk_level": "yellow",
        "suggested_attention": "檢查午餐留樣與進貨紀錄（重點：留意鄰近事件熱區之影響）"
      }
    },
    {
      "type": "Feature",
      "geometry": {
        "type": "Point",
        "coordinates": [
          121.46342,
          25.003572
        ]
      },
      "properties": {
        "facility_id": "SCH_N002",
        "facility_name": "後埔國小",
        "facility_type": "school",
        "city": "新北市",
        "district": "板橋區",
        "address": "新北市板橋區",
        "population_or_capacity": 1158,
        "is_affected": true,
        "relation_type": "事件熱區",
        "related_ingredient": "高麗菜",
        "related_supplier": "力銘農產",
        "exposure_score": 49.23,
        "risk_level": "yellow",
        "suggested_attention": "檢查午餐留樣與進貨紀錄（重點：留意鄰近事件熱區之影響）"
      }
    },
    {
      "type": "Feature",
      "geometry": {
        "type": "Point",
        "coordinates": [
          121.462376,
          25.025876
        ]
      },
      "properties": {
        "facility_id": "SCH_N003",
        "facility_name": "新埔國小",
        "facility_type": "school",
        "city": "新北市",
        "district": "板橋區",
        "address": "新北市板橋區",
        "population_or_capacity": 634,
        "is_affected": true,
        "relation_type": "事件熱區",
        "related_ingredient": "高麗菜",
        "related_supplier": "力銘農產",
        "exposure_score": 41.88,
        "risk_level": "green",
        "suggested_attention": "檢查午餐留樣與進貨紀錄（重點：留意鄰近事件熱區之影響）"
      }
    },
    {
      "type": "Feature",
      "geometry": {
        "type": "Point",
        "coordinates": [
          121.474102,
          25.018147
        ]
      },
      "properties": {
        "facility_id": "SCH_N004",
        "facility_name": "埔墘國小",
        "facility_type": "school",
        "city": "新北市",
        "district": "板橋區",
        "address": "新北市板橋區",
        "population_or_capacity": 1011,
        "is_affected": true,
        "relation_type": "事件熱區",
        "related_ingredient": "高麗菜",
        "related_supplier": "力銘農產",
        "exposure_score": 47.17,
        "risk_level": "yellow",
        "suggested_attention": "檢查午餐留樣與進貨紀錄（重點：留意鄰近事件熱區之影響）"
      }
    },
    {
      "type": "Feature",
      "geometry": {
        "type": "Point",
        "coordinates": [
          121.470468,
          25.009279
        ]
      },
      "properties": {
        "facility_id": "SCH_N005",
        "facility_name": "海山國小",
        "facility_type": "school",
        "city": "新北市",
        "district": "板橋區",
        "address": "新北市板橋區",
        "population_or_capacity": 687,
        "is_affected": true,
        "relation_type": "同供應商+同原料",
        "related_ingredient": "高麗菜",
        "related_supplier": "三統食品有限公司",
        "exposure_score": 64.63,
        "risk_level": "yellow",
        "suggested_attention": "檢查午餐留樣與進貨紀錄（重點：確認與疑似供應商之合約與批號）"
      }
    },
    {
      "type": "Feature",
      "geometry": {
        "type": "Point",
        "coordinates": [
          121.473536,
          25.032481
        ]
      },
      "properties": {
        "facility_id": "SCH_N006",
        "facility_name": "江翠國小",
        "facility_type": "school",
        "city": "新北市",
        "district": "板橋區",
        "address": "新北市板橋區",
        "population_or_capacity": 1243,
        "is_affected": true,
        "relation_type": "同供應商",
        "related_ingredient": "",
        "related_supplier": "三統食品有限公司",
        "exposure_score": 66.92,
        "risk_level": "orange",
        "suggested_attention": "檢查午餐留樣與進貨紀錄（重點：確認與疑似供應商之合約與批號）"
      }
    },
    {
      "type": "Feature",
      "geometry": {
        "type": "Point",
        "coordinates": [
          121.47416,
          25.025125
        ]
      },
      "properties": {
        "facility_id": "SCH_N007",
        "facility_name": "莒光國小",
        "facility_type": "school",
        "city": "新北市",
        "district": "板橋區",
        "address": "新北市板橋區",
        "population_or_capacity": 1018,
        "is_affected": true,
        "relation_type": "事件熱區",
        "related_ingredient": "高麗菜",
        "related_supplier": "力銘農產",
        "exposure_score": 47.27,
        "risk_level": "yellow",
        "suggested_attention": "檢查午餐留樣與進貨紀錄（重點：留意鄰近事件熱區之影響）"
      }
    },
    {
      "type": "Feature",
      "geometry": {
        "type": "Point",
        "coordinates": [
          121.453023,
          25.019183
        ]
      },
      "properties": {
        "facility_id": "SCH_N008",
        "facility_name": "國光國小",
        "facility_type": "school",
        "city": "新北市",
        "district": "板橋區",
        "address": "新北市板橋區",
        "population_or_capacity": 1040,
        "is_affected": true,
        "relation_type": "同供應商+同原料",
        "related_ingredient": "高麗菜",
        "related_supplier": "三統食品有限公司",
        "exposure_score": 69.57,
        "risk_level": "orange",
        "suggested_attention": "檢查午餐留樣與進貨紀錄（重點：確認與疑似供應商之合約與批號）"
      }
    },
    {
      "type": "Feature",
      "geometry": {
        "type": "Point",
        "coordinates": [
          121.448286,
          25.001992
        ]
      },
      "properties": {
        "facility_id": "SCH_N009",
        "facility_name": "中山國小",
        "facility_type": "school",
        "city": "新北市",
        "district": "板橋區",
        "address": "新北市板橋區",
        "population_or_capacity": 756,
        "is_affected": true,
        "relation_type": "事件熱區",
        "related_ingredient": "高麗菜",
        "related_supplier": "力銘農產",
        "exposure_score": 43.59,
        "risk_level": "green",
        "suggested_attention": "檢查午餐留樣與進貨紀錄（重點：留意鄰近事件熱區之影響）"
      }
    },
    {
      "type": "Feature",
      "geometry": {
        "type": "Point",
        "coordinates": [
          121.430244,
          24.992204
        ]
      },
      "properties": {
        "facility_id": "SCH_N010",
        "facility_name": "沙崙國小",
        "facility_type": "school",
        "city": "新北市",
        "district": "板橋區",
        "address": "新北市板橋區",
        "population_or_capacity": 1350,
        "is_affected": true,
        "relation_type": "同供應商+同原料",
        "related_ingredient": "高麗菜",
        "related_supplier": "三統食品有限公司",
        "exposure_score": 73.92,
        "risk_level": "orange",
        "suggested_attention": "檢查午餐留樣與進貨紀錄（重點：確認與疑似供應商之合約與批號）"
      }
    },
    {
      "type": "Feature",
      "geometry": {
        "type": "Point",
        "coordinates": [
          121.477419,
          25.02913
        ]
      },
      "properties": {
        "facility_id": "SCH_N011",
        "facility_name": "文聖國小",
        "facility_type": "school",
        "city": "新北市",
        "district": "板橋區",
        "address": "新北市板橋區",
        "population_or_capacity": 1469,
        "is_affected": true,
        "relation_type": "事件熱區",
        "related_ingredient": "高麗菜",
        "related_supplier": "力銘農產",
        "exposure_score": 53.59,
        "risk_level": "yellow",
        "suggested_attention": "檢查午餐留樣與進貨紀錄（重點：留意鄰近事件熱區之影響）"
      }
    },
    {
      "type": "Feature",
      "geometry": {
        "type": "Point",
        "coordinates": [
          121.458751,
          25.023318
        ]
      },
      "properties": {
        "facility_id": "SCH_N012",
        "facility_name": "文德國小",
        "facility_type": "school",
        "city": "新北市",
        "district": "板橋區",
        "address": "新北市板橋區",
        "population_or_capacity": 1414,
        "is_affected": true,
        "relation_type": "事件熱區",
        "related_ingredient": "高麗菜",
        "related_supplier": "力銘農產",
        "exposure_score": 52.82,
        "risk_level": "yellow",
        "suggested_attention": "檢查午餐留樣與進貨紀錄（重點：留意鄰近事件熱區之影響）"
      }
    },
    {
      "type": "Feature",
      "geometry": {
        "type": "Point",
        "coordinates": [
          121.466387,
          25.004986
        ]
      },
      "properties": {
        "facility_id": "SCH_N013",
        "facility_name": "實踐國小",
        "facility_type": "school",
        "city": "新北市",
        "district": "板橋區",
        "address": "新北市板橋區",
        "population_or_capacity": 723,
        "is_affected": true,
        "relation_type": "事件熱區",
        "related_ingredient": "高麗菜",
        "related_supplier": "力銘農產",
        "exposure_score": 43.13,
        "risk_level": "green",
        "suggested_attention": "檢查午餐留樣與進貨紀錄（重點：留意鄰近事件熱區之影響）"
      }
    },
    {
      "type": "Feature",
      "geometry": {
        "type": "Point",
        "coordinates": [
          121.449349,
          25.008584
        ]
      },
      "properties": {
        "facility_id": "SCH_N014",
        "facility_name": "大觀國小",
        "facility_type": "school",
        "city": "新北市",
        "district": "板橋區",
        "address": "新北市板橋區",
        "population_or_capacity": 674,
        "is_affected": true,
        "relation_type": "事件熱區",
        "related_ingredient": "高麗菜",
        "related_supplier": "力銘農產",
        "exposure_score": 42.45,
        "risk_level": "green",
        "suggested_attention": "檢查午餐留樣與進貨紀錄（重點：留意鄰近事件熱區之影響）"
      }
    },
    {
      "type": "Feature",
      "geometry": {
        "type": "Point",
        "coordinates": [
          121.431327,
          24.988296
        ]
      },
      "properties": {
        "facility_id": "SCH_N015",
        "facility_name": "溪洲國小",
        "facility_type": "school",
        "city": "新北市",
        "district": "板橋區",
        "address": "新北市板橋區",
        "population_or_capacity": 1233,
        "is_affected": true,
        "relation_type": "事件熱區",
        "related_ingredient": "高麗菜",
        "related_supplier": "力銘農產",
        "exposure_score": 50.28,
        "risk_level": "yellow",
        "suggested_attention": "檢查午餐留樣與進貨紀錄（重點：留意鄰近事件熱區之影響）"
      }
    },
    {
      "type": "Feature",
      "geometry": {
        "type": "Point",
        "coordinates": [
          121.452634,
          24.991727
        ]
      },
      "properties": {
        "facility_id": "SCH_N016",
        "facility_name": "信義國小",
        "facility_type": "school",
        "city": "新北市",
        "district": "板橋區",
        "address": "新北市板橋區",
        "population_or_capacity": 613,
        "is_affected": true,
        "relation_type": "事件熱區",
        "related_ingredient": "高麗菜",
        "related_supplier": "力銘農產",
        "exposure_score": 41.59,
        "risk_level": "green",
        "suggested_attention": "檢查午餐留樣與進貨紀錄（重點：留意鄰近事件熱區之影響）"
      }
    },
    {
      "type": "Feature",
      "geometry": {
        "type": "Point",
        "coordinates": [
          121.463122,
          24.99454
        ]
      },
      "properties": {
        "facility_id": "SCH_N017",
        "facility_name": "重慶國小",
        "facility_type": "school",
        "city": "新北市",
        "district": "板橋區",
        "address": "新北市板橋區",
        "population_or_capacity": 801,
        "is_affected": true,
        "relation_type": "同供應商+同原料",
        "related_ingredient": "高麗菜",
        "related_supplier": "三統食品有限公司",
        "exposure_score": 66.22,
        "risk_level": "orange",
        "suggested_attention": "檢查午餐留樣與進貨紀錄（重點：確認與疑似供應商之合約與批號）"
      }
    },
    {
      "type": "Feature",
      "geometry": {
        "type": "Point",
        "coordinates": [
          121.479742,
          25.018758
        ]
      },
      "properties": {
        "facility_id": "SCH_N018",
        "facility_name": "光復國小",
        "facility_type": "school",
        "city": "新北市",
        "district": "板橋區",
        "address": "新北市板橋區",
        "population_or_capacity": 958,
        "is_affected": true,
        "relation_type": "同供應商",
        "related_ingredient": "",
        "related_supplier": "三統食品有限公司",
        "exposure_score": 62.92,
        "risk_level": "yellow",
        "suggested_attention": "檢查午餐留樣與進貨紀錄（重點：確認與疑似供應商之合約與批號）"
      }
    },
    {
      "type": "Feature",
      "geometry": {
        "type": "Point",
        "coordinates": [
          121.442115,
          24.972071
        ]
      },
      "properties": {
        "facility_id": "SCH_N019",
        "facility_name": "土城國小",
        "facility_type": "school",
        "city": "新北市",
        "district": "土城區",
        "address": "新北市土城區",
        "population_or_capacity": 1375,
        "is_affected": false,
        "risk_level": "green",
        "exposure_score": 0
      }
    },
    {
      "type": "Feature",
      "geometry": {
        "type": "Point",
        "coordinates": [
          121.461201,
          24.984827
        ]
      },
      "properties": {
        "facility_id": "SCH_N020",
        "facility_name": "清水國小",
        "facility_type": "school",
        "city": "新北市",
        "district": "土城區",
        "address": "新北市土城區",
        "population_or_capacity": 646,
        "is_affected": false,
        "risk_level": "green",
        "exposure_score": 0
      }
    },
    {
      "type": "Feature",
      "geometry": {
        "type": "Point",
        "coordinates": [
          121.464977,
          24.988939
        ]
      },
      "properties": {
        "facility_id": "SCH_N021",
        "facility_name": "安和國小",
        "facility_type": "school",
        "city": "新北市",
        "district": "土城區",
        "address": "新北市土城區",
        "population_or_capacity": 1236,
        "is_affected": false,
        "risk_level": "green",
        "exposure_score": 0
      }
    },
    {
      "type": "Feature",
      "geometry": {
        "type": "Point",
        "coordinates": [
          121.454421,
          24.986902
        ]
      },
      "properties": {
        "facility_id": "SCH_N022",
        "facility_name": "廣福國小",
        "facility_type": "school",
        "city": "新北市",
        "district": "土城區",
        "address": "新北市土城區",
        "population_or_capacity": 1339,
        "is_affected": false,
        "risk_level": "green",
        "exposure_score": 0
      }
    },
    {
      "type": "Feature",
      "geometry": {
        "type": "Point",
        "coordinates": [
          121.414319,
          24.956042
        ]
      },
      "properties": {
        "facility_id": "SCH_N023",
        "facility_name": "頂埔國小",
        "facility_type": "school",
        "city": "新北市",
        "district": "土城區",
        "address": "新北市土城區",
        "population_or_capacity": 1095,
        "is_affected": true,
        "relation_type": "同供應商+同原料",
        "related_ingredient": "高麗菜",
        "related_supplier": "三統食品有限公司",
        "exposure_score": 70.34,
        "risk_level": "orange",
        "suggested_attention": "檢查午餐留樣與進貨紀錄（重點：確認與疑似供應商之合約與批號）"
      }
    },
    {
      "type": "Feature",
      "geometry": {
        "type": "Point",
        "coordinates": [
          121.447954,
          24.985214
        ]
      },
      "properties": {
        "facility_id": "SCH_N024",
        "facility_name": "樂利國小",
        "facility_type": "school",
        "city": "新北市",
        "district": "土城區",
        "address": "新北市土城區",
        "population_or_capacity": 794,
        "is_affected": false,
        "risk_level": "green",
        "exposure_score": 0
      }
    },
    {
      "type": "Feature",
      "geometry": {
        "type": "Point",
        "coordinates": [
          121.454025,
          24.991518
        ]
      },
      "properties": {
        "facility_id": "SCH_N025",
        "facility_name": "信義國小",
        "facility_type": "school",
        "city": "新北市",
        "district": "土城區",
        "address": "新北市土城區",
        "population_or_capacity": 900,
        "is_affected": false,
        "risk_level": "green",
        "exposure_score": 0
      }
    },
    {
      "type": "Feature",
      "geometry": {
        "type": "Point",
        "coordinates": [
          121.406015,
          25.016416
        ]
      },
      "properties": {
        "facility_id": "SCH_N026",
        "facility_name": "三多國小",
        "facility_type": "school",
        "city": "新北市",
        "district": "樹林區",
        "address": "新北市樹林區",
        "population_or_capacity": 1466,
        "is_affected": false,
        "risk_level": "green",
        "exposure_score": 0
      }
    },
    {
      "type": "Feature",
      "geometry": {
        "type": "Point",
        "coordinates": [
          121.414701,
          25.001955
        ]
      },
      "properties": {
        "facility_id": "SCH_N027",
        "facility_name": "武林國小",
        "facility_type": "school",
        "city": "新北市",
        "district": "樹林區",
        "address": "新北市樹林區",
        "population_or_capacity": 600,
        "is_affected": false,
        "risk_level": "green",
        "exposure_score": 0
      }
    },
    {
      "type": "Feature",
      "geometry": {
        "type": "Point",
        "coordinates": [
          121.425443,
          24.998
        ]
      },
      "properties": {
        "facility_id": "SCH_N028",
        "facility_name": "文林國小",
        "facility_type": "school",
        "city": "新北市",
        "district": "樹林區",
        "address": "新北市樹林區",
        "population_or_capacity": 626,
        "is_affected": false,
        "risk_level": "green",
        "exposure_score": 0
      }
    },
    {
      "type": "Feature",
      "geometry": {
        "type": "Point",
        "coordinates": [
          121.418146,
          24.989748
        ]
      },
      "properties": {
        "facility_id": "SCH_N029",
        "facility_name": "樹林國小",
        "facility_type": "school",
        "city": "新北市",
        "district": "樹林區",
        "address": "新北市樹林區",
        "population_or_capacity": 1025,
        "is_affected": false,
        "risk_level": "green",
        "exposure_score": 0
      }
    },
    {
      "type": "Feature",
      "geometry": {
        "type": "Point",
        "coordinates": [
          121.415841,
          24.985742
        ]
      },
      "properties": {
        "facility_id": "SCH_N030",
        "facility_name": "育林國小",
        "facility_type": "school",
        "city": "新北市",
        "district": "樹林區",
        "address": "新北市樹林區",
        "population_or_capacity": 922,
        "is_affected": false,
        "risk_level": "green",
        "exposure_score": 0
      }
    }
  ]
}