{
  "type": "FeatureCollection",
  "name": "VulnerableFacility_All",
  "crs": {
    "type": "name",
    "properties": {
      "name": "urn:ogc:def:crs:OGC:1.3:CRS84"
    }
  },
  "features": [
    {
      "type": "Feature",
      "geometry": {
        "type": "Point",
        "coordinates": [
          121.566354,
          25.05537
        ]
      },
      "properties": {
        "facility_id": "SCH_T8981",
        "facility_name": "松山區西松高中",
        "facility_type": "school",
        "city": "臺北市",
        "district": "松山區",
        "address": "臺北市松山區",
        "population_or_capacity": 1081,
        "is_affected": true,
        "relation_type": "同供應商+同原料",
        "related_ingredient": "高麗菜",
        "related_supplier": "三統食品有限公司",
        "exposure_score": 70.15,
        "risk_level": "orange",
        "suggested_attention": "檢查午餐留樣與進貨紀錄（重點：確認與疑似供應商之合約與批號）"
      }
    },
    {
      "type": "Feature",
      "geometry": {
        "type": "Point",
        "coordinates": [
          121.561683,
          25.049673
        ]
      },
      "properties": {
        "facility_id": "SCH_T8221",
        "facility_name": "松山區中崙高中",
        "facility_type": "school",
        "city": "臺北市",
        "district": "松山區",
        "address": "臺北市松山區",
        "population_or_capacity": 1473,
        "is_affected": false,
        "risk_level": "green",
        "exposure_score": 0
      }
    },
    {
      "type": "Feature",
      "geometry": {
        "type": "Point",
        "coordinates": [
          121.572006,
          25.04092
        ]
      },
      "properties": {
        "facility_id": "SCH_T6146",
        "facility_name": "信義區私立協和祐德高中",
        "facility_type": "school",
        "city": "臺北市",
        "district": "信義區",
        "address": "臺北市信義區",
        "population_or_capacity": 1101,
        "is_affected": true,
        "relation_type": "同原料",
        "related_ingredient": "高麗菜切",
        "related_supplier": "",
        "exposure_score": 59.43,
        "risk_level": "yellow",
        "suggested_attention": "檢查午餐留樣與進貨紀錄（重點：暫停使用疑似原料）"
      }
    },
    {
      "type": "Feature",
      "geometry": {
        "type": "Point",
        "coordinates": [
          121.565387,
          25.043505
        ]
      },
      "properties": {
        "facility_id": "SCH_T8444",
        "facility_name": "信義區松山高中",
        "facility_type": "school",
        "city": "臺北市",
        "district": "信義區",
        "address": "臺北市信義區",
        "population_or_capacity": 876,
        "is_affected": true,
        "relation_type": "同原料",
        "related_ingredient": "高麗菜",
        "related_supplier": "",
        "exposure_score": 56.28,
        "risk_level": "yellow",
        "suggested_attention": "檢查午餐留樣與進貨紀錄（重點：暫停使用疑似原料）"
      }
    },
    {
      "type": "Feature",
      "geometry": {
        "type": "Point",
        "coordinates": [
          121.578842,
          25.03347
        ]
      },
      "properties": {
        "facility_id": "SCH_T4645",
        "facility_name": "信義區永春高中",
        "facility_type": "school",
        "city": "臺北市",
        "district": "信義區",
        "address": "臺北市信義區",
        "population_or_capacity": 1634,
        "is_affected": true,
        "relation_type": "同原料",
        "related_ingredient": "高麗菜片",
        "related_supplier": "",
        "exposure_score": 66.9,
        "risk_level": "orange",
        "suggested_attention": "檢查午餐留樣與進貨紀錄（重點：暫停使用疑似原料）"
      }
    },
    {
      "type": "Feature",
      "geometry": {
        "type": "Point",
        "coordinates": [
          121.580609,
          25.035123
        ]
      },
      "properties": {
        "facility_id": "SCH_T4536",
        "facility_name": "信義區松山家商",
        "facility_type": "school",
        "city": "臺北市",
        "district": "信義區",
        "address": "臺北市信義區",
        "population_or_capacity": 1175,
        "is_affected": true,
        "relation_type": "同原料",
        "related_ingredient": "高麗菜",
        "related_supplier": "",
        "exposure_score": 60.47,
        "risk_level": "yellow",
        "suggested_attention": "檢查午餐留樣與進貨紀錄（重點：暫停使用疑似原料）"
      }
    },
    {
      "type": "Feature",
      "geometry": {
        "type": "Point",
        "coordinates": [
          121.572103,
          25.039812
        ]
      },
      "properties": {
        "facility_id": "SCH_T3408",
        "facility_name": "信義區松山工農",
        "facility_type": "school",
        "city": "臺北市",
        "district": "信義區",
        "address": "臺北市信義區",
        "population_or_capacity": 1345,
        "is_affected": true,
        "relation_type": "同原料",
        "related_ingredient": "高麗菜",
        "related_supplier": "",
        "exposure_score": 62.85,
        "risk_level": "yellow",
        "suggested_attention": "檢查午餐留樣與進貨紀錄（重點：暫停使用疑似原料）"
      }
    },
    {
      "type": "Feature",
      "geometry": {
        "type": "Point",
        "coordinates": [
          121.538462,
          25.036798
        ]
      },
      "properties": {
        "facility_id": "SCH_T1420",
        "facility_name": "大安區私立延平高級中學",
        "facility_type": "school",
        "city": "臺北市",
        "district": "大安區",
        "address": "臺北市大安區",
        "population_or_capacity": 1784,
        "is_affected": true,
        "relation_type": "同供應商",
        "related_ingredient": "",
        "related_supplier": "三統食品有限公司",
        "exposure_score": 74.5,
        "risk_level": "orange",
        "suggested_attention": "檢查午餐留樣與進貨紀錄（重點：確認與疑似供應商之合約與批號）"
      }
    },
    {
      "type": "Feature",
      "geometry": {
        "type": "Point",
        "coordinates": [
          121.524182,
          25.034768
        ]
      },
      "properties": {
        "facility_id": "SCH_T1336",
        "facility_name": "大安區金甌女中",
        "facility_type": "school",
        "city": "臺北市",
        "district": "大安區",
        "address": "臺北市大安區",
        "population_or_capacity": 1348,
        "is_affected": false,
        "risk_level": "green",
        "exposure_score": 0
      }
    },
    {
      "type": "Feature",
      "geometry": {
        "type": "Point",
        "coordinates": [
          121.548417,
          25.039322
        ]
      },
      "properties": {
        "facility_id": "SCH_T9486",
        "facility_name": "大安區私立復興實驗高級中學",
        "facility_type": "school",
        "city": "臺北市",
        "district": "大安區",
        "address": "臺北市大安區",
        "population_or_capacity": 1005,
        "is_affected": true,
        "relation_type": "同供應商+同原料",
        "related_ingredient": "高麗菜切片",
        "related_supplier": "三統食品有限公司",
        "exposure_score": 69.08,
        "risk_level": "orange",
        "suggested_attention": "檢查午餐留樣與進貨紀錄（重點：確認與疑似供應商之合約與批號）"
      }
    },
    {
      "type": "Feature",
      "geometry": {
        "type": "Point",
        "coordinates": [
          121.543378,
          25.024944
        ]
      },
      "properties": {
        "facility_id": "SCH_T7677",
        "facility_name": "大安區私立開平餐飲學校",
        "facility_type": "school",
        "city": "臺北市",
        "district": "大安區",
        "address": "臺北市大安區",
        "population_or_capacity": 926,
        "is_affected": true,
        "relation_type": "同供應商+同原料",
        "related_ingredient": "高麗菜",
        "related_supplier": "三統食品有限公司",
        "exposure_score": 67.98,
        "risk_level": "orange",
        "suggested_attention": "檢查午餐留樣與進貨紀錄（重點：確認與疑似供應商之合約與批號）"
      }
    },
    {
      "type": "Feature",
      "geometry": {
        "type": "Point",
        "coordinates": [
          121.549152,
          25.019631
        ]
      },
      "properties": {
        "facility_id": "SCH_T6766",
        "facility_name": "大安區和平高中",
        "facility_type": "school",
        "city": "臺北市",
        "district": "大安區",
        "address": "臺北市大安區",
        "population_or_capacity": 1329,
        "is_affected": true,
        "relation_type": "同供應商",
        "related_ingredient": "",
        "related_supplier": "三統食品有限公司",
        "exposure_score": 68.12,
        "risk_level": "orange",
        "suggested_attention": "檢查午餐留樣與進貨紀錄（重點：確認與疑似供應商之合約與批號）"
      }
    },
    {
      "type": "Feature",
      "geometry": {
        "type": "Point",
        "coordinates": [
          121.542974,
          25.032098
        ]
      },
      "properties": {
        "facility_id": "SCH_T5396",
        "facility_name": "大安區大安高工",
        "facility_type": "school",
        "city": "臺北市",
        "district": "大安區",
        "address": "臺北市大安區",
        "population_or_capacity": 1352,
        "is_affected": true,
        "relation_type": "同供應商",
        "related_ingredient": "",
        "related_supplier": "三統食品有限公司",
        "exposure_score": 68.45,
        "risk_level": "orange",
        "suggested_attention": "檢查午餐留樣與進貨紀錄（重點：確認與疑似供應商之合約與批號）"
      }
    },
    {
      "type": "Feature",
      "geometry": {
        "type": "Point",
        "coordinates": [
          121.529025,
          25.065617
        ]
      },
      "properties": {
        "facility_id": "SCH_T2657",
        "facility_name": "中山區私立稻江護理家事學校",
        "facility_type": "school",
        "city": "臺北市",
        "district": "中山區",
        "address": "臺北市中山區",
        "population_or_capacity": 1603,
        "is_affected": true,
        "relation_type": "同原料",
        "related_ingredient": "高麗菜絲",
        "related_supplier": "",
        "exposure_score": 66.46,
        "risk_level": "orange",
        "suggested_attention": "檢查午餐留樣與進貨紀錄（重點：暫停使用疑似原料）"
      }
    },
    {
      "type": "Feature",
      "geometry": {
        "type": "Point",
        "coordinates": [
          121.537105,
          25.048679
        ]
      },
      "properties": {
        "facility_id": "SCH_T5268",
        "facility_name": "中山區中山女高",
        "facility_type": "school",
        "city": "臺北市",
        "district": "中山區",
        "address": "臺北市中山區",
        "population_or_capacity": 858,
        "is_affected": false,
        "risk_level": "green",
        "exposure_score": 0
      }
    },
    {
      "type": "Feature",
      "geometry": {
        "type": "Point",
        "coordinates": [
          121.535272,
          25.055022
        ]
      },
      "properties": {
        "facility_id": "SCH_T1195",
        "facility_name": "中山區大同高中",
        "facility_type": "school",
        "city": "臺北市",
        "district": "中山區",
        "address": "臺北市中山區",
        "population_or_capacity": 1100,
        "is_affected": true,
        "relation_type": "同供應商+同原料",
        "related_ingredient": "高麗菜",
        "related_supplier": "力銘農產",
        "exposure_score": 70.41,
        "risk_level": "orange",
        "suggested_attention": "檢查午餐留樣與進貨紀錄（重點：確認與疑似供應商之合約與批號）"
      }
    },
    {
      "type": "Feature",
      "geometry": {
        "type": "Point",
        "coordinates": [
          121.54341,
          25.078509
        ]
      },
      "properties": {
        "facility_id": "SCH_T8793",
        "facility_name": "中山區大直高中",
        "facility_type": "school",
        "city": "臺北市",
        "district": "中山區",
        "address": "臺北市中山區",
        "population_or_capacity": 1057,
        "is_affected": true,
        "relation_type": "同供應商+同原料",
        "related_ingredient": "高麗菜",
        "related_supplier": "三統食品有限公司",
        "exposure_score": 69.81,
        "risk_level": "orange",
        "suggested_attention": "檢查午餐留樣與進貨紀錄（重點：確認與疑似供應商之合約與批號）"
      }
    },
    {
      "type": "Feature",
      "geometry": {
        "type": "Point",
        "coordinates": [
          121.521699,
          25.042116
        ]
      },
      "properties": {
        "facility_id": "SCH_T9569",
        "facility_name": "中正區私立開南商工",
        "facility_type": "school",
        "city": "臺北市",
        "district": "中正區",
        "address": "臺北市中正區",
        "population_or_capacity": 1664,
        "is_affected": true,
        "relation_type": "同原料",
        "related_ingredient": "高麗菜",
        "related_supplier": "",
        "exposure_score": 67.32,
        "risk_level": "orange",
        "suggested_attention": "檢查午餐留樣與進貨紀錄（重點：暫停使用疑似原料）"
      }
    },
    {
      "type": "Feature",
      "geometry": {
        "type": "Point",
        "coordinates": [
          121.512304,
          25.030772
        ]
      },
      "properties": {
        "facility_id": "SCH_T0335",
        "facility_name": "中正區建國高中",
        "facility_type": "school",
        "city": "臺北市",
        "district": "中正區",
        "address": "臺北市中正區",
        "population_or_capacity": 1708,
        "is_affected": false,
        "risk_level": "green",
        "exposure_score": 0
      }
    },
    {
      "type": "Feature",
      "geometry": {
        "type": "Point",
        "coordinates": [
          121.523606,
          25.042426
        ]
      },
      "properties": {
        "facility_id": "SCH_T3573",
        "facility_name": "中正區成功高中",
        "facility_type": "school",
        "city": "臺北市",
        "district": "中正區",
        "address": "臺北市中正區",
        "population_or_capacity": 1147,
        "is_affected": true,
        "relation_type": "同供應商+同原料",
        "related_ingredient": "高麗菜",
        "related_supplier": "三統食品有限公司",
        "exposure_score": 71.07,
        "risk_level": "orange",
        "suggested_attention": "檢查午餐留樣與進貨紀錄（重點：確認與疑似供應商之合約與批號）"
      }
    },
    {
      "type": "Feature",
      "geometry": {
        "type": "Point",
        "coordinates": [
          121.513098,
          25.038566
        ]
      },
      "properties": {
        "facility_id": "SCH_T1114",
        "facility_name": "中正區第一女子高級中學",
        "facility_type": "school",
        "city": "臺北市",
        "district": "中正區",
        "address": "臺北市中正區",
        "population_or_capacity": 1563,
        "is_affected": true,
        "relation_type": "同原料",
        "related_ingredient": "高麗菜",
        "related_supplier": "",
        "exposure_score": 65.9,
        "risk_level": "orange",
        "suggested_attention": "檢查午餐留樣與進貨紀錄（重點：暫停使用疑似原料）"
      }
    },
    {
      "type": "Feature",
      "geometry": {
        "type": "Point",
        "coordinates": [
          121.515487,
          25.057931
        ]
      },
      "properties": {
        "facility_id": "SCH_T9053",
        "facility_name": "大同區私立靜修女中",
        "facility_type": "school",
        "city": "臺北市",
        "district": "大同區",
        "address": "臺北市大同區",
        "population_or_capacity": 1204,
        "is_affected": true,
        "relation_type": "同原料",
        "related_ingredient": "高麗菜、高麗菜切",
        "related_supplier": "",
        "exposure_score": 60.87,
        "risk_level": "yellow",
        "suggested_attention": "檢查午餐留樣與進貨紀錄（重點：暫停使用疑似原料）"
      }
    },
    {
      "type": "Feature",
      "geometry": {
        "type": "Point",
        "coordinates": [
          121.51196,
          25.06436
        ]
      },
      "properties": {
        "facility_id": "SCH_T1263",
        "facility_name": "大同區私立稻江高商",
        "facility_type": "school",
        "city": "臺北市",
        "district": "大同區",
        "address": "臺北市大同區",
        "population_or_capacity": 1063,
        "is_affected": true,
        "relation_type": "同供應商+同原料",
        "related_ingredient": "高麗菜",
        "related_supplier": "三統食品有限公司",
        "exposure_score": 69.9,
        "risk_level": "orange",
        "suggested_attention": "檢查午餐留樣與進貨紀錄（重點：確認與疑似供應商之合約與批號）"
      }
    },
    {
      "type": "Feature",
      "geometry": {
        "type": "Point",
        "coordinates": [
          121.519167,
          25.07564
        ]
      },
      "properties": {
        "facility_id": "SCH_T8069",
        "facility_name": "大同區明倫高中",
        "facility_type": "school",
        "city": "臺北市",
        "district": "大同區",
        "address": "臺北市大同區",
        "population_or_capacity": 1731,
        "is_affected": false,
        "risk_level": "green",
        "exposure_score": 0
      }
    },
    {
      "type": "Feature",
      "geometry": {
        "type": "Point",
        "coordinates": [
          121.518782,
          25.061373
        ]
      },
      "properties": {
        "facility_id": "SCH_T4993",
        "facility_name": "大同區成淵高中",
        "facility_type": "school",
        "city": "臺北市",
        "district": "大同區",
        "address": "臺北市大同區",
        "population_or_capacity": 1193,
        "is_affected": true,
        "relation_type": "同供應商+同原料",
        "related_ingredient": "高麗菜",
        "related_supplier": "力銘農產",
        "exposure_score": 71.72,
        "risk_level": "orange",
        "suggested_attention": "檢查午餐留樣與進貨紀錄（重點：確認與疑似供應商之合約與批號）"
      }
    },
    {
      "type": "Feature",
      "geometry": {
        "type": "Point",
        "coordinates": [
          121.497135,
          25.027959
        ]
      },
      "properties": {
        "facility_id": "SCH_T4517",
        "facility_name": "萬華區華江高中",
        "facility_type": "school",
        "city": "臺北市",
        "district": "萬華區",
        "address": "臺北市萬華區",
        "population_or_capacity": 966,
        "is_affected": true,
        "relation_type": "同供應商+同原料",
        "related_ingredient": "高麗菜",
        "related_supplier": "力銘農產",
        "exposure_score": 68.54,
        "risk_level": "orange",
        "suggested_attention": "檢查午餐留樣與進貨紀錄（重點：確認與疑似供應商之合約與批號）"
      }
    },
    {
      "type": "Feature",
      "geometry": {
        "type": "Point",
        "coordinates": [
          121.491204,
          25.030861
        ]
      },
      "properties": {
        "facility_id": "SCH_T5650",
        "facility_name": "萬華區大理高中",
        "facility_type": "school",
        "city": "臺北市",
        "district": "萬華區",
        "address": "臺北市萬華區",
        "population_or_capacity": 1696,
        "is_affected": true,
        "relation_type": "同供應商+同原料",
        "related_ingredient": "高麗菜",
        "related_supplier": "力銘農產",
        "exposure_score": 78.77,
        "risk_level": "orange",
        "suggested_attention": "檢查午餐留樣與進貨紀錄（重點：確認與疑似供應商之合約與批號）"
      }
    },
    {
      "type": "Feature",
      "geometry": {
        "type": "Point",
        "coordinates": [
          121.585157,
          24.987709
        ]
      },
      "properties": {
        "facility_id": "SCH_T7257",
        "facility_name": "文山區政治大學附屬高級中學",
        "facility_type": "school",
        "city": "臺北市",
        "district": "文山區",
        "address": "臺北市文山區",
        "population_or_capacity": 923,
        "is_affected": true,
        "relation_type": "同供應商+同原料",
        "related_ingredient": "高麗菜",
        "related_supplier": "三統食品有限公司",
        "exposure_score": 67.93,
        "risk_level": "orange",
        "suggested_attention": "檢查午餐留樣與進貨紀錄（重點：確認與疑似供應商之合約與批號）"
      }
    },
    {
      "type": "Feature",
      "geometry": {
        "type": "Point",
        "coordinates": [
          121.561545,
          24.973374
        ]
      },
      "properties": {
        "facility_id": "SCH_T2239",
        "facility_name": "文山區私立東山中學",
        "facility_type": "school",
        "city": "臺北市",
        "district": "文山區",
        "address": "臺北市文山區",
        "population_or_capacity": 899,
        "is_affected": true,
        "relation_type": "同供應商+同原料",
        "related_ingredient": "高麗菜絲",
        "related_supplier": "三統食品有限公司",
        "exposure_score": 67.6,
        "risk_level": "orange",
        "suggested_attention": "檢查午餐留樣與進貨紀錄（重點：確認與疑似供應商之合約與批號）"
      }
    },
    {
      "type": "Feature",
      "geometry": {
        "type": "Point",
        "coordinates": [
          121.538917,
          24.989452
        ]
      },
      "properties": {
        "facility_id": "SCH_T2577",
        "facility_name": "文山區私立滬江高中",
        "facility_type": "school",
        "city": "臺北市",
        "district": "文山區",
        "address": "臺北市文山區",
        "population_or_capacity": 1774,
        "is_affected": true,
        "relation_type": "同原料",
        "related_ingredient": "高麗菜",
        "related_supplier": "",
        "exposure_score": 68.86,
        "risk_level": "orange",
        "suggested_attention": "檢查午餐留樣與進貨紀錄（重點：暫停使用疑似原料）"
      }
    },
    {
      "type": "Feature",
      "geometry": {
        "type": "Point",
        "coordinates": [
          121.578562,
          24.990991
        ]
      },
      "properties": {
        "facility_id": "SCH_T3334",
        "facility_name": "文山區大誠高中",
        "facility_type": "school",
        "city": "臺北市",
        "district": "文山區",
        "address": "臺北市文山區",
        "population_or_capacity": 1671,
        "is_affected": true,
        "relation_type": "同供應商",
        "related_ingredient": "",
        "related_supplier": "三統食品有限公司",
        "exposure_score": 72.92,
        "risk_level": "orange",
        "suggested_attention": "檢查午餐留樣與進貨紀錄（重點：確認與疑似供應商之合約與批號）"
      }
    },
    {
      "type": "Feature",
      "geometry": {
        "type": "Point",
        "coordinates": [
          121.558229,
          24.990183
        ]
      },
      "properties": {
        "facility_id": "SCH_T9717",
        "facility_name": "文山區私立再興高中",
        "facility_type": "school",
        "city": "臺北市",
        "district": "文山區",
        "address": "臺北市文山區",
        "population_or_capacity": 1299,
        "is_affected": true,
        "relation_type": "同供應商",
        "related_ingredient": "",
        "related_supplier": "三統食品有限公司",
        "exposure_score": 67.7,
        "risk_level": "orange",
        "suggested_attention": "檢查午餐留樣與進貨紀錄（重點：確認與疑似供應商之合約與批號）"
      }
    },
    {
      "type": "Feature",
      "geometry": {
        "type": "Point",
        "coordinates": [
          121.556071,
          24.980722
        ]
      },
      "properties": {
        "facility_id": "SCH_T8500",
        "facility_name": "文山區景美女中",
        "facility_type": "school",
        "city": "臺北市",
        "district": "文山區",
        "address": "臺北市文山區",
        "population_or_capacity": 1776,
        "is_affected": true,
        "relation_type": "同供應商+同原料",
        "related_ingredient": "高麗菜",
        "related_supplier": "三統食品有限公司",
        "exposure_score": 79.89,
        "risk_level": "orange",
        "suggested_attention": "檢查午餐留樣與進貨紀錄（重點：確認與疑似供應商之合約與批號）"
      }
    },
    {
      "type": "Feature",
      "geometry": {
        "type": "Point",
        "coordinates": [
          121.558838,
          25.000544
        ]
      },
      "properties": {
        "facility_id": "SCH_T5069",
        "facility_name": "文山區萬芳高中",
        "facility_type": "school",
        "city": "臺北市",
        "district": "文山區",
        "address": "臺北市文山區",
        "population_or_capacity": 1625,
        "is_affected": true,
        "relation_type": "同供應商+同原料",
        "related_ingredient": "高麗菜",
        "related_supplier": "力銘農產",
        "exposure_score": 77.77,
        "risk_level": "orange",
        "suggested_attention": "檢查午餐留樣與進貨紀錄（重點：確認與疑似供應商之合約與批號）"
      }
    },
    {
      "type": "Feature",
      "geometry": {
        "type": "Point",
        "coordinates": [
          121.572632,
          24.996864
        ]
      },
      "properties": {
        "facility_id": "SCH_T9021",
        "facility_name": "文山區木柵高工",
        "facility_type": "school",
        "city": "臺北市",
        "district": "文山區",
        "address": "臺北市文山區",
        "population_or_capacity": 918,
        "is_affected": true,
        "relation_type": "同原料",
        "related_ingredient": "高麗菜",
        "related_supplier": "",
        "exposure_score": 56.86,
        "risk_level": "yellow",
        "suggested_attention": "檢查午餐留樣與進貨紀錄（重點：暫停使用疑似原料）"
      }
    },
    {
      "type": "Feature",
      "geometry": {
        "type": "Point",
        "coordinates": [
          121.594408,
          25.052231
        ]
      },
      "properties": {
        "facility_id": "SCH_T1476",
        "facility_name": "南港區南港高中",
        "facility_type": "school",
        "city": "臺北市",
        "district": "南港區",
        "address": "臺北市南港區",
        "population_or_capacity": 1512,
        "is_affected": false,
        "risk_level": "green",
        "exposure_score": 0
      }
    },
    {
      "type": "Feature",
      "geometry": {
        "type": "Point",
        "coordinates": [
          121.58911,
          25.077645
        ]
      },
      "properties": {
        "facility_id": "SCH_T7290",
        "facility_name": "內湖區私立文德女中",
        "facility_type": "school",
        "city": "臺北市",
        "district": "內湖區",
        "address": "臺北市內湖區",
        "population_or_capacity": 1582,
        "is_affected": true,
        "relation_type": "同供應商",
        "related_ingredient": "",
        "related_supplier": "三統食品有限公司",
        "exposure_score": 71.67,
        "risk_level": "orange",
        "suggested_attention": "檢查午餐留樣與進貨紀錄（重點：確認與疑似供應商之合約與批號）"
      }
    },
    {
      "type": "Feature",
      "geometry": {
        "type": "Point",
        "coordinates": [
          121.590903,
          25.068942
        ]
      },
      "properties": {
        "facility_id": "SCH_T4677",
        "facility_name": "內湖區私立方濟高中",
        "facility_type": "school",
        "city": "臺北市",
        "district": "內湖區",
        "address": "臺北市內湖區",
        "population_or_capacity": 1496,
        "is_affected": true,
        "relation_type": "同供應商+同原料",
        "related_ingredient": "高麗菜",
        "related_supplier": "三統食品有限公司",
        "exposure_score": 75.96,
        "risk_level": "orange",
        "suggested_attention": "檢查午餐留樣與進貨紀錄（重點：確認與疑似供應商之合約與批號）"
      }
    },
    {
      "type": "Feature",
      "geometry": {
        "type": "Point",
        "coordinates": [
          121.590903,
          25.068942
        ]
      },
      "properties": {
        "facility_id": "SCH_T5724",
        "facility_name": "內湖區私立達人女中",
        "facility_type": "school",
        "city": "臺北市",
        "district": "內湖區",
        "address": "臺北市內湖區",
        "population_or_capacity": 1753,
        "is_affected": false,
        "risk_level": "green",
        "exposure_score": 0
      }
    },
    {
      "type": "Feature",
      "geometry": {
        "type": "Point",
        "coordinates": [
          121.588264,
          25.079008
        ]
      },
      "properties": {
        "facility_id": "SCH_T8926",
        "facility_name": "內湖區內湖高中",
        "facility_type": "school",
        "city": "臺北市",
        "district": "內湖區",
        "address": "臺北市內湖區",
        "population_or_capacity": 1740,
        "is_affected": true,
        "relation_type": "同供應商+同原料",
        "related_ingredient": "高麗菜",
        "related_supplier": "力銘農產",
        "exposure_score": 79.38,
        "risk_level": "orange",
        "suggested_attention": "檢查午餐留樣與進貨紀錄（重點：確認與疑似供應商之合約與批號）"
      }
    },
    {
      "type": "Feature",
      "geometry": {
        "type": "Point",
        "coordinates": [
          121.577904,
          25.085124
        ]
      },
      "properties": {
        "facility_id": "SCH_T8018",
        "facility_name": "內湖區麗山高中",
        "facility_type": "school",
        "city": "臺北市",
        "district": "內湖區",
        "address": "臺北市內湖區",
        "population_or_capacity": 1290,
        "is_affected": true,
        "relation_type": "同供應商",
        "related_ingredient": "",
        "related_supplier": "三統食品有限公司",
        "exposure_score": 67.58,
        "risk_level": "orange",
        "suggested_attention": "檢查午餐留樣與進貨紀錄（重點：確認與疑似供應商之合約與批號）"
      }
    },
    {
      "type": "Feature",
      "geometry": {
        "type": "Point",
        "coordinates": [
          121.61071,
          25.066536
        ]
      },
      "properties": {
        "facility_id": "SCH_T3680",
        "facility_name": "立南湖高級中學",
        "facility_type": "school",
        "city": "臺北市",
        "district": "內湖區",
        "address": "臺北市內湖區",
        "population_or_capacity": 887,
        "is_affected": false,
        "risk_level": "green",
        "exposure_score": 0
      }
    },
    {
      "type": "Feature",
      "geometry": {
        "type": "Point",
        "coordinates": [
          121.575096,
          25.079229
        ]
      },
      "properties": {
        "facility_id": "SCH_T4465",
        "facility_name": "內湖區內湖高工",
        "facility_type": "school",
        "city": "臺北市",
        "district": "內湖區",
        "address": "臺北市內湖區",
        "population_or_capacity": 1383,
        "is_affected": true,
        "relation_type": "同原料",
        "related_ingredient": "高麗菜",
        "related_supplier": "",
        "exposure_score": 63.38,
        "risk_level": "yellow",
        "suggested_attention": "檢查午餐留樣與進貨紀錄（重點：暫停使用疑似原料）"
      }
    },
    {
      "type": "Feature",
      "geometry": {
        "type": "Point",
        "coordinates": [
          121.524608,
          25.095049
        ]
      },
      "properties": {
        "facility_id": "SCH_T9954",
        "facility_name": "士林區私立衛理女中",
        "facility_type": "school",
        "city": "臺北市",
        "district": "士林區",
        "address": "臺北市士林區",
        "population_or_capacity": 1612,
        "is_affected": false,
        "risk_level": "green",
        "exposure_score": 0
      }
    },
    {
      "type": "Feature",
      "geometry": {
        "type": "Point",
        "coordinates": [
          121.524608,
          25.095049
        ]
      },
      "properties": {
        "facility_id": "SCH_T6574",
        "facility_name": "士林區私立華興中學",
        "facility_type": "school",
        "city": "臺北市",
        "district": "士林區",
        "address": "臺北市士林區",
        "population_or_capacity": 1184,
        "is_affected": true,
        "relation_type": "同原料",
        "related_ingredient": "高麗菜",
        "related_supplier": "",
        "exposure_score": 60.59,
        "risk_level": "yellow",
        "suggested_attention": "檢查午餐留樣與進貨紀錄（重點：暫停使用疑似原料）"
      }
    },
    {
      "type": "Feature",
      "geometry": {
        "type": "Point",
        "coordinates": [
          121.524608,
          25.095049
        ]
      },
      "properties": {
        "facility_id": "SCH_T6953",
        "facility_name": "士林區私立華岡藝術學校",
        "facility_type": "school",
        "city": "臺北市",
        "district": "士林區",
        "address": "臺北市士林區",
        "population_or_capacity": 1270,
        "is_affected": false,
        "risk_level": "green",
        "exposure_score": 0
      }
    },
    {
      "type": "Feature",
      "geometry": {
        "type": "Point",
        "coordinates": [
          121.517131,
          25.091839
        ]
      },
      "properties": {
        "facility_id": "SCH_T1287",
        "facility_name": "士林區陽明高中",
        "facility_type": "school",
        "city": "臺北市",
        "district": "士林區",
        "address": "臺北市士林區",
        "population_or_capacity": 1164,
        "is_affected": true,
        "relation_type": "同供應商+同原料",
        "related_ingredient": "高麗菜",
        "related_supplier": "三統食品有限公司",
        "exposure_score": 71.31,
        "risk_level": "orange",
        "suggested_attention": "檢查午餐留樣與進貨紀錄（重點：確認與疑似供應商之合約與批號）"
      }
    },
    {
      "type": "Feature",
      "geometry": {
        "type": "Point",
        "coordinates": [
          121.523044,
          25.08697
        ]
      },
      "properties": {
        "facility_id": "SCH_T8803",
        "facility_name": "士林區百齡高中",
        "facility_type": "school",
        "city": "臺北市",
        "district": "士林區",
        "address": "臺北市士林區",
        "population_or_capacity": 1606,
        "is_affected": true,
        "relation_type": "同供應商+同原料",
        "related_ingredient": "高麗菜、高麗菜片、高麗菜粗絲",
        "related_supplier": "三統食品有限公司",
        "exposure_score": 77.51,
        "risk_level": "orange",
        "suggested_attention": "檢查午餐留樣與進貨紀錄（重點：確認與疑似供應商之合約與批號）"
      }
    },
    {
      "type": "Feature",
      "geometry": {
        "type": "Point",
        "coordinates": [
          121.515018,
          25.115176
        ]
      },
      "properties": {
        "facility_id": "SCH_T8518",
        "facility_name": "北投區私立薇閣中學",
        "facility_type": "school",
        "city": "臺北市",
        "district": "北投區",
        "address": "臺北市北投區",
        "population_or_capacity": 1552,
        "is_affected": false,
        "risk_level": "green",
        "exposure_score": 0
      }
    },
    {
      "type": "Feature",
      "geometry": {
        "type": "Point",
        "coordinates": [
          121.496553,
          25.133236
        ]
      },
      "properties": {
        "facility_id": "SCH_T6828",
        "facility_name": "北投區私立十信高中",
        "facility_type": "school",
        "city": "臺北市",
        "district": "北投區",
        "address": "臺北市北投區",
        "population_or_capacity": 1583,
        "is_affected": true,
        "relation_type": "同供應商",
        "related_ingredient": "",
        "related_supplier": "三統食品有限公司",
        "exposure_score": 71.68,
        "risk_level": "orange",
        "suggested_attention": "檢查午餐留樣與進貨紀錄（重點：確認與疑似供應商之合約與批號）"
      }
    },
    {
      "type": "Feature",
      "geometry": {
        "type": "Point",
        "coordinates": [
          121.527164,
          25.144652
        ]
      },
      "properties": {
        "facility_id": "SCH_T4680",
        "facility_name": "北投區私立惇敘工商",
        "facility_type": "school",
        "city": "臺北市",
        "district": "北投區",
        "address": "臺北市北投區",
        "population_or_capacity": 933,
        "is_affected": false,
        "risk_level": "green",
        "exposure_score": 0
      }
    },
    {
      "type": "Feature",
      "geometry": {
        "type": "Point",
        "coordinates": [
          121.501676,
          25.143599
        ]
      },
      "properties": {
        "facility_id": "SCH_T7752",
        "facility_name": "北投區復興高中",
        "facility_type": "school",
        "city": "臺北市",
        "district": "北投區",
        "address": "臺北市北投區",
        "population_or_capacity": 1726,
        "is_affected": true,
        "relation_type": "同供應商+同原料",
        "related_ingredient": "高麗菜",
        "related_supplier": "力銘農產",
        "exposure_score": 79.19,
        "risk_level": "orange",
        "suggested_attention": "檢查午餐留樣與進貨紀錄（重點：確認與疑似供應商之合約與批號）"
      }
    },
    {
      "type": "Feature",
      "geometry": {
        "type": "Point",
        "coordinates": [
          121.516621,
          25.104173
        ]
      },
      "properties": {
        "facility_id": "SCH_T6283",
        "facility_name": "北投區中正高中",
        "facility_type": "school",
        "city": "臺北市",
        "district": "北投區",
        "address": "臺北市北投區",
        "population_or_capacity": 1158,
        "is_affected": true,
        "relation_type": "同供應商+同原料",
        "related_ingredient": "高麗菜",
        "related_supplier": "三統食品有限公司",
        "exposure_score": 71.23,
        "risk_level": "orange",
        "suggested_attention": "檢查午餐留樣與進貨紀錄（重點：確認與疑似供應商之合約與批號）"
      }
    },
    {
      "type": "Feature",
      "geometry": {
        "type": "Point",
        "coordinates": [
          121.540422,
          25.033659
        ]
      },
      "properties": {
        "facility_id": "SCH_T6236",
        "facility_name": "大安區國立師大附中",
        "facility_type": "school",
        "city": "臺北市",
        "district": "大安區",
        "address": "臺北市大安區",
        "population_or_capacity": 1463,
        "is_affected": true,
        "relation_type": "同供應商",
        "related_ingredient": "",
        "related_supplier": "三統食品有限公司",
        "exposure_score": 70.0,
        "risk_level": "orange",
        "suggested_attention": "檢查午餐留樣與進貨紀錄（重點：確認與疑似供應商之合約與批號）"
      }
    },
    {
      "type": "Feature",
      "geometry": {
        "type": "Point",
        "coordinates": [
          121.397675,
          25.146732
        ]
      },
      "properties": {
        "facility_id": "ELD_N001",
        "facility_name": "財團法人新北市私立台灣天主教安老院",
        "facility_type": "nursing_home",
        "city": "新北市",
        "district": "八里區",
        "address": "新北市八里區中山路1段33號",
        "population_or_capacity": 78,
        "is_affected": false,
        "risk_level": "green",
        "exposure_score": 0
      }
    },
    {
      "type": "Feature",
      "geometry": {
        "type": "Point",
        "coordinates": [
          121.489967,
          25.26107
        ]
      },
      "properties": {
        "facility_id": "ELD_N002",
        "facility_name": "新北市私立仁惠老人長期照顧中心(養護型)",
        "facility_type": "elderly_home",
        "city": "新北市",
        "district": "三芝區",
        "address": "新北市三芝區四棧橋53之11號",
        "population_or_capacity": 49,
        "is_affected": false,
        "risk_level": "green",
        "exposure_score": 0
      }
    },
    {
      "type": "Feature",
      "geometry": {
        "type": "Point",
        "coordinates": [
          121.501153,
          25.255405
        ]
      },
      "properties": {
        "facility_id": "ELD_N003",
        "facility_name": "新北市私立長勤老人長期照顧中心(養護型)",
        "facility_type": "elderly_home",
        "city": "新北市",
        "district": "三芝區",
        "address": "新北市三芝區長勤街63號、63號2樓、63號3樓、63號4樓",
        "population_or_capacity": 49,
        "is_affected": false,
        "risk_level": "green",
        "exposure_score": 0
      }
    },
    {
      "type": "Feature",
      "geometry": {
        "type": "Point",
        "coordinates": [
          121.47454,
          25.253303
        ]
      },
      "properties": {
        "facility_id": "ELD_N004",
        "facility_name": "財團法人台灣基督長老教會雙連教會附設新北市私立雙連安養中心",
        "facility_type": "nursing_home",
        "city": "新北市",
        "district": "三芝區",
        "address": "新北市三芝區後厝里北勢子22-17號",
        "population_or_capacity": 432,
        "is_affected": false,
        "risk_level": "green",
        "exposure_score": 0
      }
    },
    {
      "type": "Feature",
      "geometry": {
        "type": "Point",
        "coordinates": [
          121.500081,
          25.067656
        ]
      },
      "properties": {
        "facility_id": "ELD_N005",
        "facility_name": "新北市私立鴻澄老人長期照顧中心(養護型)",
        "facility_type": "elderly_home",
        "city": "新北市",
        "district": "三重區",
        "address": "新北市三重區三和路2段30號3樓、3樓之1、3樓之2、3樓之3、3樓之4",
        "population_or_capacity": 35,
        "is_affected": false,
        "risk_level": "green",
        "exposure_score": 0
      }
    },
    {
      "type": "Feature",
      "geometry": {
        "type": "Point",
        "coordinates": [
          121.487158,
          25.07675
        ]
      },
      "properties": {
        "facility_id": "ELD_N006",
        "facility_name": "新北市私立大德老人長期照顧中心(養護型)",
        "facility_type": "elderly_home",
        "city": "新北市",
        "district": "三重區",
        "address": "新北市三重區三和路4段103-1號4樓",
        "population_or_capacity": 39,
        "is_affected": false,
        "risk_level": "green",
        "exposure_score": 0
      }
    },
    {
      "type": "Feature",
      "geometry": {
        "type": "Point",
        "coordinates": [
          121.488002,
          25.076118
        ]
      },
      "properties": {
        "facility_id": "ELD_N007",
        "facility_name": "新北市私立心侑老人長期照顧中心(養護型)",
        "facility_type": "elderly_home",
        "city": "新北市",
        "district": "三重區",
        "address": "新北市三重區三和路4段95之1號2樓、3樓",
        "population_or_capacity": 29,
        "is_affected": false,
        "risk_level": "green",
        "exposure_score": 0
      }
    },
    {
      "type": "Feature",
      "geometry": {
        "type": "Point",
        "coordinates": [
          121.467938,
          25.051167
        ]
      },
      "properties": {
        "facility_id": "ELD_N008",
        "facility_name": "新北市私立幸福老人長期照顧中心(養護型)",
        "facility_type": "elderly_home",
        "city": "新北市",
        "district": "三重區",
        "address": "新北市三重區中興北街54號5樓",
        "population_or_capacity": 46,
        "is_affected": true,
        "relation_type": "同供應商+同原料",
        "related_ingredient": "高麗菜",
        "related_supplier": "三統食品有限公司",
        "exposure_score": 70.64,
        "risk_level": "orange",
        "suggested_attention": "加強衛教並確認餐食來源（重點：確認與疑似供應商之合約與批號）"
      }
    },
    {
      "type": "Feature",
      "geometry": {
        "type": "Point",
        "coordinates": [
          121.488741,
          25.051388
        ]
      },
      "properties": {
        "facility_id": "ELD_N009",
        "facility_name": "新北市私立豐禾老人長期照顧中心(養護型)",
        "facility_type": "elderly_home",
        "city": "新北市",
        "district": "三重區",
        "address": "新北市三重區成功路79號1樓-5樓",
        "population_or_capacity": 45,
        "is_affected": false,
        "risk_level": "green",
        "exposure_score": 0
      }
    },
    {
      "type": "Feature",
      "geometry": {
        "type": "Point",
        "coordinates": [
          121.488118,
          25.051672
        ]
      },
      "properties": {
        "facility_id": "ELD_N010",
        "facility_name": "新北市私立靜園老人長期照顧中心(養護型)",
        "facility_type": "elderly_home",
        "city": "新北市",
        "district": "三重區",
        "address": "新北市三重區成功路97號10樓",
        "population_or_capacity": 49,
        "is_affected": false,
        "risk_level": "green",
        "exposure_score": 0
      }
    },
    {
      "type": "Feature",
      "geometry": {
        "type": "Point",
        "coordinates": [
          121.488118,
          25.051672
        ]
      },
      "properties": {
        "facility_id": "ELD_N011",
        "facility_name": "新北市私立今光愛心老人養護中心",
        "facility_type": "elderly_home",
        "city": "新北市",
        "district": "三重區",
        "address": "新北市三重區成功路97號2樓",
        "population_or_capacity": 48,
        "is_affected": false,
        "risk_level": "green",
        "exposure_score": 0
      }
    },
    {
      "type": "Feature",
      "geometry": {
        "type": "Point",
        "coordinates": [
          121.491431,
          25.079997
        ]
      },
      "properties": {
        "facility_id": "ELD_N012",
        "facility_name": "新北市私立大安老人長期照顧中心(養護型)",
        "facility_type": "elderly_home",
        "city": "新北市",
        "district": "三重區",
        "address": "新北市三重區自強路4段110號3樓",
        "population_or_capacity": 24,
        "is_affected": false,
        "risk_level": "green",
        "exposure_score": 0
      }
    },
    {
      "type": "Feature",
      "geometry": {
        "type": "Point",
        "coordinates": [
          121.488223,
          25.07619
        ]
      },
      "properties": {
        "facility_id": "ELD_N013",
        "facility_name": "新北市私立祐安老人長期照顧中心(養護型)",
        "facility_type": "elderly_home",
        "city": "新北市",
        "district": "三重區",
        "address": "新北市三重區自強路4段6號3樓",
        "population_or_capacity": 49,
        "is_affected": true,
        "relation_type": "同供應商+同原料",
        "related_ingredient": "高麗菜",
        "related_supplier": "三統食品有限公司",
        "exposure_score": 70.69,
        "risk_level": "orange",
        "suggested_attention": "加強衛教並確認餐食來源（重點：確認與疑似供應商之合約與批號）"
      }
    },
    {
      "type": "Feature",
      "geometry": {
        "type": "Point",
        "coordinates": [
          121.467091,
          25.04364
        ]
      },
      "properties": {
        "facility_id": "ELD_N014",
        "facility_name": "新北市私立沐心老人長期照顧中心(養護型)",
        "facility_type": "elderly_home",
        "city": "新北市",
        "district": "三重區",
        "address": "新北市三重區重新路5段635之2號、635之2號2樓、635之2號3樓",
        "population_or_capacity": 46,
        "is_affected": false,
        "risk_level": "green",
        "exposure_score": 0
      }
    },
    {
      "type": "Feature",
      "geometry": {
        "type": "Point",
        "coordinates": [
          121.466791,
          25.043382
        ]
      },
      "properties": {
        "facility_id": "ELD_N015",
        "facility_name": "新北市私立圓滿老人長期照顧中心(養護型)",
        "facility_type": "elderly_home",
        "city": "新北市",
        "district": "三重區",
        "address": "新北市三重區重新路5段639號10樓、639之1號10樓",
        "population_or_capacity": 39,
        "is_affected": true,
        "relation_type": "同供應商+同原料",
        "related_ingredient": "高麗菜",
        "related_supplier": "三統食品有限公司",
        "exposure_score": 70.55,
        "risk_level": "orange",
        "suggested_attention": "加強衛教並確認餐食來源（重點：確認與疑似供應商之合約與批號）"
      }
    },
    {
      "type": "Feature",
      "geometry": {
        "type": "Point",
        "coordinates": [
          121.491339,
          25.076407
        ]
      },
      "properties": {
        "facility_id": "ELD_N016",
        "facility_name": "新北市私立蓮愛老人養護中心",
        "facility_type": "elderly_home",
        "city": "新北市",
        "district": "三重區",
        "address": "新北市三重區溪尾街41號2樓",
        "population_or_capacity": 32,
        "is_affected": true,
        "relation_type": "同供應商+同原料",
        "related_ingredient": "高麗菜",
        "related_supplier": "三統食品有限公司",
        "exposure_score": 70.45,
        "risk_level": "orange",
        "suggested_attention": "加強衛教並確認餐食來源（重點：確認與疑似供應商之合約與批號）"
      }
    },
    {
      "type": "Feature",
      "geometry": {
        "type": "Point",
        "coordinates": [
          121.502098,
          25.064238
        ]
      },
      "properties": {
        "facility_id": "ELD_N017",
        "facility_name": "新北市私立安泰老人長期照顧中心(養護型)",
        "facility_type": "elderly_home",
        "city": "新北市",
        "district": "三重區",
        "address": "新北市三重區福德北路4號3樓、4樓",
        "population_or_capacity": 30,
        "is_affected": false,
        "risk_level": "green",
        "exposure_score": 0
      }
    },
    {
      "type": "Feature",
      "geometry": {
        "type": "Point",
        "coordinates": [
          121.494418,
          25.071483
        ]
      },
      "properties": {
        "facility_id": "ELD_N018",
        "facility_name": "新北市私立長園老人長期照顧中心(養護型)",
        "facility_type": "elderly_home",
        "city": "新北市",
        "district": "三重區",
        "address": "新北市三重區龍門路1號3樓、3樓之1",
        "population_or_capacity": 46,
        "is_affected": true,
        "relation_type": "同供應商+同原料",
        "related_ingredient": "高麗菜",
        "related_supplier": "三統食品有限公司",
        "exposure_score": 70.64,
        "risk_level": "orange",
        "suggested_attention": "加強衛教並確認餐食來源（重點：確認與疑似供應商之合約與批號）"
      }
    },
    {
      "type": "Feature",
      "geometry": {
        "type": "Point",
        "coordinates": [
          121.366382,
          24.91152
        ]
      },
      "properties": {
        "facility_id": "ELD_N019",
        "facility_name": "新北市私立慈恩老人長期照顧中心(養護型)",
        "facility_type": "elderly_home",
        "city": "新北市",
        "district": "三峽區",
        "address": "新北市三峽區大利路2號(1、2層)、4號、6號2樓",
        "population_or_capacity": 45,
        "is_affected": true,
        "relation_type": "同供應商",
        "related_ingredient": "",
        "related_supplier": "三統食品有限公司",
        "exposure_score": 65.13,
        "risk_level": "orange",
        "suggested_attention": "加強衛教並確認餐食來源（重點：確認與疑似供應商之合約與批號）"
      }
    },
    {
      "type": "Feature",
      "geometry": {
        "type": "Point",
        "coordinates": [
          121.37422,
          24.932865
        ]
      },
      "properties": {
        "facility_id": "ELD_N020",
        "facility_name": "新北市私立安康老人長期照顧中心(養護型)",
        "facility_type": "elderly_home",
        "city": "新北市",
        "district": "三峽區",
        "address": "新北市三峽區中華路22號3樓之3",
        "population_or_capacity": 31,
        "is_affected": false,
        "risk_level": "green",
        "exposure_score": 0
      }
    },
    {
      "type": "Feature",
      "geometry": {
        "type": "Point",
        "coordinates": [
          121.387681,
          24.933671
        ]
      },
      "properties": {
        "facility_id": "ELD_N021",
        "facility_name": "新北市私立清安養老院老人長期照顧中心(養護型)",
        "facility_type": "elderly_home",
        "city": "新北市",
        "district": "三峽區",
        "address": "新北市三峽區介壽路1段278號3樓",
        "population_or_capacity": 48,
        "is_affected": false,
        "risk_level": "green",
        "exposure_score": 0
      }
    },
    {
      "type": "Feature",
      "geometry": {
        "type": "Point",
        "coordinates": [
          121.387681,
          24.933671
        ]
      },
      "properties": {
        "facility_id": "ELD_N022",
        "facility_name": "新北市私立清平養老院老人長期照顧中心(養護型)",
        "facility_type": "elderly_home",
        "city": "新北市",
        "district": "三峽區",
        "address": "新北市三峽區介壽路1段278號4樓",
        "population_or_capacity": 48,
        "is_affected": false,
        "risk_level": "green",
        "exposure_score": 0
      }
    },
    {
      "type": "Feature",
      "geometry": {
        "type": "Point",
        "coordinates": [
          121.387681,
          24.933671
        ]
      },
      "properties": {
        "facility_id": "ELD_N023",
        "facility_name": "新北市私立清心養老院老人長期照顧中心(養護型)",
        "facility_type": "elderly_home",
        "city": "新北市",
        "district": "三峽區",
        "address": "新北市三峽區介壽路1段278號5樓",
        "population_or_capacity": 48,
        "is_affected": false,
        "risk_level": "green",
        "exposure_score": 0
      }
    },
    {
      "type": "Feature",
      "geometry": {
        "type": "Point",
        "coordinates": [
          121.387681,
          24.933671
        ]
      },
      "properties": {
        "facility_id": "ELD_N024",
        "facility_name": "新北市私立清氣養老院老人長期照顧中心(養護型)",
        "facility_type": "elderly_home",
        "city": "新北市",
        "district": "三峽區",
        "address": "新北市三峽區介壽路1段278號6樓",
        "population_or_capacity": 48,
        "is_affected": false,
        "risk_level": "green",
        "exposure_score": 0
      }
    },
    {
      "type": "Feature",
      "geometry": {
        "type": "Point",
        "coordinates": [
          121.387681,
          24.933671
        ]
      },
      "properties": {
        "facility_id": "ELD_N025",
        "facility_name": "新北市私立清福養老院老人長期照顧中心(養護型)",
        "facility_type": "elderly_home",
        "city": "新北市",
        "district": "三峽區",
        "address": "新北市三峽區介壽路1段278號7樓",
        "population_or_capacity": 48,
        "is_affected": true,
        "relation_type": "同供應商",
        "related_ingredient": "",
        "related_supplier": "三統食品有限公司",
        "exposure_score": 65.17,
        "risk_level": "orange",
        "suggested_attention": "加強衛教並確認餐食來源（重點：確認與疑似供應商之合約與批號）"
      }
    },
    {
      "type": "Feature",
      "geometry": {
        "type": "Point",
        "coordinates": [
          121.387681,
          24.933671
        ]
      },
      "properties": {
        "facility_id": "ELD_N026",
        "facility_name": "新北市私立清景養老院老人長期照顧中心(養護型)",
        "facility_type": "elderly_home",
        "city": "新北市",
        "district": "三峽區",
        "address": "新北市三峽區介壽路1段280號3樓",
        "population_or_capacity": 48,
        "is_affected": false,
        "risk_level": "green",
        "exposure_score": 0
      }
    },
    {
      "type": "Feature",
      "geometry": {
        "type": "Point",
        "coordinates": [
          121.387681,
          24.933671
        ]
      },
      "properties": {
        "facility_id": "ELD_N027",
        "facility_name": "新北市私立清風養老院老人長期照顧中心(養護型)",
        "facility_type": "elderly_home",
        "city": "新北市",
        "district": "三峽區",
        "address": "新北市三峽區介壽路1段280號4樓",
        "population_or_capacity": 48,
        "is_affected": false,
        "risk_level": "green",
        "exposure_score": 0
      }
    },
    {
      "type": "Feature",
      "geometry": {
        "type": "Point",
        "coordinates": [
          121.387681,
          24.933671
        ]
      },
      "properties": {
        "facility_id": "ELD_N028",
        "facility_name": "新北市私立清照養老院老人長期照顧中心(養護型)",
        "facility_type": "elderly_home",
        "city": "新北市",
        "district": "三峽區",
        "address": "新北市三峽區介壽路1段280號5樓",
        "population_or_capacity": 48,
        "is_affected": true,
        "relation_type": "同供應商+同原料",
        "related_ingredient": "高麗菜",
        "related_supplier": "三統食品有限公司",
        "exposure_score": 70.67,
        "risk_level": "orange",
        "suggested_attention": "加強衛教並確認餐食來源（重點：確認與疑似供應商之合約與批號）"
      }
    },
    {
      "type": "Feature",
      "geometry": {
        "type": "Point",
        "coordinates": [
          121.387681,
          24.933671
        ]
      },
      "properties": {
        "facility_id": "ELD_N029",
        "facility_name": "新北市私立清日養老院老人長期照顧中心(養護型)",
        "facility_type": "elderly_home",
        "city": "新北市",
        "district": "三峽區",
        "address": "新北市三峽區介壽路1段280號6樓",
        "population_or_capacity": 48,
        "is_affected": true,
        "relation_type": "同供應商+同原料",
        "related_ingredient": "高麗菜",
        "related_supplier": "三統食品有限公司",
        "exposure_score": 70.67,
        "risk_level": "orange",
        "suggested_attention": "加強衛教並確認餐食來源（重點：確認與疑似供應商之合約與批號）"
      }
    },
    {
      "type": "Feature",
      "geometry": {
        "type": "Point",
        "coordinates": [
          121.387681,
          24.933671
        ]
      },
      "properties": {
        "facility_id": "ELD_N030",
        "facility_name": "新北市私立清春養老院老人長期照顧中心(養護型)",
        "facility_type": "elderly_home",
        "city": "新北市",
        "district": "三峽區",
        "address": "新北市三峽區介壽路1段280號7樓",
        "population_or_capacity": 48,
        "is_affected": false,
        "risk_level": "green",
        "exposure_score": 0
      }
    },
    {
      "type": "Feature",
      "geometry": {
        "type": "Point",
        "coordinates": [
          121.458097,
          25.011025
        ]
      },
      "properties": {
        "facility_id": "SCH_N001",
        "facility_name": "板橋國小",
        "facility_type": "school",
        "city": "新北市",
        "district": "板橋區",
        "address": "新北市板橋區",
        "population_or_capacity": 1182,
        "is_affected": true,
        "relation_type": "事件熱區",
        "related_ingredient": "高麗菜",
        "related_supplier": "力銘農產",
        "exposure_score": 49.56,
        "risk_level": "yellow",
        "suggested_attention": "檢查午餐留樣與進貨紀錄（重點：留意鄰近事件熱區之影響）"
      }
    },
    {
      "type": "Feature",
      "geometry": {
        "type": "Point",
        "coordinates": [
          121.46342,
          25.003572
        ]
      },
      "properties": {
        "facility_id": "SCH_N002",
        "facility_name": "後埔國小",
        "facility_type": "school",
        "city": "新北市",
        "district": "板橋區",
        "address": "新北市板橋區",
        "population_or_capacity": 1158,
        "is_affected": true,
        "relation_type": "事件熱區",
        "related_ingredient": "高麗菜",
        "related_supplier": "力銘農產",
        "exposure_score": 49.23,
        "risk_level": "yellow",
        "suggested_attention": "檢查午餐留樣與進貨紀錄（重點：留意鄰近事件熱區之影響）"
      }
    },
    {
      "type": "Feature",
      "geometry": {
        "type": "Point",
        "coordinates": [
          121.462376,
          25.025876
        ]
      },
      "properties": {
        "facility_id": "SCH_N003",
        "facility_name": "新埔國小",
        "facility_type": "school",
        "city": "新北市",
        "district": "板橋區",
        "address": "新北市板橋區",
        "population_or_capacity": 634,
        "is_affected": true,
        "relation_type": "事件熱區",
        "related_ingredient": "高麗菜",
        "related_supplier": "力銘農產",
        "exposure_score": 41.88,
        "risk_level": "green",
        "suggested_attention": "檢查午餐留樣與進貨紀錄（重點：留意鄰近事件熱區之影響）"
      }
    },
    {
      "type": "Feature",
      "geometry": {
        "type": "Point",
        "coordinates": [
          121.474102,
          25.018147
        ]
      },
      "properties": {
        "facility_id": "SCH_N004",
        "facility_name": "埔墘國小",
        "facility_type": "school",
        "city": "新北市",
        "district": "板橋區",
        "address": "新北市板橋區",
        "population_or_capacity": 1011,
        "is_affected": true,
        "relation_type": "事件熱區",
        "related_ingredient": "高麗菜",
        "related_supplier": "力銘農產",
        "exposure_score": 47.17,
        "risk_level": "yellow",
        "suggested_attention": "檢查午餐留樣與進貨紀錄（重點：留意鄰近事件熱區之影響）"
      }
    },
    {
      "type": "Feature",
      "geometry": {
        "type": "Point",
        "coordinates": [
          121.470468,
          25.009279
        ]
      },
      "properties": {
        "facility_id": "SCH_N005",
        "facility_name": "海山國小",
        "facility_type": "school",
        "city": "新北市",
        "district": "板橋區",
        "address": "新北市板橋區",
        "population_or_capacity": 687,
        "is_affected": true,
        "relation_type": "同供應商+同原料",
        "related_ingredient": "高麗菜",
        "related_supplier": "三統食品有限公司",
        "exposure_score": 64.63,
        "risk_level": "yellow",
        "suggested_attention": "檢查午餐留樣與進貨紀錄（重點：確認與疑似供應商之合約與批號）"
      }
    },
    {
      "type": "Feature",
      "geometry": {
        "type": "Point",
        "coordinates": [
          121.473536,
          25.032481
        ]
      },
      "properties": {
        "facility_id": "SCH_N006",
        "facility_name": "江翠國小",
        "facility_type": "school",
        "city": "新北市",
        "district": "板橋區",
        "address": "新北市板橋區",
        "population_or_capacity": 1243,
        "is_affected": true,
        "relation_type": "同供應商",
        "related_ingredient": "",
        "related_supplier": "三統食品有限公司",
        "exposure_score": 66.92,
        "risk_level": "orange",
        "suggested_attention": "檢查午餐留樣與進貨紀錄（重點：確認與疑似供應商之合約與批號）"
      }
    },
    {
      "type": "Feature",
      "geometry": {
        "type": "Point",
        "coordinates": [
          121.47416,
          25.025125
        ]
      },
      "properties": {
        "facility_id": "SCH_N007",
        "facility_name": "莒光國小",
        "facility_type": "school",
        "city": "新北市",
        "district": "板橋區",
        "address": "新北市板橋區",
        "population_or_capacity": 1018,
        "is_affected": true,
        "relation_type": "事件熱區",
        "related_ingredient": "高麗菜",
        "related_supplier": "力銘農產",
        "exposure_score": 47.27,
        "risk_level": "yellow",
        "suggested_attention": "檢查午餐留樣與進貨紀錄（重點：留意鄰近事件熱區之影響）"
      }
    },
    {
      "type": "Feature",
      "geometry": {
        "type": "Point",
        "coordinates": [
          121.453023,
          25.019183
        ]
      },
      "properties": {
        "facility_id": "SCH_N008",
        "facility_name": "國光國小",
        "facility_type": "school",
        "city": "新北市",
        "district": "板橋區",
        "address": "新北市板橋區",
        "population_or_capacity": 1040,
        "is_affected": true,
        "relation_type": "同供應商+同原料",
        "related_ingredient": "高麗菜",
        "related_supplier": "三統食品有限公司",
        "exposure_score": 69.57,
        "risk_level": "orange",
        "suggested_attention": "檢查午餐留樣與進貨紀錄（重點：確認與疑似供應商之合約與批號）"
      }
    },
    {
      "type": "Feature",
      "geometry": {
        "type": "Point",
        "coordinates": [
          121.448286,
          25.001992
        ]
      },
      "properties": {
        "facility_id": "SCH_N009",
        "facility_name": "中山國小",
        "facility_type": "school",
        "city": "新北市",
        "district": "板橋區",
        "address": "新北市板橋區",
        "population_or_capacity": 756,
        "is_affected": true,
        "relation_type": "事件熱區",
        "related_ingredient": "高麗菜",
        "related_supplier": "力銘農產",
        "exposure_score": 43.59,
        "risk_level": "green",
        "suggested_attention": "檢查午餐留樣與進貨紀錄（重點：留意鄰近事件熱區之影響）"
      }
    },
    {
      "type": "Feature",
      "geometry": {
        "type": "Point",
        "coordinates": [
          121.430244,
          24.992204
        ]
      },
      "properties": {
        "facility_id": "SCH_N010",
        "facility_name": "沙崙國小",
        "facility_type": "school",
        "city": "新北市",
        "district": "板橋區",
        "address": "新北市板橋區",
        "population_or_capacity": 1350,
        "is_affected": true,
        "relation_type": "同供應商+同原料",
        "related_ingredient": "高麗菜",
        "related_supplier": "三統食品有限公司",
        "exposure_score": 73.92,
        "risk_level": "orange",
        "suggested_attention": "檢查午餐留樣與進貨紀錄（重點：確認與疑似供應商之合約與批號）"
      }
    },
    {
      "type": "Feature",
      "geometry": {
        "type": "Point",
        "coordinates": [
          121.477419,
          25.02913
        ]
      },
      "properties": {
        "facility_id": "SCH_N011",
        "facility_name": "文聖國小",
        "facility_type": "school",
        "city": "新北市",
        "district": "板橋區",
        "address": "新北市板橋區",
        "population_or_capacity": 1469,
        "is_affected": true,
        "relation_type": "事件熱區",
        "related_ingredient": "高麗菜",
        "related_supplier": "力銘農產",
        "exposure_score": 53.59,
        "risk_level": "yellow",
        "suggested_attention": "檢查午餐留樣與進貨紀錄（重點：留意鄰近事件熱區之影響）"
      }
    },
    {
      "type": "Feature",
      "geometry": {
        "type": "Point",
        "coordinates": [
          121.458751,
          25.023318
        ]
      },
      "properties": {
        "facility_id": "SCH_N012",
        "facility_name": "文德國小",
        "facility_type": "school",
        "city": "新北市",
        "district": "板橋區",
        "address": "新北市板橋區",
        "population_or_capacity": 1414,
        "is_affected": true,
        "relation_type": "事件熱區",
        "related_ingredient": "高麗菜",
        "related_supplier": "力銘農產",
        "exposure_score": 52.82,
        "risk_level": "yellow",
        "suggested_attention": "檢查午餐留樣與進貨紀錄（重點：留意鄰近事件熱區之影響）"
      }
    },
    {
      "type": "Feature",
      "geometry": {
        "type": "Point",
        "coordinates": [
          121.466387,
          25.004986
        ]
      },
      "properties": {
        "facility_id": "SCH_N013",
        "facility_name": "實踐國小",
        "facility_type": "school",
        "city": "新北市",
        "district": "板橋區",
        "address": "新北市板橋區",
        "population_or_capacity": 723,
        "is_affected": true,
        "relation_type": "事件熱區",
        "related_ingredient": "高麗菜",
        "related_supplier": "力銘農產",
        "exposure_score": 43.13,
        "risk_level": "green",
        "suggested_attention": "檢查午餐留樣與進貨紀錄（重點：留意鄰近事件熱區之影響）"
      }
    },
    {
      "type": "Feature",
      "geometry": {
        "type": "Point",
        "coordinates": [
          121.449349,
          25.008584
        ]
      },
      "properties": {
        "facility_id": "SCH_N014",
        "facility_name": "大觀國小",
        "facility_type": "school",
        "city": "新北市",
        "district": "板橋區",
        "address": "新北市板橋區",
        "population_or_capacity": 674,
        "is_affected": true,
        "relation_type": "事件熱區",
        "related_ingredient": "高麗菜",
        "related_supplier": "力銘農產",
        "exposure_score": 42.45,
        "risk_level": "green",
        "suggested_attention": "檢查午餐留樣與進貨紀錄（重點：留意鄰近事件熱區之影響）"
      }
    },
    {
      "type": "Feature",
      "geometry": {
        "type": "Point",
        "coordinates": [
          121.431327,
          24.988296
        ]
      },
      "properties": {
        "facility_id": "SCH_N015",
        "facility_name": "溪洲國小",
        "facility_type": "school",
        "city": "新北市",
        "district": "板橋區",
        "address": "新北市板橋區",
        "population_or_capacity": 1233,
        "is_affected": true,
        "relation_type": "事件熱區",
        "related_ingredient": "高麗菜",
        "related_supplier": "力銘農產",
        "exposure_score": 50.28,
        "risk_level": "yellow",
        "suggested_attention": "檢查午餐留樣與進貨紀錄（重點：留意鄰近事件熱區之影響）"
      }
    },
    {
      "type": "Feature",
      "geometry": {
        "type": "Point",
        "coordinates": [
          121.452634,
          24.991727
        ]
      },
      "properties": {
        "facility_id": "SCH_N016",
        "facility_name": "信義國小",
        "facility_type": "school",
        "city": "新北市",
        "district": "板橋區",
        "address": "新北市板橋區",
        "population_or_capacity": 613,
        "is_affected": true,
        "relation_type": "事件熱區",
        "related_ingredient": "高麗菜",
        "related_supplier": "力銘農產",
        "exposure_score": 41.59,
        "risk_level": "green",
        "suggested_attention": "檢查午餐留樣與進貨紀錄（重點：留意鄰近事件熱區之影響）"
      }
    },
    {
      "type": "Feature",
      "geometry": {
        "type": "Point",
        "coordinates": [
          121.463122,
          24.99454
        ]
      },
      "properties": {
        "facility_id": "SCH_N017",
        "facility_name": "重慶國小",
        "facility_type": "school",
        "city": "新北市",
        "district": "板橋區",
        "address": "新北市板橋區",
        "population_or_capacity": 801,
        "is_affected": true,
        "relation_type": "同供應商+同原料",
        "related_ingredient": "高麗菜",
        "related_supplier": "三統食品有限公司",
        "exposure_score": 66.22,
        "risk_level": "orange",
        "suggested_attention": "檢查午餐留樣與進貨紀錄（重點：確認與疑似供應商之合約與批號）"
      }
    },
    {
      "type": "Feature",
      "geometry": {
        "type": "Point",
        "coordinates": [
          121.479742,
          25.018758
        ]
      },
      "properties": {
        "facility_id": "SCH_N018",
        "facility_name": "光復國小",
        "facility_type": "school",
        "city": "新北市",
        "district": "板橋區",
        "address": "新北市板橋區",
        "population_or_capacity": 958,
        "is_affected": true,
        "relation_type": "同供應商",
        "related_ingredient": "",
        "related_supplier": "三統食品有限公司",
        "exposure_score": 62.92,
        "risk_level": "yellow",
        "suggested_attention": "檢查午餐留樣與進貨紀錄（重點：確認與疑似供應商之合約與批號）"
      }
    },
    {
      "type": "Feature",
      "geometry": {
        "type": "Point",
        "coordinates": [
          121.442115,
          24.972071
        ]
      },
      "properties": {
        "facility_id": "SCH_N019",
        "facility_name": "土城國小",
        "facility_type": "school",
        "city": "新北市",
        "district": "土城區",
        "address": "新北市土城區",
        "population_or_capacity": 1375,
        "is_affected": false,
        "risk_level": "green",
        "exposure_score": 0
      }
    },
    {
      "type": "Feature",
      "geometry": {
        "type": "Point",
        "coordinates": [
          121.461201,
          24.984827
        ]
      },
      "properties": {
        "facility_id": "SCH_N020",
        "facility_name": "清水國小",
        "facility_type": "school",
        "city": "新北市",
        "district": "土城區",
        "address": "新北市土城區",
        "population_or_capacity": 646,
        "is_affected": false,
        "risk_level": "green",
        "exposure_score": 0
      }
    },
    {
      "type": "Feature",
      "geometry": {
        "type": "Point",
        "coordinates": [
          121.464977,
          24.988939
        ]
      },
      "properties": {
        "facility_id": "SCH_N021",
        "facility_name": "安和國小",
        "facility_type": "school",
        "city": "新北市",
        "district": "土城區",
        "address": "新北市土城區",
        "population_or_capacity": 1236,
        "is_affected": false,
        "risk_level": "green",
        "exposure_score": 0
      }
    },
    {
      "type": "Feature",
      "geometry": {
        "type": "Point",
        "coordinates": [
          121.454421,
          24.986902
        ]
      },
      "properties": {
        "facility_id": "SCH_N022",
        "facility_name": "廣福國小",
        "facility_type": "school",
        "city": "新北市",
        "district": "土城區",
        "address": "新北市土城區",
        "population_or_capacity": 1339,
        "is_affected": false,
        "risk_level": "green",
        "exposure_score": 0
      }
    },
    {
      "type": "Feature",
      "geometry": {
        "type": "Point",
        "coordinates": [
          121.414319,
          24.956042
        ]
      },
      "properties": {
        "facility_id": "SCH_N023",
        "facility_name": "頂埔國小",
        "facility_type": "school",
        "city": "新北市",
        "district": "土城區",
        "address": "新北市土城區",
        "population_or_capacity": 1095,
        "is_affected": true,
        "relation_type": "同供應商+同原料",
        "related_ingredient": "高麗菜",
        "related_supplier": "三統食品有限公司",
        "exposure_score": 70.34,
        "risk_level": "orange",
        "suggested_attention": "檢查午餐留樣與進貨紀錄（重點：確認與疑似供應商之合約與批號）"
      }
    },
    {
      "type": "Feature",
      "geometry": {
        "type": "Point",
        "coordinates": [
          121.447954,
          24.985214
        ]
      },
      "properties": {
        "facility_id": "SCH_N024",
        "facility_name": "樂利國小",
        "facility_type": "school",
        "city": "新北市",
        "district": "土城區",
        "address": "新北市土城區",
        "population_or_capacity": 794,
        "is_affected": false,
        "risk_level": "green",
        "exposure_score": 0
      }
    },
    {
      "type": "Feature",
      "geometry": {
        "type": "Point",
        "coordinates": [
          121.454025,
          24.991518
        ]
      },
      "properties": {
        "facility_id": "SCH_N025",
        "facility_name": "信義國小",
        "facility_type": "school",
        "city": "新北市",
        "district": "土城區",
        "address": "新北市土城區",
        "population_or_capacity": 900,
        "is_affected": false,
        "risk_level": "green",
        "exposure_score": 0
      }
    },
    {
      "type": "Feature",
      "geometry": {
        "type": "Point",
        "coordinates": [
          121.406015,
          25.016416
        ]
      },
      "properties": {
        "facility_id": "SCH_N026",
        "facility_name": "三多國小",
        "facility_type": "school",
        "city": "新北市",
        "district": "樹林區",
        "address": "新北市樹林區",
        "population_or_capacity": 1466,
        "is_affected": false,
        "risk_level": "green",
        "exposure_score": 0
      }
    },
    {
      "type": "Feature",
      "geometry": {
        "type": "Point",
        "coordinates": [
          121.414701,
          25.001955
        ]
      },
      "properties": {
        "facility_id": "SCH_N027",
        "facility_name": "武林國小",
        "facility_type": "school",
        "city": "新北市",
        "district": "樹林區",
        "address": "新北市樹林區",
        "population_or_capacity": 600,
        "is_affected": false,
        "risk_level": "green",
        "exposure_score": 0
      }
    },
    {
      "type": "Feature",
      "geometry": {
        "type": "Point",
        "coordinates": [
          121.425443,
          24.998
        ]
      },
      "properties": {
        "facility_id": "SCH_N028",
        "facility_name": "文林國小",
        "facility_type": "school",
        "city": "新北市",
        "district": "樹林區",
        "address": "新北市樹林區",
        "population_or_capacity": 626,
        "is_affected": false,
        "risk_level": "green",
        "exposure_score": 0
      }
    },
    {
      "type": "Feature",
      "geometry": {
        "type": "Point",
        "coordinates": [
          121.418146,
          24.989748
        ]
      },
      "properties": {
        "facility_id": "SCH_N029",
        "facility_name": "樹林國小",
        "facility_type": "school",
        "city": "新北市",
        "district": "樹林區",
        "address": "新北市樹林區",
        "population_or_capacity": 1025,
        "is_affected": false,
        "risk_level": "green",
        "exposure_score": 0
      }
    },
    {
      "type": "Feature",
      "geometry": {
        "type": "Point",
        "coordinates": [
          121.415841,
          24.985742
        ]
      },
      "properties": {
        "facility_id": "SCH_N030",
        "facility_name": "育林國小",
        "facility_type": "school",
        "city": "新北市",
        "district": "樹林區",
        "address": "新北市樹林區",
        "population_or_capacity": 922,
        "is_affected": false,
        "risk_level": "green",
        "exposure_score": 0
      }
    },
    {
      "type": "Feature",
      "geometry": {
        "type": "Point",
        "coordinates": [
          121.5472,
          25.0309
        ]
      },
      "properties": {
        "facility_id": "KIN001",
        "facility_name": "大安區樂多幼兒園",
        "facility_type": "kindergarten",
        "city": "臺北市",
        "district": "大安區",
        "address": "臺北市大安區",
        "population_or_capacity": 81,
        "is_affected": false,
        "risk_level": "green",
        "exposure_score": 0
      }
    },
    {
      "type": "Feature",
      "geometry": {
        "type": "Point",
        "coordinates": [
          121.5427,
          25.0279
        ]
      },
      "properties": {
        "facility_id": "KIN002",
        "facility_name": "大安區陽光幼兒園",
        "facility_type": "kindergarten",
        "city": "臺北市",
        "district": "大安區",
        "address": "臺北市大安區",
        "population_or_capacity": 162,
        "is_affected": true,
        "relation_type": "同供應商+同原料",
        "related_ingredient": "高麗菜",
        "related_supplier": "三統食品有限公司",
        "exposure_score": 67.27,
        "risk_level": "orange",
        "suggested_attention": "通知園方確認供餐來源（重點：確認與疑似供應商之合約與批號）"
      }
    },
    {
      "type": "Feature",
      "geometry": {
        "type": "Point",
        "coordinates": [
          121.568,
          25.0288
        ]
      },
      "properties": {
        "facility_id": "KIN003",
        "facility_name": "信義區樂多幼兒園",
        "facility_type": "kindergarten",
        "city": "臺北市",
        "district": "信義區",
        "address": "臺北市信義區",
        "population_or_capacity": 98,
        "is_affected": false,
        "risk_level": "green",
        "exposure_score": 0
      }
    },
    {
      "type": "Feature",
      "geometry": {
        "type": "Point",
        "coordinates": [
          121.5667,
          25.0359
        ]
      },
      "properties": {
        "facility_id": "KIN004",
        "facility_name": "信義區陽光幼兒園",
        "facility_type": "kindergarten",
        "city": "臺北市",
        "district": "信義區",
        "address": "臺北市信義區",
        "population_or_capacity": 171,
        "is_affected": false,
        "risk_level": "green",
        "exposure_score": 0
      }
    },
    {
      "type": "Feature",
      "geometry": {
        "type": "Point",
        "coordinates": [
          121.52,
          25.0279
        ]
      },
      "properties": {
        "facility_id": "KIN005",
        "facility_name": "中正區樂多幼兒園",
        "facility_type": "kindergarten",
        "city": "臺北市",
        "district": "中正區",
        "address": "臺北市中正區",
        "population_or_capacity": 122,
        "is_affected": true,
        "relation_type": "同供應商+同原料",
        "related_ingredient": "高麗菜",
        "related_supplier": "三統食品有限公司",
        "exposure_score": 66.71,
        "risk_level": "orange",
        "suggested_attention": "通知園方確認供餐來源（重點：確認與疑似供應商之合約與批號）"
      }
    },
    {
      "type": "Feature",
      "geometry": {
        "type": "Point",
        "coordinates": [
          121.5189,
          25.0356
        ]
      },
      "properties": {
        "facility_id": "KIN006",
        "facility_name": "中正區陽光幼兒園",
        "facility_type": "kindergarten",
        "city": "臺北市",
        "district": "中正區",
        "address": "臺北市中正區",
        "population_or_capacity": 100,
        "is_affected": true,
        "relation_type": "同供應商+同原料",
        "related_ingredient": "高麗菜",
        "related_supplier": "三統食品有限公司",
        "exposure_score": 66.4,
        "risk_level": "orange",
        "suggested_attention": "通知園方確認供餐來源（重點：確認與疑似供應商之合約與批號）"
      }
    },
    {
      "type": "Feature",
      "geometry": {
        "type": "Point",
        "coordinates": [
          121.5248,
          25.0907
        ]
      },
      "properties": {
        "facility_id": "KIN007",
        "facility_name": "士林區樂多幼兒園",
        "facility_type": "kindergarten",
        "city": "臺北市",
        "district": "士林區",
        "address": "臺北市士林區",
        "population_or_capacity": 145,
        "is_affected": true,
        "relation_type": "同供應商+同原料",
        "related_ingredient": "高麗菜",
        "related_supplier": "三統食品有限公司",
        "exposure_score": 67.03,
        "risk_level": "orange",
        "suggested_attention": "通知園方確認供餐來源（重點：確認與疑似供應商之合約與批號）"
      }
    },
    {
      "type": "Feature",
      "geometry": {
        "type": "Point",
        "coordinates": [
          121.5291,
          25.0884
        ]
      },
      "properties": {
        "facility_id": "KIN008",
        "facility_name": "士林區陽光幼兒園",
        "facility_type": "kindergarten",
        "city": "臺北市",
        "district": "士林區",
        "address": "臺北市士林區",
        "population_or_capacity": 170,
        "is_affected": true,
        "relation_type": "同供應商",
        "related_ingredient": "",
        "related_supplier": "三統食品有限公司",
        "exposure_score": 61.88,
        "risk_level": "yellow",
        "suggested_attention": "通知園方確認供餐來源（重點：確認與疑似供應商之合約與批號）"
      }
    },
    {
      "type": "Feature",
      "geometry": {
        "type": "Point",
        "coordinates": [
          121.5862,
          25.0831
        ]
      },
      "properties": {
        "facility_id": "KIN009",
        "facility_name": "內湖區樂多幼兒園",
        "facility_type": "kindergarten",
        "city": "臺北市",
        "district": "內湖區",
        "address": "臺北市內湖區",
        "population_or_capacity": 219,
        "is_affected": true,
        "relation_type": "同供應商",
        "related_ingredient": "",
        "related_supplier": "三統食品有限公司",
        "exposure_score": 62.57,
        "risk_level": "yellow",
        "suggested_attention": "通知園方確認供餐來源（重點：確認與疑似供應商之合約與批號）"
      }
    },
    {
      "type": "Feature",
      "geometry": {
        "type": "Point",
        "coordinates": [
          121.5901,
          25.0854
        ]
      },
      "properties": {
        "facility_id": "KIN010",
        "facility_name": "內湖區陽光幼兒園",
        "facility_type": "kindergarten",
        "city": "臺北市",
        "district": "內湖區",
        "address": "臺北市內湖區",
        "population_or_capacity": 104,
        "is_affected": true,
        "relation_type": "同供應商+同原料",
        "related_ingredient": "高麗菜",
        "related_supplier": "三統食品有限公司",
        "exposure_score": 66.46,
        "risk_level": "orange",
        "suggested_attention": "通知園方確認供餐來源（重點：確認與疑似供應商之合約與批號）"
      }
    },
    {
      "type": "Feature",
      "geometry": {
        "type": "Point",
        "coordinates": [
          121.4668,
          25.01
        ]
      },
      "properties": {
        "facility_id": "KIN011",
        "facility_name": "板橋區愛兒幼兒園",
        "facility_type": "kindergarten",
        "city": "新北市",
        "district": "板橋區",
        "address": "新北市板橋區",
        "population_or_capacity": 166,
        "is_affected": true,
        "relation_type": "事件熱區",
        "related_ingredient": "高麗菜",
        "related_supplier": "力銘農產",
        "exposure_score": 45.33,
        "risk_level": "yellow",
        "suggested_attention": "通知園方確認供餐來源（重點：留意鄰近事件熱區之影響）"
      }
    },
    {
      "type": "Feature",
      "geometry": {
        "type": "Point",
        "coordinates": [
          121.4664,
          25.0095
        ]
      },
      "properties": {
        "facility_id": "KIN012",
        "facility_name": "板橋區快樂幼兒園",
        "facility_type": "kindergarten",
        "city": "新北市",
        "district": "板橋區",
        "address": "新北市板橋區",
        "population_or_capacity": 200,
        "is_affected": true,
        "relation_type": "事件熱區",
        "related_ingredient": "高麗菜",
        "related_supplier": "力銘農產",
        "exposure_score": 45.8,
        "risk_level": "yellow",
        "suggested_attention": "通知園方確認供餐來源（重點：留意鄰近事件熱區之影響）"
      }
    },
    {
      "type": "Feature",
      "geometry": {
        "type": "Point",
        "coordinates": [
          121.4969,
          25.0028
        ]
      },
      "properties": {
        "facility_id": "KIN013",
        "facility_name": "中和區愛兒幼兒園",
        "facility_type": "kindergarten",
        "city": "新北市",
        "district": "中和區",
        "address": "新北市中和區",
        "population_or_capacity": 129,
        "is_affected": true,
        "relation_type": "事件熱區",
        "related_ingredient": "高麗菜",
        "related_supplier": "力銘農產",
        "exposure_score": 44.81,
        "risk_level": "green",
        "suggested_attention": "通知園方確認供餐來源（重點：留意鄰近事件熱區之影響）"
      }
    },
    {
      "type": "Feature",
      "geometry": {
        "type": "Point",
        "coordinates": [
          121.4949,
          25.0053
        ]
      },
      "properties": {
        "facility_id": "KIN014",
        "facility_name": "中和區快樂幼兒園",
        "facility_type": "kindergarten",
        "city": "新北市",
        "district": "中和區",
        "address": "新北市中和區",
        "population_or_capacity": 225,
        "is_affected": true,
        "relation_type": "同供應商+同原料",
        "related_ingredient": "高麗菜",
        "related_supplier": "三統食品有限公司",
        "exposure_score": 68.15,
        "risk_level": "orange",
        "suggested_attention": "通知園方確認供餐來源（重點：確認與疑似供應商之合約與批號）"
      }
    },
    {
      "type": "Feature",
      "geometry": {
        "type": "Point",
        "coordinates": [
          121.5075,
          24.9952
        ]
      },
      "properties": {
        "facility_id": "KIN015",
        "facility_name": "永和區愛兒幼兒園",
        "facility_type": "kindergarten",
        "city": "新北市",
        "district": "永和區",
        "address": "新北市永和區",
        "population_or_capacity": 172,
        "is_affected": true,
        "relation_type": "同供應商+同原料",
        "related_ingredient": "高麗菜",
        "related_supplier": "三統食品有限公司",
        "exposure_score": 67.41,
        "risk_level": "orange",
        "suggested_attention": "通知園方確認供餐來源（重點：確認與疑似供應商之合約與批號）"
      }
    },
    {
      "type": "Feature",
      "geometry": {
        "type": "Point",
        "coordinates": [
          121.51,
          24.9871
        ]
      },
      "properties": {
        "facility_id": "KIN016",
        "facility_name": "永和區快樂幼兒園",
        "facility_type": "kindergarten",
        "city": "新北市",
        "district": "永和區",
        "address": "新北市永和區",
        "population_or_capacity": 103,
        "is_affected": false,
        "risk_level": "green",
        "exposure_score": 0
      }
    },
    {
      "type": "Feature",
      "geometry": {
        "type": "Point",
        "coordinates": [
          121.4863,
          25.0663
        ]
      },
      "properties": {
        "facility_id": "KIN017",
        "facility_name": "三重區愛兒幼兒園",
        "facility_type": "kindergarten",
        "city": "新北市",
        "district": "三重區",
        "address": "新北市三重區",
        "population_or_capacity": 179,
        "is_affected": false,
        "risk_level": "green",
        "exposure_score": 0
      }
    },
    {
      "type": "Feature",
      "geometry": {
        "type": "Point",
        "coordinates": [
          121.4859,
          25.0603
        ]
      },
      "properties": {
        "facility_id": "KIN018",
        "facility_name": "三重區快樂幼兒園",
        "facility_type": "kindergarten",
        "city": "新北市",
        "district": "三重區",
        "address": "新北市三重區",
        "population_or_capacity": 104,
        "is_affected": true,
        "relation_type": "同供應商+同原料",
        "related_ingredient": "高麗菜",
        "related_supplier": "三統食品有限公司",
        "exposure_score": 66.46,
        "risk_level": "orange",
        "suggested_attention": "通知園方確認供餐來源（重點：確認與疑似供應商之合約與批號）"
      }
    },
    {
      "type": "Feature",
      "geometry": {
        "type": "Point",
        "coordinates": [
          121.4478,
          25.0403
        ]
      },
      "properties": {
        "facility_id": "KIN019",
        "facility_name": "新莊區愛兒幼兒園",
        "facility_type": "kindergarten",
        "city": "新北市",
        "district": "新莊區",
        "address": "新北市新莊區",
        "population_or_capacity": 239,
        "is_affected": false,
        "risk_level": "green",
        "exposure_score": 0
      }
    },
    {
      "type": "Feature",
      "geometry": {
        "type": "Point",
        "coordinates": [
          121.4461,
          25.0319
        ]
      },
      "properties": {
        "facility_id": "KIN020",
        "facility_name": "新莊區快樂幼兒園",
        "facility_type": "kindergarten",
        "city": "新北市",
        "district": "新莊區",
        "address": "新北市新莊區",
        "population_or_capacity": 238,
        "is_affected": false,
        "risk_level": "green",
        "exposure_score": 0
      }
    }
  ]
}