{
  "type": "FeatureCollection",
  "name": "VulnerableFacility_Kindergarten",
  "crs": {
    "type": "name",
    "properties": {
      "name": "urn:ogc:def:crs:OGC:1.3:CRS84"
    }
  },
  "features": [
    {
      "type": "Feature",
      "geometry": {
        "type": "Point",
        "coordinates": [
          121.5472,
          25.0309
        ]
      },
      "properties": {
        "facility_id": "KIN001",
        "facility_name": "大安區樂多幼兒園",
        "facility_type": "kindergarten",
        "city": "臺北市",
        "district": "大安區",
        "address": "臺北市大安區",
        "population_or_capacity": 81,
        "is_affected": false,
        "risk_level": "green",
        "exposure_score": 0
      }
    },
    {
      "type": "Feature",
      "geometry": {
        "type": "Point",
        "coordinates": [
          121.5427,
          25.0279
        ]
      },
      "properties": {
        "facility_id": "KIN002",
        "facility_name": "大安區陽光幼兒園",
        "facility_type": "kindergarten",
        "city": "臺北市",
        "district": "大安區",
        "address": "臺北市大安區",
        "population_or_capacity": 162,
        "is_affected": true,
        "relation_type": "同供應商+同原料",
        "related_ingredient": "高麗菜",
        "related_supplier": "三統食品有限公司",
        "exposure_score": 67.27,
        "risk_level": "orange",
        "suggested_attention": "通知園方確認供餐來源（重點：確認與疑似供應商之合約與批號）"
      }
    },
    {
      "type": "Feature",
      "geometry": {
        "type": "Point",
        "coordinates": [
          121.568,
          25.0288
        ]
      },
      "properties": {
        "facility_id": "KIN003",
        "facility_name": "信義區樂多幼兒園",
        "facility_type": "kindergarten",
        "city": "臺北市",
        "district": "信義區",
        "address": "臺北市信義區",
        "population_or_capacity": 98,
        "is_affected": false,
        "risk_level": "green",
        "exposure_score": 0
      }
    },
    {
      "type": "Feature",
      "geometry": {
        "type": "Point",
        "coordinates": [
          121.5667,
          25.0359
        ]
      },
      "properties": {
        "facility_id": "KIN004",
        "facility_name": "信義區陽光幼兒園",
        "facility_type": "kindergarten",
        "city": "臺北市",
        "district": "信義區",
        "address": "臺北市信義區",
        "population_or_capacity": 171,
        "is_affected": false,
        "risk_level": "green",
        "exposure_score": 0
      }
    },
    {
      "type": "Feature",
      "geometry": {
        "type": "Point",
        "coordinates": [
          121.52,
          25.0279
        ]
      },
      "properties": {
        "facility_id": "KIN005",
        "facility_name": "中正區樂多幼兒園",
        "facility_type": "kindergarten",
        "city": "臺北市",
        "district": "中正區",
        "address": "臺北市中正區",
        "population_or_capacity": 122,
        "is_affected": true,
        "relation_type": "同供應商+同原料",
        "related_ingredient": "高麗菜",
        "related_supplier": "三統食品有限公司",
        "exposure_score": 66.71,
        "risk_level": "orange",
        "suggested_attention": "通知園方確認供餐來源（重點：確認與疑似供應商之合約與批號）"
      }
    },
    {
      "type": "Feature",
      "geometry": {
        "type": "Point",
        "coordinates": [
          121.5189,
          25.0356
        ]
      },
      "properties": {
        "facility_id": "KIN006",
        "facility_name": "中正區陽光幼兒園",
        "facility_type": "kindergarten",
        "city": "臺北市",
        "district": "中正區",
        "address": "臺北市中正區",
        "population_or_capacity": 100,
        "is_affected": true,
        "relation_type": "同供應商+同原料",
        "related_ingredient": "高麗菜",
        "related_supplier": "三統食品有限公司",
        "exposure_score": 66.4,
        "risk_level": "orange",
        "suggested_attention": "通知園方確認供餐來源（重點：確認與疑似供應商之合約與批號）"
      }
    },
    {
      "type": "Feature",
      "geometry": {
        "type": "Point",
        "coordinates": [
          121.5248,
          25.0907
        ]
      },
      "properties": {
        "facility_id": "KIN007",
        "facility_name": "士林區樂多幼兒園",
        "facility_type": "kindergarten",
        "city": "臺北市",
        "district": "士林區",
        "address": "臺北市士林區",
        "population_or_capacity": 145,
        "is_affected": true,
        "relation_type": "同供應商+同原料",
        "related_ingredient": "高麗菜",
        "related_supplier": "三統食品有限公司",
        "exposure_score": 67.03,
        "risk_level": "orange",
        "suggested_attention": "通知園方確認供餐來源（重點：確認與疑似供應商之合約與批號）"
      }
    },
    {
      "type": "Feature",
      "geometry": {
        "type": "Point",
        "coordinates": [
          121.5291,
          25.0884
        ]
      },
      "properties": {
        "facility_id": "KIN008",
        "facility_name": "士林區陽光幼兒園",
        "facility_type": "kindergarten",
        "city": "臺北市",
        "district": "士林區",
        "address": "臺北市士林區",
        "population_or_capacity": 170,
        "is_affected": true,
        "relation_type": "同供應商",
        "related_ingredient": "",
        "related_supplier": "三統食品有限公司",
        "exposure_score": 61.88,
        "risk_level": "yellow",
        "suggested_attention": "通知園方確認供餐來源（重點：確認與疑似供應商之合約與批號）"
      }
    },
    {
      "type": "Feature",
      "geometry": {
        "type": "Point",
        "coordinates": [
          121.5862,
          25.0831
        ]
      },
      "properties": {
        "facility_id": "KIN009",
        "facility_name": "內湖區樂多幼兒園",
        "facility_type": "kindergarten",
        "city": "臺北市",
        "district": "內湖區",
        "address": "臺北市內湖區",
        "population_or_capacity": 219,
        "is_affected": true,
        "relation_type": "同供應商",
        "related_ingredient": "",
        "related_supplier": "三統食品有限公司",
        "exposure_score": 62.57,
        "risk_level": "yellow",
        "suggested_attention": "通知園方確認供餐來源（重點：確認與疑似供應商之合約與批號）"
      }
    },
    {
      "type": "Feature",
      "geometry": {
        "type": "Point",
        "coordinates": [
          121.5901,
          25.0854
        ]
      },
      "properties": {
        "facility_id": "KIN010",
        "facility_name": "內湖區陽光幼兒園",
        "facility_type": "kindergarten",
        "city": "臺北市",
        "district": "內湖區",
        "address": "臺北市內湖區",
        "population_or_capacity": 104,
        "is_affected": true,
        "relation_type": "同供應商+同原料",
        "related_ingredient": "高麗菜",
        "related_supplier": "三統食品有限公司",
        "exposure_score": 66.46,
        "risk_level": "orange",
        "suggested_attention": "通知園方確認供餐來源（重點：確認與疑似供應商之合約與批號）"
      }
    },
    {
      "type": "Feature",
      "geometry": {
        "type": "Point",
        "coordinates": [
          121.4668,
          25.01
        ]
      },
      "properties": {
        "facility_id": "KIN011",
        "facility_name": "板橋區愛兒幼兒園",
        "facility_type": "kindergarten",
        "city": "新北市",
        "district": "板橋區",
        "address": "新北市板橋區",
        "population_or_capacity": 166,
        "is_affected": true,
        "relation_type": "事件熱區",
        "related_ingredient": "高麗菜",
        "related_supplier": "力銘農產",
        "exposure_score": 45.33,
        "risk_level": "yellow",
        "suggested_attention": "通知園方確認供餐來源（重點：留意鄰近事件熱區之影響）"
      }
    },
    {
      "type": "Feature",
      "geometry": {
        "type": "Point",
        "coordinates": [
          121.4664,
          25.0095
        ]
      },
      "properties": {
        "facility_id": "KIN012",
        "facility_name": "板橋區快樂幼兒園",
        "facility_type": "kindergarten",
        "city": "新北市",
        "district": "板橋區",
        "address": "新北市板橋區",
        "population_or_capacity": 200,
        "is_affected": true,
        "relation_type": "事件熱區",
        "related_ingredient": "高麗菜",
        "related_supplier": "力銘農產",
        "exposure_score": 45.8,
        "risk_level": "yellow",
        "suggested_attention": "通知園方確認供餐來源（重點：留意鄰近事件熱區之影響）"
      }
    },
    {
      "type": "Feature",
      "geometry": {
        "type": "Point",
        "coordinates": [
          121.4969,
          25.0028
        ]
      },
      "properties": {
        "facility_id": "KIN013",
        "facility_name": "中和區愛兒幼兒園",
        "facility_type": "kindergarten",
        "city": "新北市",
        "district": "中和區",
        "address": "新北市中和區",
        "population_or_capacity": 129,
        "is_affected": true,
        "relation_type": "事件熱區",
        "related_ingredient": "高麗菜",
        "related_supplier": "力銘農產",
        "exposure_score": 44.81,
        "risk_level": "green",
        "suggested_attention": "通知園方確認供餐來源（重點：留意鄰近事件熱區之影響）"
      }
    },
    {
      "type": "Feature",
      "geometry": {
        "type": "Point",
        "coordinates": [
          121.4949,
          25.0053
        ]
      },
      "properties": {
        "facility_id": "KIN014",
        "facility_name": "中和區快樂幼兒園",
        "facility_type": "kindergarten",
        "city": "新北市",
        "district": "中和區",
        "address": "新北市中和區",
        "population_or_capacity": 225,
        "is_affected": true,
        "relation_type": "同供應商+同原料",
        "related_ingredient": "高麗菜",
        "related_supplier": "三統食品有限公司",
        "exposure_score": 68.15,
        "risk_level": "orange",
        "suggested_attention": "通知園方確認供餐來源（重點：確認與疑似供應商之合約與批號）"
      }
    },
    {
      "type": "Feature",
      "geometry": {
        "type": "Point",
        "coordinates": [
          121.5075,
          24.9952
        ]
      },
      "properties": {
        "facility_id": "KIN015",
        "facility_name": "永和區愛兒幼兒園",
        "facility_type": "kindergarten",
        "city": "新北市",
        "district": "永和區",
        "address": "新北市永和區",
        "population_or_capacity": 172,
        "is_affected": true,
        "relation_type": "同供應商+同原料",
        "related_ingredient": "高麗菜",
        "related_supplier": "三統食品有限公司",
        "exposure_score": 67.41,
        "risk_level": "orange",
        "suggested_attention": "通知園方確認供餐來源（重點：確認與疑似供應商之合約與批號）"
      }
    },
    {
      "type": "Feature",
      "geometry": {
        "type": "Point",
        "coordinates": [
          121.51,
          24.9871
        ]
      },
      "properties": {
        "facility_id": "KIN016",
        "facility_name": "永和區快樂幼兒園",
        "facility_type": "kindergarten",
        "city": "新北市",
        "district": "永和區",
        "address": "新北市永和區",
        "population_or_capacity": 103,
        "is_affected": false,
        "risk_level": "green",
        "exposure_score": 0
      }
    },
    {
      "type": "Feature",
      "geometry": {
        "type": "Point",
        "coordinates": [
          121.4863,
          25.0663
        ]
      },
      "properties": {
        "facility_id": "KIN017",
        "facility_name": "三重區愛兒幼兒園",
        "facility_type": "kindergarten",
        "city": "新北市",
        "district": "三重區",
        "address": "新北市三重區",
        "population_or_capacity": 179,
        "is_affected": false,
        "risk_level": "green",
        "exposure_score": 0
      }
    },
    {
      "type": "Feature",
      "geometry": {
        "type": "Point",
        "coordinates": [
          121.4859,
          25.0603
        ]
      },
      "properties": {
        "facility_id": "KIN018",
        "facility_name": "三重區快樂幼兒園",
        "facility_type": "kindergarten",
        "city": "新北市",
        "district": "三重區",
        "address": "新北市三重區",
        "population_or_capacity": 104,
        "is_affected": true,
        "relation_type": "同供應商+同原料",
        "related_ingredient": "高麗菜",
        "related_supplier": "三統食品有限公司",
        "exposure_score": 66.46,
        "risk_level": "orange",
        "suggested_attention": "通知園方確認供餐來源（重點：確認與疑似供應商之合約與批號）"
      }
    },
    {
      "type": "Feature",
      "geometry": {
        "type": "Point",
        "coordinates": [
          121.4478,
          25.0403
        ]
      },
      "properties": {
        "facility_id": "KIN019",
        "facility_name": "新莊區愛兒幼兒園",
        "facility_type": "kindergarten",
        "city": "新北市",
        "district": "新莊區",
        "address": "新北市新莊區",
        "population_or_capacity": 239,
        "is_affected": false,
        "risk_level": "green",
        "exposure_score": 0
      }
    },
    {
      "type": "Feature",
      "geometry": {
        "type": "Point",
        "coordinates": [
          121.4461,
          25.0319
        ]
      },
      "properties": {
        "facility_id": "KIN020",
        "facility_name": "新莊區快樂幼兒園",
        "facility_type": "kindergarten",
        "city": "新北市",
        "district": "新莊區",
        "address": "新北市新莊區",
        "population_or_capacity": 238,
        "is_affected": false,
        "risk_level": "green",
        "exposure_score": 0
      }
    }
  ]
}