{"type":"FeatureCollection","features":[{"type":"Feature","geometry":{"type":"Point","coordinates":[121.366382,24.91152]},"properties":{"facility_id":"ELD_N019","facility_name":"新北市私立慈恩老人長期照顧中心(養護型)","facility_type":"elderly_home","city":"新北市","district":"三峽區","address":"新北市三峽區大利路2號(1、2層)、4號、6號2樓","population_or_capacity":45,"is_affected":true,"exposure_score":65.13,"risk_level":"orange","relation_type":"同供應商","related_supplier":"三統食品有限公司","suggested_attention":"加強衛教並確認餐食來源（重點：確認與疑似供應商之合約與批號）"}},{"type":"Feature","geometry":{"type":"Point","coordinates":[121.387681,24.933671]},"properties":{"facility_id":"ELD_N029","facility_name":"新北市私立清日養老院老人長期照顧中心(養護型)","facility_type":"elderly_home","city":"新北市","district":"三峽區","address":"新北市三峽區介壽路1段280號6樓","population_or_capacity":48,"is_affected":true,"exposure_score":70.67,"risk_level":"orange","relation_type":"同供應商+同原料","related_ingredient":"高麗菜","related_supplier":"三統食品有限公司","suggested_attention":"加強衛教並確認餐食來源（重點：確認與疑似供應商之合約與批號）"}},{"type":"Feature","geometry":{"type":"Point","coordinates":[121.387681,24.933671]},"properties":{"facility_id":"ELD_N028","facility_name":"新北市私立清照養老院老人長期照顧中心(養護型)","facility_type":"elderly_home","city":"新北市","district":"三峽區","address":"新北市三峽區介壽路1段280號5樓","population_or_capacity":48,"is_affected":true,"exposure_score":70.67,"risk_level":"orange","relation_type":"同供應商+同原料","related_ingredient":"高麗菜","related_supplier":"三統食品有限公司","suggested_attention":"加強衛教並確認餐食來源（重點：確認與疑似供應商之合約與批號）"}},{"type":"Feature","geometry":{"type":"Point","coordinates":[121.387681,24.933671]},"properties":{"facility_id":"ELD_N025","facility_name":"新北市私立清福養老院老人長期照顧中心(養護型)","facility_type":"elderly_home","city":"新北市","district":"三峽區","address":"新北市三峽區介壽路1段278號7樓","population_or_capacity":48,"is_affected":true,"exposure_score":65.17,"risk_level":"orange","relation_type":"同供應商","related_supplier":"三統食品有限公司","suggested_attention":"加強衛教並確認餐食來源（重點：確認與疑似供應商之合約與批號）"}},{"type":"Feature","geometry":{"type":"Point","coordinates":[121.466791,25.043382]},"properties":{"facility_id":"ELD_N015","facility_name":"新北市私立圓滿老人長期照顧中心(養護型)","facility_type":"elderly_home","city":"新北市","district":"三重區","address":"新北市三重區重新路5段639號10樓、639之1號10樓","population_or_capacity":39,"is_affected":true,"exposure_score":70.55,"risk_level":"orange","relation_type":"同供應商+同原料","related_ingredient":"高麗菜","related_supplier":"三統食品有限公司","suggested_attention":"加強衛教並確認餐食來源（重點：確認與疑似供應商之合約與批號）"}},{"type":"Feature","geometry":{"type":"Point","coordinates":[121.467938,25.051167]},"properties":{"facility_id":"ELD_N008","facility_name":"新北市私立幸福老人長期照顧中心(養護型)","facility_type":"elderly_home","city":"新北市","district":"三重區","address":"新北市三重區中興北街54號5樓","population_or_capacity":46,"is_affected":true,"exposure_score":70.64,"risk_level":"orange","relation_type":"同供應商+同原料","related_ingredient":"高麗菜","related_supplier":"三統食品有限公司","suggested_attention":"加強衛教並確認餐食來源（重點：確認與疑似供應商之合約與批號）"}},{"type":"Feature","geometry":{"type":"Point","coordinates":[121.488223,25.07619]},"properties":{"facility_id":"ELD_N013","facility_name":"新北市私立祐安老人長期照顧中心(養護型)","facility_type":"elderly_home","city":"新北市","district":"三重區","address":"新北市三重區自強路4段6號3樓","population_or_capacity":49,"is_affected":true,"exposure_score":70.69,"risk_level":"orange","relation_type":"同供應商+同原料","related_ingredient":"高麗菜","related_supplier":"三統食品有限公司","suggested_attention":"加強衛教並確認餐食來源（重點：確認與疑似供應商之合約與批號）"}},{"type":"Feature","geometry":{"type":"Point","coordinates":[121.491339,25.076407]},"properties":{"facility_id":"ELD_N016","facility_name":"新北市私立蓮愛老人養護中心","facility_type":"elderly_home","city":"新北市","district":"三重區","address":"新北市三重區溪尾街41號2樓","population_or_capacity":32,"is_affected":true,"exposure_score":70.45,"risk_level":"orange","relation_type":"同供應商+同原料","related_ingredient":"高麗菜","related_supplier":"三統食品有限公司","suggested_attention":"加強衛教並確認餐食來源（重點：確認與疑似供應商之合約與批號）"}},{"type":"Feature","geometry":{"type":"Point","coordinates":[121.494418,25.071483]},"properties":{"facility_id":"ELD_N018","facility_name":"新北市私立長園老人長期照顧中心(養護型)","facility_type":"elderly_home","city":"新北市","district":"三重區","address":"新北市三重區龍門路1號3樓、3樓之1","population_or_capacity":46,"is_affected":true,"exposure_score":70.64,"risk_level":"orange","relation_type":"同供應商+同原料","related_ingredient":"高麗菜","related_supplier":"三統食品有限公司","suggested_attention":"加強衛教並確認餐食來源（重點：確認與疑似供應商之合約與批號）"}},{"type":"Feature","geometry":{"type":"Point","coordinates":[121.5305,25.0596]},"properties":{"facility_id":"TPE-CARE-T07","facility_name":"臺北市私立崇仁老人長期照顧中心","facility_type":"elderly_home","city":"臺北市","district":"中山區","address":"新生北路三段80巷8號","population_or_capacity":65,"is_affected":true,"exposure_score":65,"risk_level":"yellow","relation_type":"同源供應鏈關聯","related_ingredient":"高麗菜","related_supplier":"力銘農產","suggested_attention":"請中山區衛生所複核近期食材進貨單，確認是否經由力銘或下游中盤商。"}},{"type":"Feature","geometry":{"type":"Point","coordinates":[121.5717,25.0303]},"properties":{"facility_id":"TPE-CARE-T13","facility_name":"臺北市私立信義老人安養中心","facility_type":"elderly_home","city":"臺北市","district":"信義區","address":"松德路85巷10號","population_or_capacity":88,"is_affected":true,"exposure_score":70,"risk_level":"yellow","relation_type":"同源供應鏈關聯","related_ingredient":"高麗菜","related_supplier":"力銘農產","suggested_attention":"與廣慈博愛院同行政區，建議併案稽查與檢驗。"}},{"type":"Feature","geometry":{"type":"Point","coordinates":[121.5717,25.0303]},"properties":{"facility_id":"TPE-CARE-T01","facility_name":"財團法人臺北市私立廣慈博愛院","facility_type":"elderly_home","city":"臺北市","district":"信義區","address":"福德街200號","population_or_capacity":120,"is_affected":true,"exposure_score":78,"risk_level":"orange","relation_type":"同供應商高麗菜配送","related_ingredient":"高麗菜","related_supplier":"力銘農產","suggested_attention":"建議信義區衛生所立即抽驗該院近三日餐食留樣與冷藏高麗菜，並於 24 小時內回報結果。"}},{"type":"Feature","geometry":{"type":"Point","coordinates":[121.5018,25.1322]},"properties":{"facility_id":"TPE-CARE-T14","facility_name":"臺北市私立北投祥和老人長期照顧中心","facility_type":"elderly_home","city":"臺北市","district":"北投區","address":"中央北路二段150號","population_or_capacity":70,"is_affected":true,"exposure_score":58,"risk_level":"yellow","relation_type":"同食材其他長照（潛在風險）","related_ingredient":"高麗菜","related_supplier":"力銘農產","suggested_attention":"與板橋區事件源相距較遠，建議列為次要稽查目標，三日內回報。"}},{"type":"Feature","geometry":{"type":"Point","coordinates":[121.5435,25.0259]},"properties":{"facility_id":"TPE-CARE-T05","facility_name":"國軍臺北榮譽國民之家","facility_type":"elderly_home","city":"臺北市","district":"大安區","address":"辛亥路三段123號","population_or_capacity":280,"is_affected":true,"exposure_score":82,"risk_level":"orange","relation_type":"同供應商高麗菜配送","related_ingredient":"高麗菜","related_supplier":"力銘農產","suggested_attention":"高齡長者人數多、共膳風險高，建議優先稽查並暫停可疑批次出餐。"}}]}